[
    {
        "metar": [
            "ENBO 010020Z 10026KT CAVOK M05/M13 Q1019=",
            "ENBO 010120Z 11027KT CAVOK M05/M12 Q1018=",
            "ENBO 010150Z 11028KT CAVOK M04/M12 Q1018=",
            "ENBO 010220Z 11024KT CAVOK M04/M12 Q1019=",
            "ENBO 010250Z 10026KT CAVOK M04/M12 Q1018=",
            "ENBO 010320Z 10026KT 9999 NSC M04/M12 Q1018=",
            "ENBO 010350Z 10026KT CAVOK M05/M12 Q1018=",
            "ENBO 010420Z 11024KT CAVOK M05/M11 Q1018=",
            "ENBO 010450Z 10024KT CAVOK M05/M12 Q1018=",
            "ENBO 010520Z 10023KT CAVOK M05/M12 Q1018=",
            "ENBO 010550Z 10024KT CAVOK M05/M12 Q1018=",
            "ENBO 010620Z 10025KT CAVOK M05/M12 Q1018=",
            "ENBO 010720Z 10025KT CAVOK M05/M12 Q1018 NOSIG=",
            "ENBO 010750Z 10026KT CAVOK M05/M12 Q1018 NOSIG=",
            "ENBO 010820Z 09025KT CAVOK M06/M12 Q1018 NOSIG=",
            "ENBO 010850Z 10024KT CAVOK M05/M12 Q1018 TEMPO 10024G34KT=",
            "ENBO 010920Z 09023KT CAVOK M05/M12 Q1018 NOSIG=",
            "ENBO 010950Z 09028KT CAVOK M06/M13 Q1018 NOSIG=",
            "ENBO 011020Z 09026KT CAVOK M06/M13 Q1018 NOSIG=",
            "ENBO 011050Z 09027KT CAVOK M06/M13 Q1018 TEMPO 10027G37KT=",
            "ENBO 011120Z 09025KT CAVOK M06/M13 Q1018 NOSIG=",
            "ENBO 011150Z 09025KT CAVOK M06/M13 Q1018 NOSIG=",
            "ENBO 011220Z 09024KT CAVOK M06/M13 Q1018 TEMPO 09024G34KT=",
            "ENBO 011250Z 08024KT CAVOK M06/M13 Q1018 NOSIG=",
            "ENBO 011320Z 09022KT CAVOK M06/M13 Q1018 NOSIG=",
            "ENBO 011350Z 09021KT CAVOK M06/M13 Q1018 NOSIG=",
            "ENBO 011420Z 10023KT CAVOK M07/M13 Q1018=",
            "ENBO 011450Z 10021KT CAVOK M06/M14 Q1018 TEMPO 10022G32KT=",
            "ENBO 011520Z 10023G35KT CAVOK M06/M14 Q1018 TEMPO 10023KT=",
            "ENBO 011550Z 11025KT CAVOK M06/M13 Q1018 TEMPO 10023G33KT=",
            "ENBO 011620Z 10026KT CAVOK M07/M14 Q1018 TEMPO 10023G33KT=",
            "ENBO 011650Z 10023KT CAVOK M06/M13 Q1018 TEMPO 10023G33KT=",
            "ENBO 011720Z 09025KT CAVOK M07/M14 Q1017 TEMPO 10023G33KT=",
            "ENBO 011750Z 09025KT CAVOK M07/M14 Q1017 TEMPO 10023G33KT=",
            "ENBO 011820Z 09024KT CAVOK M07/M14 Q1017 TEMPO 10023G33KT=",
            "ENBO 011850Z 10025KT CAVOK M07/M14 Q1018 NOSIG=",
            "ENBO 011920Z 10025KT CAVOK M06/M13 Q1018 NOSIG=",
            "ENBO 011950Z 10023KT CAVOK M07/M14 Q1017 NOSIG=",
            "ENBO 012020Z 09025KT CAVOK M07/M14 Q1017 NOSIG=",
            "ENBO 012050Z 09024KT CAVOK M07/M14 Q1018 NOSIG=",
            "ENBO 012120Z 09024KT CAVOK M08/M15 Q1018 NOSIG=",
            "ENBO 012150Z 09025KT CAVOK M08/M15 Q1018 NOSIG=",
            "ENBO 012220Z 09025KT 9999 NSC M08/M15 Q1017=",
            "ENBO 012250Z 10020KT CAVOK M08/M15 Q1018=",
            "ENBO 012320Z 09025KT CAVOK M08/M15 Q1017=",
            "ENBO 012350Z 09026KT CAVOK M08/M16 Q1017=",
            "",
            ""
        ]
    },
    {
        "metar": [
            "ENBO 020020Z 09024KT CAVOK M08/M16 Q1017=",
            "ENBO 020050Z 09026KT 9999 NSC M08/M16 Q1017=",
            "ENBO 020120Z 09025KT 9999 NSC M09/M16 Q1017=",
            "ENBO 020150Z 09026KT 9999 NSC M09/M17 Q1017=",
            "ENBO 020220Z 09026KT 9999 NSC M09/M17 Q1017=",
            "ENBO 020250Z 09025KT 9999 NSC M09/M17 Q1017=",
            "ENBO 020320Z 09025KT 9999 NSC M09/M17 Q1017=",
            "ENBO 020350Z 09025KT 9999 NSC M09/M17 Q1017=",
            "ENBO 020420Z 09024KT CAVOK M09/M18 Q1017=",
            "ENBO 020450Z 09025KT CAVOK M09/M17 Q1017=",
            "ENBO 020520Z 09025KT CAVOK M09/M17 Q1016=",
            "ENBO 020550Z 09025KT CAVOK M09/M17 Q1016=",
            "ENBO 020620Z 09026KT CAVOK M09/M17 Q1016 NOSIG=",
            "ENBO 020650Z 09026KT CAVOK M09/M18 Q1016 NOSIG=",
            "ENBO 020720Z 09026KT CAVOK M09/M18 Q1016 NOSIG=",
            "ENBO 020750Z 09024KT CAVOK M09/M17 Q1016 NOSIG=",
            "ENBO 020820Z 09026KT CAVOK M09/M17 Q1016 NOSIG=",
            "ENBO 020850Z 09025KT CAVOK M08/M17 Q1016 NOSIG=",
            "ENBO 020920Z 09027KT CAVOK M09/M17 Q1016 NOSIG=",
            "ENBO 020950Z 09025KT CAVOK M09/M17 Q1016 NOSIG=",
            "ENBO 021020Z 09028KT CAVOK M09/M17 Q1016 NOSIG=",
            "ENBO 021050Z 09026KT CAVOK M09/M17 Q1016 NOSIG=",
            "ENBO 021120Z 09023KT CAVOK M09/M17 Q1016 NOSIG=",
            "ENBO 021150Z 08024KT CAVOK M09/M17 Q1017 NOSIG=",
            "ENBO 021220Z 09023KT CAVOK M09/M17 Q1017 NOSIG=",
            "ENBO 021250Z 09024KT CAVOK M09/M17 Q1016 NOSIG=",
            "ENBO 021320Z 09024KT CAVOK M09/M17 Q1016 NOSIG=",
            "ENBO 021350Z 09024KT CAVOK M09/M18 Q1016 NOSIG=",
            "ENBO 021420Z 09024KT CAVOK M09/M18 Q1016 NOSIG=",
            "ENBO 021450Z 09024KT CAVOK M09/M18 Q1016 NOSIG=",
            "ENBO 021520Z 09024KT CAVOK M09/M18 Q1016 NOSIG=",
            "ENBO 021550Z 09024KT CAVOK M09/M19 Q1016 NOSIG=",
            "ENBO 021620Z 09021KT CAVOK M09/M18 Q1016 NOSIG=",
            "ENBO 021620Z 09021KT CAVOK M09/M18 Q1016 NOSIG=",
            "ENBO 021650Z 09022KT CAVOK M09/M18 Q1016 NOSIG=",
            "ENBO 021720Z 09022KT CAVOK M09/M19 Q1015 NOSIG=",
            "ENBO 021750Z 09024KT CAVOK M09/M18 Q1015 NOSIG=",
            "ENBO 021820Z 09025KT CAVOK M09/M18 Q1015 NOSIG=",
            "ENBO 021850Z 09024KT CAVOK M09/M18 Q1015 NOSIG=",
            "ENBO 021920Z 09024KT CAVOK M09/M18 Q1015 NOSIG=",
            "ENBO 021950Z 09024KT CAVOK M09/M18 Q1015 NOSIG=",
            "ENBO 022020Z 09024KT CAVOK M09/M18 Q1015 NOSIG=",
            "ENBO 022050Z 09025KT CAVOK M09/M17 Q1014 NOSIG=",
            "ENBO 022120Z 09023KT CAVOK M09/M18 Q1014 NOSIG=",
            "ENBO 022150Z 09024KT CAVOK M09/M18 Q1014 NOSIG=",
            "ENBO 022220Z 09026KT CAVOK M09/M18 Q1014=",
            "ENBO 022250Z 09022KT CAVOK M09/M18 Q1014=",
            "ENBO 022320Z 09025KT CAVOK M09/M18 Q1013=",
            "ENBO 022350Z 09022KT CAVOK M10/M18 Q1014=",
            "",
            ""
        ]
    },
    {
        "metar": [
            "ENBO 030020Z 09024KT CAVOK M09/M18 Q1013=",
            "ENBO 030050Z 09023KT CAVOK M09/M18 Q1013=",
            "ENBO 030120Z 09023KT 9999 NSC M09/M18 Q1013=",
            "ENBO 030150Z 09022KT 9999 NSC M10/M18 Q1013=",
            "ENBO 030220Z 09022KT 9999 NSC M09/M19 Q1013=",
            "ENBO 030250Z 09021KT 9999 NSC M09/M18 Q1013=",
            "ENBO 030320Z 09021KT 9999 NSC M09/M18 Q1013=",
            "ENBO 030350Z 09021KT 9999 NSC M09/M19 Q1013=",
            "ENBO 030420Z 09020KT CAVOK M09/M18 Q1012=",
            "ENBO 030450Z 09021KT CAVOK M09/M18 Q1012=",
            "ENBO 030520Z 09022KT CAVOK M09/M17 Q1012=",
            "ENBO 030550Z 09021KT CAVOK M09/M18 Q1012=",
            "ENBO 030620Z 09020KT CAVOK M09/M18 Q1012 NOSIG=",
            "ENBO 030650Z 09022KT CAVOK M09/M18 Q1012 NOSIG=",
            "ENBO 030720Z 09021KT CAVOK M09/M17 Q1012 NOSIG=",
            "ENBO 030750Z 09020KT CAVOK M09/M17 Q1012 NOSIG=",
            "ENBO 030820Z 09021KT CAVOK M09/M18 Q1012 NOSIG=",
            "ENBO 030850Z 09020KT CAVOK M09/M18 Q1012 NOSIG=",
            "ENBO 030920Z 09021KT CAVOK M09/M18 Q1012 NOSIG=",
            "ENBO 030950Z 09018KT CAVOK M08/M17 Q1012 NOSIG=",
            "ENBO 031020Z 09020KT CAVOK M09/M18 Q1012 NOSIG=",
            "ENBO 031050Z 09021KT CAVOK M09/M18 Q1012 NOSIG=",
            "ENBO 031120Z 09021KT CAVOK M09/M17 Q1012 NOSIG=",
            "ENBO 031120Z 09021KT CAVOK M09/M17 Q1012 NOSIG=",
            "ENBO 031150Z 09020KT CAVOK M09/M18 Q1012 NOSIG=",
            "ENBO 031220Z 09023KT CAVOK M09/M18 Q1011 NOSIG=",
            "ENBO 031250Z 10024KT CAVOK M09/M17 Q1011 NOSIG=",
            "ENBO 031320Z 09024KT CAVOK M09/M17 Q1011 NOSIG=",
            "ENBO 031350Z 09022KT CAVOK M09/M17 Q1011 NOSIG=",
            "ENBO 031420Z 09023KT CAVOK M09/M17 Q1011 NOSIG=",
            "ENBO 031450Z 09022KT CAVOK M09/M17 Q1010=",
            "ENBO 031520Z 09023KT CAVOK M09/M17 Q1010 NOSIG=",
            "ENBO 031550Z 09023KT CAVOK M09/M17 Q1010 NOSIG=",
            "ENBO 031620Z 09023KT CAVOK M09/M17 Q1010 NOSIG=",
            "ENBO 031650Z 09022KT CAVOK M09/M18 Q1010 NOSIG=",
            "ENBO 031720Z 09022KT CAVOK M09/M17 Q1010 NOSIG=",
            "ENBO 031750Z 09022KT CAVOK M09/M17 Q1010 NOSIG=",
            "ENBO 031820Z 09020KT CAVOK M09/M18 Q1010 NOSIG=",
            "ENBO 031850Z 09021KT CAVOK M08/M17 Q1010 NOSIG=",
            "ENBO 031920Z 09022KT CAVOK M08/M17 Q1010 NOSIG=",
            "ENBO 031950Z 09023KT CAVOK M08/M18 Q1010 NOSIG=",
            "ENBO 032020Z 09022KT CAVOK M08/M18 Q1010 NOSIG=",
            "ENBO 032050Z 09021KT CAVOK M08/M17 Q1009 NOSIG=",
            "ENBO 032120Z 10023KT CAVOK M08/M17 Q1009 NOSIG=",
            "ENBO 032150Z 09021KT CAVOK M08/M17 Q1009 NOSIG=",
            "ENBO 032220Z 10022KT CAVOK M08/M18 Q1009=",
            "ENBO 032250Z 10022KT CAVOK M08/M18 Q1009=",
            "ENBO 032320Z 10021KT CAVOK M08/M18 Q1009=",
            "ENBO 032350Z 09021KT CAVOK M08/M17 Q1009=",
            "",
            ""
        ]
    },
    {
        "metar": [
            "ENBO 040020Z 10020KT CAVOK M08/M18 Q1009=",
            "ENBO 040050Z 10022KT CAVOK M08/M18 Q1009=",
            "ENBO 040120Z 09022KT CAVOK M08/M17 Q1008=",
            "ENBO 040150Z 09021KT CAVOK M08/M17 Q1008=",
            "ENBO 040250Z 09021KT CAVOK M08/M17 Q1008=",
            "ENBO 040350Z 09021KT CAVOK M08/M17 Q1008=",
            "ENBO 040420Z 10020KT CAVOK M08/M17 Q1008=",
            "ENBO 040450Z 10022KT CAVOK M08/M17 Q1008=",
            "ENBO 040520Z 09019KT CAVOK M08/M17 Q1008=",
            "ENBO 040550Z 09018KT CAVOK M08/M17 Q1007=",
            "ENBO 040620Z 09021KT CAVOK M08/M17 Q1007 NOSIG=",
            "ENBO 040650Z 09018KT CAVOK M08/M17 Q1007 NOSIG=",
            "ENBO 040720Z 09020KT CAVOK M08/M17 Q1007 NOSIG=",
            "ENBO 040750Z 10018KT CAVOK M08/M18 Q1007 NOSIG=",
            "ENBO 040820Z 10018KT CAVOK M08/M18 Q1008 NOSIG=",
            "ENBO 040850Z 09017KT CAVOK M08/M17 Q1008 NOSIG=",
            "ENBO 040920Z 10015KT CAVOK M08/M16 Q1008 NOSIG=",
            "ENBO 040950Z 10014KT CAVOK M08/M17 Q1008 NOSIG=",
            "ENBO 041020Z 10012KT CAVOK M07/M17 Q1008 NOSIG=",
            "ENBO 041050Z 10016KT CAVOK M07/M16 Q1007 NOSIG=",
            "ENBO 041120Z 09016KT CAVOK M08/M17 Q1007 NOSIG=",
            "ENBO 041150Z 09016KT CAVOK M08/M17 Q1007 NOSIG=",
            "ENBO 041150Z 09016KT CAVOK M08/M17 Q1007 NOSIG=",
            "ENBO 041220Z 10015KT CAVOK M08/M18 Q1007 NOSIG=",
            "ENBO 041250Z 10016KT CAVOK M08/M17 Q1008 NOSIG=",
            "ENBO 041320Z 10016KT CAVOK M08/M17 Q1007 NOSIG=",
            "ENBO 041350Z 10016KT CAVOK M08/M17 Q1008 NOSIG=",
            "ENBO 041420Z 09016KT 9999 FEW045 M08/M17 Q1008 NOSIG=",
            "ENBO 041450Z 10015KT 9999 FEW042 M08/M17 Q1008 NOSIG=",
            "ENBO 041520Z 09015KT 9999 FEW043 M09/M17 Q1007 NOSIG=",
            "ENBO 041550Z 10014KT CAVOK M09/M17 Q1007 NOSIG=",
            "ENBO 041620Z 09015KT CAVOK M09/M17 Q1007 NOSIG=",
            "ENBO 041650Z 09014KT CAVOK M10/M18 Q1007 NOSIG=",
            "ENBO 041720Z 10014KT CAVOK M10/M18 Q1007 NOSIG=",
            "ENBO 041750Z 10014KT CAVOK M10/M17 Q1007 NOSIG=",
            "ENBO 041820Z 10015KT CAVOK M10/M17 Q1007 NOSIG=",
            "ENBO 041850Z 09014KT CAVOK M10/M17 Q1007 NOSIG=",
            "ENBO 041920Z 09014KT CAVOK M10/M17 Q1007 NOSIG=",
            "ENBO 041950Z 10016KT CAVOK M10/M17 Q1007 NOSIG=",
            "ENBO 042020Z 09014KT CAVOK M10/M18 Q1007 NOSIG=",
            "ENBO 042050Z 10015KT CAVOK M10/M17 Q1007 NOSIG=",
            "ENBO 042120Z 09014KT CAVOK M10/M17 Q1007 NOSIG=",
            "ENBO 042150Z 09016KT CAVOK M10/M17 Q1007 NOSIG=",
            "ENBO 042220Z 10017KT CAVOK M09/M17 Q1007=",
            "ENBO 042250Z 10018KT CAVOK M09/M17 Q1007=",
            "ENBO 042320Z 10016KT CAVOK M09/M17 Q1007=",
            "ENBO 042350Z 09019KT CAVOK M09/M17 Q1007=",
            "",
            ""
        ]
    },
    {
        "metar": [
            "ENBO 050020Z 09019KT CAVOK M09/M17 Q1006=",
            "ENBO 050050Z 10019KT 9999 FEW030 M09/M16 Q1006=",
            "ENBO 050120Z 09019KT 9999 FEW000 M08/M15 Q1006=",
            "ENBO 050150Z 09018KT 9999 SCT014 BKN021 OVC032 M08/M15 Q1006=",
            "ENBO 050220Z 09020KT 2100 -SN SCT005 BKN012 BKN020 M08/M15 Q1005=",
            "ENBO 050250Z 10019KT 4000 -SN SCT004 BKN007 OVC034 M08/M13 Q1006=",
            "ENBO 050320Z 10021KT 9999 -SN FEW003 SCT009 BKN028 M08/M12 Q1005=",
            "ENBO 050350Z 10020KT 3700 -SN FEW004 SCT007 OVC026 M07/M13 Q1005=",
            "ENBO 050420Z 10018KT 9999 FEW003 SCT012 BKN027 M07/M10 Q1005=",
            "ENBO 050450Z 10020KT 9999 SCT026 BKN040 M06/M12 Q1005=",
            "ENBO 050520Z 10019KT 9999 -SHSN FEW008 SCT014 BKN027 M06/M12 Q1005=",
            "ENBO 050550Z 10021KT 9999 -SHSN SCT004 OVC028 M07/M10 Q1005=",
            "ENBO 050620Z 10018KT 9999 -SN FEW007 SCT015 BKN027 M06/M09 Q1005 TEMPO 2000 SHSN VV008=",
            "ENBO 050650Z 10018KT 5000 -SN SCT004 OVC037 M06/M08 Q1005 TEMPO 2000 SHSN VV008=",
            "ENBO 050720Z 10018KT 9999 -SN FEW004 BKN027 M06/M08 Q1005 TEMPO 2000 SHSN VV008=",
            "ENBO 050750Z 10017KT 9999 -SN FEW010 OVC022 M05/M08 Q1005 TEMPO 4000 -SHSN VV008=",
            "ENBO 050750Z 10017KT 9999 -SN FEW010 OVC022 M05/M08 Q1005 TEMPO 4000 -SHSN VV008=",
            "ENBO 050820Z 10017KT 9999 FEW015 OVC023 M05/M07 Q1005 TEMPO 4000 -SHSN VV008=",
            "ENBO 050850Z 10017KT 9999 FEW011 SCT016 BKN018 M05/M08 Q1005 TEMPO 2500 -SHSN VV008=",
            "ENBO 050920Z 10016KT 9999 FEW018 BKN026 M04/M07 Q1005 TEMPO 2500 -SHSN VV008=",
            "ENBO 050920Z 10016KT 9999 FEW018 BKN026 M04/M07 Q1005 TEMPO 2500 -SHSN VV008=",
            "ENBO 050950Z 10017KT 9999 FEW012 SCT029 BKN036 M04/M06 Q1005 TEMPO 4000 -SHSN VV008=",
            "ENBO 051020Z 10015KT 9999 4500W -SN FEW009 BKN013 M04/M06 Q1006 TEMPO 17009KT 2500 -SHSN VV008=",
            "ENBO 051050Z 10016KT 9000 4000W -SN VV014 M04/M06 Q1006 TEMPO 17009KT 3000 -SHSN VV008=",
            "ENBO 051120Z 10017KT 3500 -SN VV011 M04/M05 Q1006 WS R07 TEMPO 2000 SHSN VV008=",
            "ENBO 051150Z 10014KT 3500 -SN VV008 M03/M05 Q1006 WS R07 TEMPO 2000 SHSN VV007=",
            "ENBO 051220Z 10015KT 3500 -SN VV011 M03/M04 Q1006 TEMPO 2000 SHSN VV008=",
            "ENBO 051250Z 11014KT 3000 -SN VV012 M03/M04 Q1006 TEMPO 1800 SHSN VV008=",
            "ENBO 051320Z 11015KT 1100 R07/P2000N R25/P2000N -SN VV009 M03/M03 Q1006 TEMPO 4000 -SHSN VV012=",
            "ENBO 051350Z 10011KT 4100 -SHSN VV008 M03/M03 Q1007 TEMPO 2800 -SHSN VV012=",
            "ENBO 051420Z 10015KT 3700 -SN OVC007 M03/M03 Q1007 TEMPO 2500 -SHSN VV010=",
            "ENBO 051450Z 11015KT 4000 -SHSN FEW005 OVC007 M03/M03 Q1007 TEMPO 2500 -SHSN VV010=",
            "ENBO 051520Z 10011KT 4500 -SHSN FEW003 OVC010 M03/M03 Q1008 TEMPO 2500 -SHSN VV010=",
            "ENBO 051550Z 10012KT 3000 -SHSN FEW005 BKN010 OVC015 M03/M03 Q1008 TEMPO 1200 SHSN VV008=",
            "ENBO 051620Z 10012KT 3000 -SHSN VV015 M02/M03 Q1008 TEMPO 1200 SHSN VV008=",
            "ENBO 051650Z 11007KT 2500 -SHSN VV015 M02/M02 Q1008 TEMPO 16008KT 1200 SHSN VV008=",
            "ENBO 051650Z 11007KT 2500 -SHSN VV015 M02/M02 Q1008 TEMPO 16008KT 1200 SHSN VV008=",
            "ENBO 051720Z 09004KT 050V130 2000 -SHSN VV012 M02/M02 Q1009=",
            "ENBO 051750Z 19005KT 120V270 3000 -SHSN VV013 M02/M02 Q1009 TEMPO 1200 SHSN VV008=",
            "ENBO 051820Z 22011KT 3000 -SHSN SCT005 BKN010 OVC015 M01/M01 Q1009 TEMPO 10009KT 1200 SHSN VV008=",
            "ENBO 051850Z 22012KT 2000 -SHSN VV005 00/M00 Q1009 TEMPO 10009KT 1200 SHSN VV012=",
            "ENBO 051920Z 22015KT 9999 4500E VCSH FEW003 SCT005 BKN008 M01/M01 Q1009 TEMPO 10009KT 1200 SHSN VV012=",
            "ENBO 051950Z 24011KT 3000 -SHSN VV012 M00/M01 Q1010 TEMPO 10009KT 1200 SHSN VV008=",
            "ENBO 052020Z 28008KT 2000 -SHSN VV008 00/00 Q1010 TEMPO 1200 SHSN VV012=",
            "ENBO 052050Z 26004KT 1500 SHSN VV004 00/M00 Q1011 TEMPO 2500 -SHSN VV008=",
            "ENBO 052120Z 19007KT 160V220 2000 SHSN VV007 M01/M01 Q1011 TEMPO 1200 SHSN VV012=",
            "ENBO 052150Z 13006KT 100V250 2000 SHSN VV010 M01/M02 Q1011 TEMPO 1200 SHSN VV008=",
            "ENBO 052220Z 18004KT 140V240 9999 3000E -SHSN SCT003 BKN015 M01/M01 Q1011=",
            "ENBO 052250Z 23009KT 100V250 9999 3000E -SHSN FEW003 BKN015 M01/M01 Q1012=",
            "ENBO 052320Z 24012KT 5000 -SHSN FEW003 BKN008 M01/M01 Q1012=",
            "ENBO 052350Z 22011KT 9999 VCSH FEW006 BKN015 M00/M01 Q1012=",
            "",
            ""
        ]
    },
    {
        "metar": [
            "ENBO 060020Z 20008KT 160V230 9999 VCSH FEW007 SCT015 BKN030 M01/M01 Q1012=",
            "ENBO 060050Z 21005KT 2000 SHSN VV008 M01/M01 Q1013=",
            "ENBO 060120Z 14006KT 9999 VCSH SCT007 BKN021 M01/M01 Q1013=",
            "ENBO 060150Z 12006KT 2000 SHSN VV014 M01/M01 Q1013=",
            "ENBO 060220Z 27009KT 0700 SHSN VV006 M01/M01 Q1013=",
            "ENBO 060320Z 25006KT 1500 SHSN VV007 M01/M01 Q1014=",
            "ENBO 060420Z 09005KT 9999 VCSH FEW007 BKN013 M01/M01 Q1014=",
            "ENBO 060450Z 09004KT 9999 FEW006 SCT015 BKN033 M03/M03 Q1015=",
            "ENBO 060520Z 09004KT 9999 FEW004 BKN033 M02/M02 Q1015=",
            "ENBO 060550Z VRB02KT 9999 FEW008 BKN032 M02/M03 Q1015=",
            "ENBO 060620Z 11004KT 090V140 9999 FEW006 BKN035 M02/M02 Q1016 NOSIG=",
            "ENBO 060650Z 12004KT 070V160 9999 FEW005 BKN036 M02/M02 Q1016 NOSIG=",
            "ENBO 060720Z 12006KT 9999 FEW007 BKN036 M02/M02 Q1016 NOSIG=",
            "ENBO 060750Z 12006KT 9999 FEW007 BKN040 M02/M03 Q1017 NOSIG=",
            "ENBO 060820Z 10006KT 9999 4000N -SHSN SCT007 BKN016 M02/M02 Q1017 TEMPO BKN012=",
            "ENBO 060820Z 10006KT 9999 4000N -SHSN SCT007 BKN016 M02/M02 Q1017 TEMPO BKN012=",
            "ENBO 060850Z 11005KT 090V160 9999 4500NE VCSH SCT008 BKN020 M01/M01 Q1018 TEMPO BKN012=",
            "ENBO 060920Z 10006KT 090V160 9999 VCSH FEW008 SCT011 BKN016 M01/M01 Q1018 NOSIG=",
            "ENBO 060950Z 12004KT 9999 3500NE -SHSN FEW003 SCT006 BKN010 M01/M01 Q1018 TEMPO 4000 -SHSN SCT009 BKN018=",
            "ENBO 061020Z 12007KT 9999 4000S VCSH SCT007 OVC017 M02/M02 Q1018 TEMPO 4000 -SHSN BKN008=",
            "ENBO 061050Z 12007KT 9999 VCSH FEW005 SCT009 M02/M02 Q1019 TEMPO BKN008=",
            "ENBO 061120Z 10008KT 9999 FEW005 SCT008 BKN034 M02/M02 Q1019 TEMPO BKN008=",
            "ENBO 061120Z 10008KT 9999 FEW005 SCT008 BKN034 M02/M02 Q1019 TEMPO BKN008=",
            "ENBO 061150Z 11007KT 9999 FEW007 SCT013 M02/M02 Q1019 TEMPO BKN012=",
            "ENBO 061220Z 15006KT 9999 FEW010 SCT015 M01/M02 Q1020 TEMPO BKN014=",
            "ENBO 061250Z 11006KT 9999 FEW008 SCT015 M02/M02 Q1020 TEMPO BKN014=",
            "ENBO 061320Z 11008KT 9999 SCT012 M02/M02 Q1020 TEMPO BKN012=",
            "ENBO 061350Z 12007KT 9999 FEW015 SCT025 M02/M03 Q1020 TEMPO BKN012=",
            "ENBO 061420Z 11007KT 9999 FEW008 SCT015 M02/M03 Q1021 TEMPO BKN012=",
            "ENBO 061450Z 12007KT 9999 FEW016 BKN021 M03/M03 Q1021 NOSIG=",
            "ENBO 061520Z 11006KT 9999 FEW015 SCT025 M03/M04 Q1021 NOSIG=",
            "ENBO 061550Z 12008KT 9999 BKN020 M04/M05 Q1021 NOSIG=",
            "ENBO 061620Z 12007KT 9999 SCT020 M04/M04 Q1021 NOSIG=",
            "ENBO 061650Z 11007KT 9999 FEW020 M03/M04 Q1021 NOSIG=",
            "ENBO 061720Z 11007KT 9999 SCT017 M04/M04 Q1022 NOSIG=",
            "ENBO 061750Z 12008KT 9999 FEW005 SCT018 M03/M04 Q1022 NOSIG=",
            "ENBO 061820Z 12007KT CAVOK M03/M03 Q1022 NOSIG=",
            "ENBO 061850Z 11009KT CAVOK M04/M04 Q1022=",
            "ENBO 061920Z 11009KT 9999 FEW005 M03/M03 Q1022=",
            "ENBO 061950Z 11010KT CAVOK M03/M04 Q1022=",
            "ENBO 062020Z 11010KT CAVOK M03/M04 Q1022=",
            "ENBO 062050Z 11011KT CAVOK M03/M04 Q1022=",
            "ENBO 062120Z 11011KT CAVOK M03/M04 Q1022=",
            "ENBO 062150Z 11011KT CAVOK M03/M04 Q1023=",
            "ENBO 062220Z 11012KT 9999 FEW027 M03/M04 Q1023=",
            "ENBO 062250Z 10013KT 9999 BKN025 M03/M04 Q1023=",
            "ENBO 062320Z 10014KT 9999 BKN026 M03/M04 Q1022=",
            "ENBO 062350Z 10013KT 9999 FEW028 BKN040 M03/M05 Q1022=",
            "",
            ""
        ]
    },
    {
        "metar": [
            "ENBO 070020Z 10014KT 9999 BKN036 M03/M05 Q1023=",
            "ENBO 070050Z 10017KT 9999 BKN029 OVC036 M03/M05 Q1023=",
            "ENBO 070120Z 10017KT 9999 BKN025 OVC031 M03/M06 Q1023=",
            "ENBO 070150Z 10014KT 9999 FEW014 SCT020 BKN026 M02/M05 Q1023=",
            "ENBO 070220Z 10016KT 9999 FEW017 OVC024 M02/M06 Q1023=",
            "ENBO 070250Z 10014KT 9999 OVC022 M02/M06 Q1023=",
            "ENBO 070320Z 10015KT 9999 BKN024 OVC028 M02/M06 Q1022=",
            "ENBO 070350Z 11013KT 9999 FEW014 BKN025 BKN036 M02/M06 Q1022=",
            "ENBO 070420Z 10015KT 7000 -SN FEW006 SCT012 BKN025 M02/M05 Q1022=",
            "ENBO 070450Z 10014KT 9999 FEW012 BKN024 OVC033 M02/M06 Q1022=",
            "ENBO 070520Z 10013KT 9999 -SN SCT007 OVC036 M02/M05 Q1022 RESN=",
            "ENBO 070550Z 11013KT 4000 -SN FEW004 SCT015 BKN025 M02/M04 Q1022=",
            "ENBO 070620Z 10014KT 9999 FEW016 BKN025 M02/M03 Q1022=",
            "ENBO 070720Z 12012G23KT 090V170 9999 -SN FEW006 SCT018 BKN021 M02/M03 Q1022=",
            "ENBO 070750Z 11010KT 9999 FEW005 BKN020 OVC027 M02/M03 Q1022=",
            "ENBO 070820Z 11008KT 090V230 9999 4000E -SN FEW004 BKN011 M01/M02 Q1022 RESN TEMPO 21020G30KT 4000 -SN=",
            "ENBO 070850Z 17006KT 120V220 9999 FEW012 BKN017 M00/M01 Q1022=",
            "ENBO 070850Z 17006KT 120V220 9999 FEW012 BKN017 M00/M01 Q1022 BECMG 21022G32KT TEMPO 2000 -SN BKN012=",
            "ENBO 070920Z 21016KT 9999 VCSH FEW005 SCT015 BKN020 01/M01 Q1022 TEMPO 21025G35KT 4000 RASN BKN012=",
            "ENBO 070950Z 23020KT 9999 VCSH SCT020 BKN035 03/00 Q1022 TEMPO 22025G35KT 4000 RASN BKN012=",
            "ENBO 071020Z 23025KT 9999 FEW010 BKN022 03/M00 Q1021 TEMPO 22028G38KT 4000 RASN BKN012=",
            "ENBO 071050Z 23024KT 9999 SCT019 BKN047 03/00 Q1021 TEMPO 23028G38KT 2000 RASN BKN009=",
            "ENBO 071120Z 23025KT 9999 SCT019 BKN043 03/00 Q1021 TEMPO 23028G38KT 1200 RASN VV007=",
            "ENBO 071150Z 23023KT 9999 SCT020 BKN038 03/00 Q1021 TEMPO 23028G38KT 1200 RASN VV007=",
            "ENBO 071220Z 23026KT 9999 -RA SCT022 BKN046 03/00 Q1020 TEMPO 23028G38KT 1200 SHRASN VV007 TEMPO SCT015CB=",
            "ENBO 071250Z 22025KT 9999 -RA FEW010 BKN021 03/01 Q1020 TEMPO 23028G38KT 4500 SHRA BKN012 SCT015CB=",
            "ENBO 071250Z 22025KT 9999 -RA FEW010 BKN021 03/01 Q1020 TEMPO 23028G38KT 4500 SHRA BKN012 SCT015CB=",
            "ENBO 071320Z 23024KT 9000 -RA BKN010 03/01 Q1020 TEMPO 23028G38KT 4500 SHRA SCT012 FEW020CB=",
            "ENBO 071350Z 25031KT 9000 -RA FEW005 SCT010 BKN015 02/01 Q1021=",
            "ENBO 071420Z 23028KT 9999 -RA FEW005 SCT008 BKN013 02/02 Q1020 TEMPO 4000 SHRASN BKN008 FEW015CB BECMG 32015KT=",
            "ENBO 071450Z 23022KT 9999 -RA FEW005 SCT010 BKN014 03/02 Q1020 TEMPO 4000 SHRASN BKN009 FEW015CB=",
            "ENBO 071520Z 24025KT 6000 -SHRA FEW004 SCT008 BKN013 03/02 Q1020 TEMPO 4000 SHRASN BKN009 FEW015CB=",
            "ENBO 071550Z 26019KT 9999 FEW008 BKN013 04/03 Q1021 TEMPO 4000 SHRASN BKN009 FEW015CB=",
            "ENBO 071620Z 27017KT 9999 FEW004 SCT011 BKN017 04/03 Q1021 BECMG 33015KT TEMPO BKN012=",
            "ENBO 071650Z 28016KT 9999 FEW025 BKN040 04/03 Q1021 BECMG 33015KT TEMPO BKN012=",
            "ENBO 071720Z 29015KT 9999 SCT015 BKN025 04/01 Q1021 TEMPO BKN014=",
            "ENBO 071750Z 30014KT 9999 FEW015 BKN025 04/02 Q1022 NOSIG=",
            "ENBO 071820Z 30014KT 9999 FEW013 SCT020 04/01 Q1022 NOSIG=",
            "ENBO 071850Z 33012KT 9999 BKN018 04/01 Q1022 NOSIG=",
            "ENBO 071920Z 31016KT 9999 FEW020 SCT027 04/01 Q1023 NOSIG=",
            "ENBO 071950Z 31017KT 9999 FEW020 SCT027 BKN100 04/M01 Q1023 NOSIG=",
            "ENBO 072020Z 31018KT 9999 FEW020 SCT045 BKN100 04/M01 Q1024 NOSIG=",
            "ENBO 072050Z 31018KT 9999 FEW033 SCT039 BKN160 04/M02 Q1024 NOSIG=",
            "ENBO 072120Z 30018KT 9999 FEW029 SCT039 BKN047 04/M02 Q1024 NOSIG=",
            "ENBO 072150Z 31020KT 9999 BKN034 03/M03 Q1025 NOSIG=",
            "ENBO 072220Z 31017KT 9999 BKN039 04/M03 Q1025=",
            "ENBO 072250Z 30020KT 9999 FEW033 BKN042 04/M02 Q1025=",
            "ENBO 072320Z 30017KT 9999 FEW025 BKN038 04/M02 Q1025=",
            "ENBO 072350Z 30017KT 9999 SCT028 BKN039 04/M02 Q1025=",
            "",
            ""
        ]
    },
    {
        "metar": [
            "ENBO 080020Z 30018KT 9999 FEW030 BKN042 04/M02 Q1026=",
            "ENBO 080050Z 30018KT 9999 FEW031 SCT047 BKN082 04/M02 Q1026=",
            "ENBO 080120Z 29015KT 9999 BKN041 04/M01 Q1026=",
            "ENBO 080150Z 28016KT 9999 FEW025 SCT036 BKN049 04/M01 Q1026=",
            "ENBO 080220Z 28018KT 9999 FEW032 SCT047 BKN080 04/M01 Q1026=",
            "ENBO 080250Z 27016KT 9999 FEW023 SCT042 BKN057 03/01 Q1026 REDZ=",
            "ENBO 080320Z 27018KT 9999 FEW019 SCT027 BKN066 04/01 Q1026=",
            "ENBO 080350Z 27017KT 9999 SCT021 BKN028 04/01 Q1026=",
            "ENBO 080420Z 26017KT 9999 SCT023 BKN030 04/01 Q1026=",
            "ENBO 080450Z 26018KT 9999 FEW022 SCT035 BKN072 04/01 Q1026=",
            "ENBO 080520Z 26020KT 9999 -DZ FEW022 SCT036 BKN084 04/01 Q1026=",
            "ENBO 080550Z 26018KT 9999 FEW011 SCT023 BKN029 03/01 Q1026=",
            "ENBO 080620Z 26021KT 9999 -SHRASN FEW010 SCT020 BKN030 04/01 Q1026 TEMPO 26021G31KT=",
            "ENBO 080650Z 26022KT 9999 -SHSNRA FEW011 SCT020 BKN040 04/01 Q1026 TEMPO 26022G32KT=",
            "ENBO 080720Z 26020KT 9999 VCSH SCT015 BKN030 04/01 Q1026 TEMPO 26020G30KT BKN014=",
            "ENBO 080750Z 26019KT 9999 FEW016 SCT026 BKN043 04/02 Q1026 TEMPO 26020G30KT BKN014=",
            "ENBO 080820Z 26019KT 9999 SCT020 BKN046 03/02 Q1025 RERA TEMPO 26020G30KT BKN014=",
            "ENBO 080850Z 24020KT 9999 -RA FEW010 SCT019 BKN021 03/02 Q1025 TEMPO 26020G30KT RA BKN010=",
            "ENBO 080920Z 26022KT 9999 RA FEW007 SCT012 BKN021 03/03 Q1025 TEMPO RA BKN007=",
            "ENBO 080950Z 25021KT 9999 -DZRA FEW008 BKN016 BKN026 03/02 Q1025 TEMPO RA BKN007=",
            "ENBO 081020Z 26023KT 9999 -SHRADZ FEW004 SCT012 BKN015 04/02 Q1025 TEMPO RA BKN007=",
            "ENBO 081050Z 25023KT 9999 -DZRA FEW007 SCT010 BKN014 03/02 Q1025 TEMPO RA BKN007=",
            "ENBO 081120Z 24025KT 9999 -DZ SCT009 BKN015 03/03 Q1024 TEMPO RA BKN007=",
            "ENBO 081150Z 25025KT 9999 RA SCT008 BKN016 03/02 Q1024 TEMPO BKN007=",
            "ENBO 081220Z 24025KT 9999 -RA FEW008 SCT011 OVC014 03/03 Q1024=",
            "ENBO 081250Z 25024KT 9999 RASN FEW005 BKN008 04/03 Q1024 TEMPO -RA BKN014=",
            "ENBO 081320Z 25025KT 9999 RA SCT005 BKN008 04/03 Q1023 TEMPO -RA BKN014=",
            "ENBO 081350Z 24024KT 9999 RA SCT008 BKN011 OVC015 04/03 Q1023 TEMPO BKN008=",
            "ENBO 081420Z 25023KT 9999 -RA SCT005 BKN014 OVC018 04/03 Q1023 TEMPO RA BKN008=",
            "ENBO 081450Z 25024KT 9999 RA FEW006 BKN014 04/04 Q1023 TEMPO BKN008=",
            "ENBO 081520Z 24024KT 9999 RA FEW007 BKN010 OVC018 04/04 Q1023 TEMPO BKN008=",
            "ENBO 081550Z 24022KT 8000 -RA BKN006 04/04 Q1023 TEMPO RA=",
            "ENBO 081620Z 24022KT 6000 RA BKN005 04/04 Q1023 TEMPO 4000 RA BKN004=",
            "ENBO 081650Z 24021KT 9999 BKN004 04/04 Q1022 RERA TEMPO BKN005=",
            "ENBO 081720Z 24021KT 9999 -DZ BKN003 OVC008 05/04 Q1022 TEMPO BKN005=",
            "ENBO 081750Z 25023KT 5000 -DZRA BKN005 04/04 Q1022 TEMPO 4000 RADZ BKN003=",
            "ENBO 081820Z 25023KT 8000 -DZ BKN005 04/04 Q1022 TEMPO 4000 RADZ BKN003=",
            "ENBO 081850Z 24022KT 6000 -DZ BKN004 05/04 Q1021 TEMPO 4000 RADZ BKN003=",
            "ENBO 081920Z 24024KT 6000 -DZ BKN004 05/04 Q1021 TEMPO 4000 RADZ BKN003=",
            "ENBO 081950Z 24023KT 2500 RADZ BKN004 04/04 Q1021 TEMPO 4000 -RADZ BKN006=",
            "ENBO 082020Z 24024KT 3000 RADZ VV005 04/04 Q1021 TEMPO 4000 -RADZ BKN003=",
            "ENBO 082050Z 25024KT 5000 -DZ OVC004 04/04 Q1021 TEMPO 4000 -RADZ BKN003=",
            "ENBO 082120Z 25022KT 6000 -DZ OVC003 04/04 Q1021 TEMPO 4000 -RADZ BKN004=",
            "ENBO 082150Z 25024KT 5000 -DZ SCT003 OVC008 04/04 Q1021 TEMPO 4000 -RADZ BKN004=",
            "ENBO 082220Z 24024KT 5000 -DZ SCT004 OVC006 05/04 Q1021=",
            "ENBO 082250Z 24024KT 5000 -RA SCT004 OVC007 05/05 Q1021=",
            "ENBO 082320Z 24025KT 5000 -DZ OVC006 05/05 Q1021=",
            "ENBO 082350Z 24025KT 5000 -RA OVC006 05/04 Q1020=",
            "",
            ""
        ]
    },
    {
        "metar": [
            "ENBO 090020Z 24026KT 7000 -DZ OVC006 05/04 Q1020=",
            "ENBO 090050Z 24026KT 5000 -DZ VV006 05/04 Q1020=",
            "ENBO 090120Z 24024KT 2000 +DZRA VV007 05/04 Q1020=",
            "ENBO 090150Z 24025KT 5000 -DZ SCT003 OVC005 04/04 Q1020=",
            "ENBO 090250Z 25024KT 3000 -DZRA OVC006 05/04 Q1020=",
            "ENBO 090320Z 26019KT 4000 -DZ OVC005 05/05 Q1021=",
            "ENBO 090350Z 25021KT 4000 -DZ OVC005 05/04 Q1021=",
            "ENBO 090420Z 25022KT 4000 -DZ VV005 05/04 Q1021=",
            "ENBO 090450Z 25020KT 4000 -DZ OVC005 05/05 Q1020=",
            "ENBO 090520Z 25021KT 4000 -DZ OVC005 05/05 Q1020=",
            "ENBO 090550Z 26022KT 4000 -DZ VV005 05/05 Q1020=",
            "ENBO 090620Z 25020KT 5000 -DZRA VV004 05/05 Q1021 TEMPO 4000 RADZ BKN008=",
            "ENBO 090650Z 24022KT 3000 DZ VV004 05/05 Q1021 TEMPO 2000 DZRA BKN008=",
            "ENBO 090650Z 24022KT 3000 DZ VV004 05/05 Q1021 TEMPO 2000 DZRA BKN008=",
            "ENBO 090720Z 25022KT 3000 RADZ VV005 05/05 Q1021 TEMPO 2000 DZRA BKN003=",
            "ENBO 090720Z 25022KT 3000 RADZ VV005 05/05 Q1021 TEMPO 2000 DZRA BKN003=",
            "ENBO 090750Z 25021KT 4000 RADZ VV005 05/05 Q1021 TEMPO BKN003=",
            "ENBO 090820Z 26019KT 3500 -DZ BR BKN003 05/05 Q1021 TEMPO 2500 DZ BR=",
            "ENBO 090850Z 27019KT 6000 -DZ BKN004 06/06 Q1022 TEMPO 4000 DZ=",
            "ENBO 090920Z 27020KT 4800 -RADZ SCT003 BKN005 06/06 Q1022 TEMPO 4000 DZRA BKN003=",
            "ENBO 090950Z 27018KT 6000 -DZ SCT003 BKN005 06/06 Q1023 TEMPO 4000 DZRA BKN003=",
            "ENBO 091020Z 26018KT 5000 -RA VV005 06/06 Q1023 TEMPO 4000 DZRA BKN003=",
            "ENBO 091050Z 25018KT 3000 DZ VV004 05/05 Q1023 TEMPO 4000 -DZRA BKN003=",
            "ENBO 091120Z 26019KT 2000 DZRA VV005 05/05 Q1023 TEMPO 4000 BKN003=",
            "ENBO 091150Z 27021KT 2000 DZRA VV005 06/06 Q1023 TEMPO 4000 -DZRA BKN003=",
            "ENBO 091220Z 27018KT 5000 VV006 06/06 Q1023 TEMPO BKN004=",
            "ENBO 091250Z 27018KT 1900 BR BKN004 06/05 Q1024 TEMPO 4000 -DZ=",
            "ENBO 091320Z 27017KT 9999 -DZ FEW002 BKN004 06/05 Q1024 TEMPO 4000 -DZ=",
            "ENBO 091350Z 27020KT 9999 -DZ FEW002 BKN004 05/05 Q1024 TEMPO BKN006=",
            "ENBO 091420Z 27017KT 7000 BKN004 05/05 Q1024=",
            "ENBO 091450Z 27016KT 8000 BKN004 05/05 Q1024 TEMPO 4000 -DZ=",
            "ENBO 091520Z 26014KT 9999 BKN005 05/05 Q1024 TEMPO 4000 -DZ=",
            "ENBO 091550Z 26013KT 9999 BKN004 05/05 Q1025 TEMPO BKN006=",
            "ENBO 091620Z 26013KT 9999 OVC005 05/05 Q1025 TEMPO BKN004=",
            "ENBO 091650Z 27018KT 9999 OVC006 05/05 Q1025 TEMPO BKN004=",
            "ENBO 091720Z 27016KT 5000 -DZ OVC004 05/05 Q1025 TEMPO 4000 -DZ BKN005=",
            "ENBO 091750Z 27017KT 5000 -DZ OVC005 05/05 Q1025 RERA TEMPO 4000 -DZ=",
            "ENBO 091820Z 28014KT 9999 -DZ FEW004 SCT006 BKN009 05/05 Q1026 TEMPO 4000 -DZ BKN004=",
            "ENBO 091820Z 28014KT 9999 -DZ FEW004 SCT006 BKN009 05/05 Q1026 TEMPO 4000 -DZ BKN004=",
            "ENBO 091850Z 29015KT 9999 -DZ SCT003 BKN007 05/05 Q1026 TEMPO 4000 -DZ BKN004=",
            "ENBO 091920Z 26014KT 9999 -DZ SCT004 BKN011 05/05 Q1026 TEMPO 4000 -DZ BKN006=",
            "ENBO 091950Z 26016KT 9999 -DZ SCT005 BKN011 05/05 Q1026 TEMPO BKN006=",
            "ENBO 092020Z 27016KT 9999 FEW005 SCT007 BKN009 05/05 Q1026 TEMPO BKN004=",
            "ENBO 092050Z 26015KT 9999 OVC006 05/05 Q1026 TEMPO BKN004=",
            "ENBO 092120Z 26015KT 9999 VCSH BKN005 OVC008 05/05 Q1026 TEMPO BKN004=",
            "ENBO 092150Z 26016KT 9999 -DZ SCT003 BKN004 05/05 Q1026 TEMPO BKN005=",
            "ENBO 092220Z 26016KT 9999 -RA BKN004 05/05 Q1026=",
            "ENBO 092250Z 26015KT 9999 -RA SCT003 BKN005 OVC006 05/05 Q1026=",
            "ENBO 092320Z 27014KT 9999 -DZ BKN003 05/05 Q1026=",
            "ENBO 092350Z 27017KT 9999 FEW003 OVC006 05/05 Q1026 REDZ=",
            "",
            ""
        ]
    },
    {
        "metar": [
            "ENBO 100020Z 27016KT 9999 BKN003 OVC005 05/05 Q1026=",
            "ENBO 100050Z 27017KT 9999 RA BKN002 OVC005 05/05 Q1025=",
            "ENBO 100120Z 27015KT 6000 DZ OVC003 05/05 Q1025=",
            "ENBO 100150Z 26017KT 4000 -DZ VV006 05/05 Q1025 REDZ=",
            "ENBO 100220Z 25019KT 3600 BR BKN003 OVC005 04/04 Q1024=",
            "ENBO 100250Z 25018KT 3100 BR OVC003 04/04 Q1023 RERA=",
            "ENBO 100320Z 25020KT 1000 R07/P2000N R25/P2000N DZ VV005 04/04 Q1023=",
            "ENBO 100350Z 26022KT 9999 FEW003 BKN007 OVC016 05/04 Q1023=",
            "ENBO 100420Z 25022KT 8000 SHRA SCT002 BKN005 OVC012 04/04 Q1023 RERA=",
            "ENBO 100450Z 26024KT 6000 -RA SCT003 BKN005 OVC009 04/04 Q1022 RERA=",
            "ENBO 100520Z 25024KT 6000 BKN003 04/04 Q1022 RERA=",
            "ENBO 100550Z 25023KT 5000 RA VV004 04/04 Q1021=",
            "ENBO 100620Z 25022KT 9999 -RA FEW003 SCT005 BKN007 04/04 Q1021 TEMPO BKN014=",
            "ENBO 100650Z 25022KT 5000 RADZ BKN005 04/04 Q1021 TEMPO BKN008=",
            "ENBO 100720Z 25024KT 3800 -DZ BR SCT003 BKN006 04/04 Q1021 TEMPO 5000 RADZ BKN012=",
            "ENBO 100750Z 25025KT 5000 -DZ SCT003 BKN006 05/04 Q1020 TEMPO 4000 RADZ BR BKN003=",
            "ENBO 100820Z 27023KT 5000 RADZ BKN003 OVC005 05/05 Q1020 TEMPO 4000 RADZ BR BKN006=",
            "ENBO 100850Z 26022KT 6000 RADZ BKN003 OVC006 05/05 Q1020 TEMPO 32025KT 4000 RADZ BR BKN006=",
            "ENBO 100920Z 27024KT 5000 RADZ BKN003 OVC007 05/05 Q1019 TEMPO 33025KT 4000 RADZ BR BKN006=",
            "ENBO 100950Z 27026KT 6000 -DZRA BKN006 OVC008 05/05 Q1019 TEMPO 31028G38KT SHRA BKN012TCU=",
            "ENBO 101020Z 27027KT 8000 -DZ BKN005 OVC010 06/05 Q1019 TEMPO 31028G38KT SHRA BKN012TCU=",
            "ENBO 101050Z 28026KT 9999 VCSH SCT004 OVC006 06/05 Q1019 TEMPO 31028G38KT SHRA BKN012TCU=",
            "ENBO 101120Z 30024KT 9999 VCSH FEW006 SCT009 BKN011 06/04 Q1018 TEMPO 31025G35KT BKN020=",
            "ENBO 101150Z 30022KT 9999 VCSH FEW010 BKN029 05/03 Q1018 TEMPO 31025G35KT=",
            "ENBO 101220Z 31022KT 9999 VCSH FEW012 SCT017 BKN021 05/02 Q1019 TEMPO 31025G35KT=",
            "ENBO 101250Z 31021KT 9999 VCSH SCT010 BKN016 05/02 Q1019 TEMPO 31025G35KT=",
            "ENBO 101320Z 30023KT 9999 VCSH SCT016 BKN025 04/02 Q1019 NOSIG=",
            "ENBO 101350Z 30025KT 9999 VCSH SCT017 BKN025 04/01 Q1019 NOSIG=",
            "ENBO 101420Z 30020KT 9999 -DZRA SCT013 BKN019 BKN026 04/01 Q1020 NOSIG=",
            "ENBO 101450Z 33016KT 9999 FEW011 SCT014 BKN020 03/01 Q1020 NOSIG=",
            "ENBO 101520Z 33013KT 9999 FEW010 SCT025 BKN035 03/01 Q1020 NOSIG=",
            "ENBO 101550Z 31015KT 9999 FEW015 SCT020 BKN030 03/00 Q1020 RERA TEMPO SHRANS BKN014TCU=",
            "ENBO 101550Z 31015KT 9999 FEW015 SCT020 BKN030 03/00 Q1020 RERA TEMPO SHRASN BKN014TCU=",
            "ENBO 101620Z 32013KT 9999 VCSH FEW015 SCT020 BKN035 03/00 Q1020 TEMPO SHRASN BKN014TCU=",
            "ENBO 101650Z 34014KT 5000 SHSNRA VV015 01/00 Q1021 TEMPO SHRASN BKN014TCU=",
            "ENBO 101720Z 32017KT 9000 -SN FEW006 SCT010 BKN017 02/00 Q1021 TEMPO 4000 SHSNRA BKN012TCU=",
            "ENBO 101750Z 34011KT 310V010 9999 -SN FEW007 SCT016 BKN021 01/M00 Q1021=",
            "ENBO 101820Z 32018KT 9999 FEW010 SCT020 02/M01 Q1021 TEMPO 4000 SHSNRA BKN012TCU=",
            "ENBO 101850Z 33012KT 9999 FEW015 BKN035 02/M02 Q1021 RERA RESN TEMPO 4000 SHSNRA BKN012TCU=",
            "ENBO 101920Z 34013KT 9999 -RASN FEW005 SCT030 BKN045 02/M02 Q1022 TEMPO 4000 SHSNRA BKN012TCU=",
            "ENBO 101950Z 35014KT 9999 VCSH FEW010 BKN025 02/M03 Q1022 TEMPO 4000 SHSNRA BKN012TCU=",
            "ENBO 102020Z 35014KT 9999 FEW020 BKN035 02/M03 Q1022=",
            "ENBO 102050Z 34015KT 9999 -SHSNRA FEW010 SCT020 BKN045 01/M03 Q1022 TEMPO 4000 -SHSNRA VV012=",
            "ENBO 102120Z 35011KT 9999 SCT023 BKN043 01/M03 Q1023 TEMPO 4000 -SHSNRA VV012=",
            "ENBO 102150Z 34014KT 9999 FEW023 BKN049 01/M03 Q1023 TEMPO 4000 -SHSNRA VV014=",
            "ENBO 102220Z 33012KT 9999 FEW024 BKN049 BKN059 01/M03 Q1023=",
            "ENBO 102250Z 34012KT 9999 -SNRA SCT014 BKN039 01/M03 Q1024=",
            "ENBO 102320Z 35012KT 9999 SCT023 BKN044 01/M03 Q1024=",
            "ENBO 102350Z 34011KT 9999 FEW021 SCT033 OVC049 01/M03 Q1024=",
            "",
            ""
        ]
    },
    {
        "metar": [
            "ENBO 110020Z 33011KT 9999 SCT027 BKN040 02/M03 Q1024=",
            "ENBO 110050Z 32012KT 9999 SCT026 01/M03 Q1024=",
            "ENBO 110120Z 32012KT 300V350 9000 -SNRA FEW009 SCT022 BKN026 01/M02 Q1025=",
            "ENBO 110150Z 32012KT 9999 SCT021 BKN029 OVC053 01/M03 Q1025=",
            "ENBO 110220Z 32013KT 290V340 9999 FEW008 SCT025 BKN034 01/M02 Q1025=",
            "ENBO 110320Z 31010KT 9999 FEW024 OVC040 01/M03 Q1025=",
            "ENBO 110350Z 32010KT 9999 BKN024 OVC053 01/M03 Q1026=",
            "ENBO 110420Z 31009KT 9999 FEW026 BKN046 02/M03 Q1026=",
            "ENBO 110450Z 32009KT 9999 FEW025 SCT032 BKN045 02/M04 Q1026=",
            "ENBO 110520Z 32007KT 290V350 9999 BKN028 01/M04 Q1026=",
            "ENBO 110550Z 32008KT 4000 SHSNRA VV010 01/M02 Q1026=",
            "ENBO 110620Z VRB03KT 9999 FEW024 BKN035 M00/M02 Q1026 NOSIG=",
            "ENBO 110650Z 29007KT 9999 FEW025 BKN034 M01/M02 Q1026 NOSIG=",
            "ENBO 110720Z 34006KT 9999 FEW017 SCT023 BKN043 01/M02 Q1026 NOSIG=",
            "ENBO 110750Z 32005KT 9999 FEW020 SCT030 BKN050 01/M02 Q1026 NOSIG=",
            "ENBO 110820Z 31005KT 3800 SCT020 BKN030 01/M01 Q1026=",
            "ENBO 110850Z 30004KT 270V320 9999 VCSH FEW013 SCT020 OVC027 00/M01 Q1026=",
            "ENBO 110920Z 30005KT 4000 -SN FEW015 BKN029 OVC040 01/M01 Q1026=",
            "ENBO 110950Z 27006KT 9999 FEW007 SCT018 BKN026 00/M01 Q1026 TEMPO 4000 -SHSN BKN012TCU=",
            "ENBO 111020Z 26013KT 9999 VCSH SCT012 BKN026 OVC034 01/M01 Q1026 TEMPO 4000 -SHSN BKN012TCU=",
            "ENBO 111050Z 28014KT 9999 -SN FEW006 SCT011 BKN020 01/M00 Q1026 TEMPO 4000 -SHSN BKN012TCU=",
            "ENBO 111120Z 27014KT 9999 FEW009 SCT023 BKN043 01/M00 Q1025 TEMPO 4000 -SHSN BKN012TCU=",
            "ENBO 111150Z 26015KT 9999 2500NE VCSH FEW008 SCT013 BKN023 02/M01 Q1025 TEMPO 4000 -SN VV012=",
            "ENBO 111220Z 26013KT 9999 VCSH FEW006 SCT010 BKN023 02/M01 Q1025 TEMPO 4000 -SN BKN008=",
            "ENBO 111250Z 25016KT 9999 VCSH FEW010 SCT014 BKN023 02/00 Q1024 TEMPO 4000 -SN BKN008=",
            "ENBO 111320Z 25018KT 9999 4500NE VCSH FEW005 SCT012 BKN016 02/M00 Q1024 TEMPO 4000 -SN BKN008=",
            "ENBO 111350Z 26018KT 5000 -SN VV010 01/00 Q1023 TEMPO 4000 -SN BKN008=",
            "ENBO 111420Z 25019KT 8000 -RASN VV007 01/00 Q1022 TEMPO 4000 -SN BKN012=",
            "ENBO 111450Z 24022KT 9999 -SNRA SCT006 BKN008 01/01 Q1021 TEMPO 30025KT 4000 RASN BKN005=",
            "ENBO 111520Z 24022KT 9999 RASN BKN005 OVC008 01/01 Q1020 TEMPO 30025KT 4000 RASN BKN003=",
            "ENBO 111550Z 23021KT 8000 RASN BKN004 OVC007 01/01 Q1019 TEMPO 30025KT 4000 RASN BKN003=",
            "ENBO 111620Z 23022KT 9999 RASN SCT004 BKN006 OVC010 01/01 Q1018 TEMPO 29025KT 4000 RASN BKN003=",
            "ENBO 111650Z 23026KT 9999 -RASN SCT005 BKN010 02/01 Q1017 TEMPO 29025KT 4000 RASN BKN003=",
            "ENBO 111720Z 25024KT 9999 -RASN BKN010 03/03 Q1017 TEMPO 4000 RASN BKN004=",
            "ENBO 111750Z 28027KT 9000 -RASN BKN010 05/03 Q1016=",
            "ENBO 111820Z 28027KT 9999 -RASN SCT010 BKN015 05/04 Q1016 TEMPO 4000 RASN BKN006=",
            "ENBO 111850Z 28025KT 8000 -RASN BKN015 05/03 Q1015 TEMPO 4000 RASN BKN006=",
            "ENBO 111920Z 27024KT 8000 RA SCT011 BKN017 04/04 Q1015 TEMPO 4000 RASN BKN006=",
            "ENBO 111950Z 28028KT 9999 -RASN FEW010 BKN020 05/03 Q1014 TEMPO 4000 RASN BKN008=",
            "ENBO 112020Z 27026KT 9999 -RASN FEW010 BKN015 05/04 Q1014 TEMPO 4000 RASN BKN008=",
            "ENBO 112050Z 27027G37KT 7000 RA FEW010 BKN014 OVC018 05/04 Q1013 TEMPO 4000 RASN BKN008=",
            "ENBO 112120Z 28025KT 9999 FEW014 BKN036 05/03 Q1013 TEMPO BKN012=",
            "ENBO 112150Z 27022KT 9999 FEW019 SCT031 BKN046 05/03 Q1012 TEMPO BKN012=",
            "ENBO 112220Z 29025KT 9999 FEW018 BKN027 05/02 Q1012=",
            "ENBO 112250Z 29025KT 9999 FEW014 SCT040 BKN053 05/02 Q1012=",
            "ENBO 112320Z 29023KT 9999 SCT017 BKN043 04/02 Q1012=",
            "ENBO 112350Z 30024KT 9999 FEW018 SCT030 OVC042 04/02 Q1012=",
            "",
            ""
        ]
    },
    {
        "metar": [
            "ENBO 120020Z 30024KT 9999 FEW013 SCT024 OVC043 04/02 Q1012 REDZ=",
            "ENBO 120050Z 30023KT 9999 FEW015 SCT021 OVC035 04/02 Q1012=",
            "ENBO 120120Z 31015KT 290V340 9999 -DZ BKN015 OVC120 04/01 Q1012=",
            "ENBO 120150Z 33014KT 300V360 9999 FEW014 SCT021 OVC057 04/M00 Q1012=",
            "ENBO 120250Z 34014KT 9999 FEW018 SCT027 OVC037 03/M00 Q1013=",
            "ENBO 120320Z 33013KT 9999 FEW015 OVC030 03/M01 Q1013=",
            "ENBO 120350Z 32017KT 9999 SCT019 BKN028 03/M01 Q1013=",
            "ENBO 120420Z 33013KT 9999 FEW018 SCT057 03/M01 Q1013=",
            "ENBO 120450Z 35011KT 9999 FEW018 OVC053 02/M01 Q1014=",
            "ENBO 120520Z 34008KT 9999 FEW018 BKN055 02/M01 Q1014=",
            "ENBO 120550Z 33009KT 300V360 9999 FEW018 BKN057 02/M01 Q1014=",
            "ENBO 120620Z 32008KT 9999 FEW016 BKN040 02/M00 Q1014 NOSIG=",
            "ENBO 120650Z 32007KT 9999 SCT018 BKN047 02/M01 Q1014 NOSIG=",
            "ENBO 120720Z 32007KT 290V340 9999 FEW020 BKN033 02/M01 Q1014 NOSIG=",
            "ENBO 120750Z 34009KT 310V360 9999 -SHRASN FEW013 SCT022 BKN046 02/M01 Q1014 NOSIG=",
            "ENBO 120820Z VRB03KT 9999 VCSH FEW012CB SCT040 01/M01 Q1014 TEMPO 4000 SHSNRA VV012=",
            "ENBO 120850Z 21001KT 9999 VCSH FEW010 SCT015CB M00/M01 Q1014 TEMPO 4000 SHSNRA VV012=",
            "ENBO 120920Z 20004KT 160V240 9999 VCSH FEW005 SCT015CB BKN040 M00/M01 Q1014=",
            "ENBO 120950Z 17007KT 9999 VCSH FEW009 SCT022 OVC031 01/01 Q1014 TEMPO 4000 SHSNRA VV012=",
            "ENBO 121020Z 18006KT 130V200 9999 -SHSN FEW005 SCT013 BKN023 01/00 Q1014 TEMPO 4000 SHSNRA VV012=",
            "ENBO 121050Z 20008KT 9999 VCSH FEW009 SCT013 BKN024 01/01 Q1014 TEMPO 4000 SHSNRA VV012=",
            "ENBO 121120Z 19007KT 9999 VCSH FEW008 SCT027 BKN034 01/00 Q1014 NOSIG=",
            "ENBO 121150Z 19006KT 160V210 9999 VCSH FEW018 SCT025 BKN039 02/00 Q1013 NOSIG=",
            "ENBO 121220Z 21007KT 9999 VCSH FEW014 SCT019 BKN025 01/M00 Q1013 NOSIG=",
            "ENBO 121250Z 19007KT 9999 VCSH FEW005 SCT015CB BKN020 01/00 Q1013 BECMG 10010KT=",
            "ENBO 121320Z 18005KT 160V210 4500 VCSH FEW005 SCT015CB OVC024 01/00 Q1012 BECMG 10010KT=",
            "ENBO 121350Z 16004KT 110V190 9999 FEW005 SCT021 01/00 Q1011 BECMG 10010KT=",
            "ENBO 121420Z 20006KT 9999 BKN025 01/M00 Q1011 BECMG 10010KT=",
            "ENBO 121450Z 15007KT 9999 FEW008 BKN023 01/M00 Q1010 BECMG 09010KT=",
            "ENBO 121520Z 11008KT 9999 BKN022 01/M00 Q1009 NOSIG=",
            "ENBO 121550Z 12008KT 7000 SCT010 BKN020 01/M00 Q1009 NOSIG=",
            "ENBO 121620Z 12007KT 9999 VV020 01/M00 Q1008 TEMPO 4000 SNRA VV014=",
            "ENBO 121650Z 14007KT 3000 -SN VV006 01/M00 Q1007 TEMPO 1400 SN VV004=",
            "ENBO 121720Z 14007KT 2500 -SN VV009 00/00 Q1007 TEMPO 1400 SN VV004=",
            "ENBO 121750Z 11011KT 2500 -SN VV006 00/00 Q1006 TEMPO 1400 SN VV004=",
            "ENBO 121820Z 10015KT 2300 -SN VV006 00/M00 Q1005 TEMPO 1400 SN VV004=",
            "ENBO 121850Z 10015KT 2600 -SN VV010 00/M00 Q1004 TEMPO 1400 SN VV006=",
            "ENBO 121920Z 10015KT 3000 -SHSN VV009 00/M00 Q1003 TEMPO 1400 SN VV004=",
            "ENBO 121950Z 10018KT 2000 -SN VV007 00/M00 Q1002 TEMPO 1400 SN VV004=",
            "ENBO 122020Z 10018KT 2000 -SN VV009 M00/M00 Q1001 TEMPO 1400 SN VV004=",
            "ENBO 122050Z 10018KT 3000 -SN VV008 M00/M00 Q1001 TEMPO 2000 SN VV005=",
            "ENBO 122120Z 10020KT 2500 -SN VV008 M00/M00 Q1000 TEMPO 1400 SN VV004=",
            "ENBO 122150Z 10019KT 1800 -SN VV009 M00/M01 Q0999 TEMPO 1400 SN VV004=",
            "ENBO 122220Z 10019KT 1500 -SN VV006 M00/M01 Q0998=",
            "ENBO 122250Z 10020KT 2000 -SN VV007 M00/M01 Q0997=",
            "ENBO 122320Z 10020KT 2600 -SN VV009 M00/M01 Q0996=",
            "ENBO 122350Z 10020KT 3400 -SN VV008 M00/M01 Q0996=",
            "",
            ""
        ]
    },
    {
        "metar": [
            "ENBO 130020Z 10020KT 3900 -SN VV005 M00/M00 Q0995=",
            "ENBO 130120Z 10019KT 4500 -SN VV014 M00/M00 Q0994=",
            "ENBO 130150Z 10020KT 3200 -SN VV016 M00/M00 Q0994=",
            "ENBO 130220Z 10019KT 1700 -SN VV016 M00/M00 Q0993=",
            "ENBO 130250Z 09020KT 1800 -SN VV018 M00/M00 Q0993=",
            "ENBO 130350Z 09019KT 3900 -SN FEW005 SCT022 BKN028 M00/M00 Q0992=",
            "ENBO 130420Z 09018KT 5000 -SN OVC021 00/M00 Q0992=",
            "ENBO 130450Z 09016KT 4100 -SN OVC020 00/M00 Q0992=",
            "ENBO 130520Z 09015KT 5000 -SN OVC023 00/M00 Q0992=",
            "ENBO 130550Z 09015KT 3500 -SN VV009 00/M00 Q0992=",
            "ENBO 130620Z 09015KT 5000 -SN VV011 M00/M00 Q0992 BECMG 9999 NSW BKN020=",
            "ENBO 130650Z 08013KT 9999 FEW008 SCT047 M00/M00 Q0992 NOSIG=",
            "ENBO 130720Z 09013KT 9999 SCT020 M00/M01 Q0992=",
            "ENBO 130750Z 08013KT 9999 SCT023 M00/M01 Q0992 NOSIG=",
            "ENBO 130820Z 05008KT 9999 VCSH BKN025 M00/M01 Q0992=",
            "ENBO 130850Z 07009KT 9999 VCSH FEW011 BKN026 M00/M01 Q0993 NOSIG=",
            "ENBO 130920Z 08011KT 9999 VCSH BKN011 M00/M02 Q0993 NOSIG=",
            "ENBO 130950Z 08012KT 9999 VCSH SCT011 BKN015 M01/M02 Q0993=",
            "ENBO 131020Z 08011KT 9999 BKN025 M01/M03 Q0994=",
            "ENBO 131050Z 08013KT 9999 BKN030 M01/M03 Q0994 NOSIG=",
            "ENBO 131120Z 08015KT 9999 FEW021 SCT037 BKN090 M01/M03 Q0994 NOSIG=",
            "ENBO 131150Z 08014KT 9999 FEW018 SCT024 BKN100 M01/M03 Q0994 NOSIG=",
            "ENBO 131150Z 08014KT 9999 FEW018 SCT024 BKN100 M01/M03 Q0994 NOSIG=",
            "ENBO 131220Z 08015KT 9999 FEW024 BKN090 M01/M03 Q0994 NOSIG=",
            "ENBO 131250Z 08014KT 9999 FEW030 BKN090 M01/M03 Q0995 NOSIG=",
            "ENBO 131250Z 08014KT 9999 FEW030 BKN090 M01/M03 Q0995 NOSIG=",
            "ENBO 131320Z 07013KT 9999 FEW030 BKN090 M01/M04 Q0995 NOSIG=",
            "ENBO 131350Z 07013KT 9999 FEW037 BKN120 M01/M04 Q0995 NOSIG=",
            "ENBO 131420Z 08014KT 9999 SCT035 OVC120 M01/M04 Q0995 NOSIG=",
            "ENBO 131420Z 08014KT 9999 SCT035 OVC120 M01/M04 Q0995 NOSIG=",
            "ENBO 131450Z 08012KT 9999 SCT036 BKN120 M01/M04 Q0996 NOSIG=",
            "ENBO 131520Z 08013KT 9999 SCT036 BKN120 M02/M05 Q0996 NOSIG=",
            "ENBO 131550Z 07013KT 9999 SCT034 BKN110 M02/M05 Q0996 NOSIG=",
            "ENBO 131620Z 08014KT 9999 SCT035 BKN110 M02/M05 Q0996 NOSIG=",
            "ENBO 131650Z 08013KT 9999 FEW035 BKN110 M02/M06 Q0996 NOSIG=",
            "ENBO 131720Z 08014KT 9999 FEW043 BKN110 M03/M06 Q0996 NOSIG=",
            "ENBO 131750Z 08013KT CAVOK M03/M07 Q0996 NOSIG=",
            "ENBO 131820Z 07014KT 9999 FEW041 BKN110 M03/M07 Q0996 NOSIG=",
            "ENBO 131850Z 08014KT 9999 SCT041 BKN110 M03/M07 Q0996 NOSIG=",
            "ENBO 131920Z 08015KT 9999 SCT044 BKN100 M03/M07 Q0996=",
            "ENBO 131950Z 07011KT 9999 SCT043 BKN110 M03/M07 Q0996=",
            "ENBO 132020Z 08014KT 9999 SCT042 BKN110 M03/M07 Q0996=",
            "ENBO 132050Z 08014KT 9999 OVC040 M03/M07 Q0996=",
            "ENBO 132120Z 07014KT 9999 OVC039 M03/M07 Q0996=",
            "ENBO 132150Z 08015KT 9999 OVC044 M03/M07 Q0996=",
            "ENBO 132220Z 08013KT 9999 SCT035 BKN046 M04/M07 Q0996=",
            "ENBO 132320Z 07014KT 9999 OVC036 M04/M08 Q0996=",
            "ENBO 132350Z 07011KT 9999 SCT034 BKN044 M04/M08 Q0996=",
            "",
            ""
        ]
    },
    {
        "metar": [
            "ENBO 140020Z 08012KT 9999 BKN032 M04/M08 Q0996=",
            "ENBO 140050Z 08012KT CAVOK M05/M08 Q0996=",
            "ENBO 140120Z 07009KT CAVOK M05/M09 Q0996=",
            "ENBO 140150Z 08010KT CAVOK M05/M09 Q0996=",
            "ENBO 140220Z 08009KT CAVOK M05/M09 Q0996=",
            "ENBO 140250Z 08007KT CAVOK M06/M10 Q0995=",
            "ENBO 140350Z 09007KT CAVOK M08/M10 Q0995=",
            "ENBO 140450Z 10006KT CAVOK M07/M09 Q0994=",
            "ENBO 140520Z 09006KT CAVOK M08/M10 Q0994=",
            "ENBO 140550Z 10008KT 9999 BKN042 OVC084 M07/M09 Q0993=",
            "ENBO 140620Z 11006KT 9999 -SN VV015 M06/M08 Q0993=",
            "ENBO 140650Z 10008KT 9999 FEW008 SCT048 M06/M08 Q0993=",
            "ENBO 140720Z 13007KT 9999 FEW017 BKN041 OVC057 M05/M08 Q0993=",
            "ENBO 140750Z 16007KT 9999 VCSH FEW007 SCT012 BKN017 M04/M08 Q0992 TEMPO 2000 SHSN VV008=",
            "ENBO 140820Z 14006KT 9999 VCSH BKN029 OVC037 M05/M08 Q0992 TEMPO 1400 SHSN VV006=",
            "ENBO 140850Z 13005KT 080V150 9999 VCSH SCT020 BKN029 M05/M08 Q0992 TEMPO 1400 SHSN VV006=",
            "ENBO 140920Z 10011KT 1600 SHSN VV006 M05/M08 Q0992 TEMPO 4000 -SHSN VV012=",
            "ENBO 140950Z 13009KT 9999 4000E VCSH SCT003 BKN010 OVC024 M05/M07 Q0992 TEMPO 2000 SHSN VV008=",
            "ENBO 141020Z 11006KT 090V140 9999 4500E VCSH FEW008 OVC014 M05/M07 Q0992 TEMPO 2000 SHSN VV008=",
            "ENBO 141050Z 09011KT 9999 -SHSN FEW004 BKN007 BKN011 M05/M07 Q0991 TEMPO 2000 SHSN VV008=",
            "ENBO 141120Z 06013KT 2000 SN VV005 M06/M07 Q0992 BECMG 9999 FEW015 SCT030=",
            "ENBO 141150Z 06009KT 010V120 9999 VCSH FEW003 SCT012 BKN030 M07/M08 Q0992 NOSIG=",
            "ENBO 141220Z 09008KT 9999 SCT017 BKN037 M06/M07 Q0992 NOSIG=",
            "ENBO 141250Z 06007KT 020V100 9999 FEW018 SCT030 BKN120 M07/M09 Q0992 NOSIG=",
            "ENBO 141320Z 11006KT 9999 FEW015 SCT025 M08/M09 Q0993 NOSIG=",
            "ENBO 141350Z 09007KT 9999 FEW015 SCT025 M07/M09 Q0993 NOSIG=",
            "ENBO 141420Z 10007KT 9999 FEW025 SCT030 M08/M10 Q0993=",
            "ENBO 141450Z 09006KT 9999 BKN025 M11/M13 Q0993=",
            "ENBO 141520Z 09007KT 9999 SCT026 M10/M12 Q0993 NOSIG=",
            "ENBO 141550Z 09006KT 9999 SCT028 M10/M12 Q0993 NOSIG=",
            "ENBO 141620Z 08006KT 9999 FEW032 M09/M11 Q0993 NOSIG=",
            "ENBO 141650Z 09008KT 9999 FEW030 M10/M11 Q0993 NOSIG=",
            "ENBO 141720Z 08004KT CAVOK M10/M11 Q0994 NOSIG=",
            "ENBO 141750Z 10004KT CAVOK M10/M11 Q0994 NOSIG=",
            "ENBO 141820Z 09009KT CAVOK M09/M10 Q0994 NOSIG=",
            "ENBO 141850Z 08008KT CAVOK M10/M11 Q0994 NOSIG=",
            "ENBO 141920Z 09008KT CAVOK M10/M11 Q0994 NOSIG=",
            "ENBO 141950Z 08010KT CAVOK M09/M11 Q0994 NOSIG=",
            "ENBO 142020Z 08009KT CAVOK M09/M11 Q0994 NOSIG=",
            "ENBO 142050Z 09010KT CAVOK M10/M12 Q0994 NOSIG=",
            "ENBO 142120Z 08011KT CAVOK M09/M12 Q0994 NOSIG=",
            "ENBO 142150Z 09012KT CAVOK M09/M12 Q0994=",
            "ENBO 142220Z 09011KT CAVOK M09/M11 Q0994=",
            "ENBO 142250Z 09012KT CAVOK M09/M11 Q0995=",
            "ENBO 142320Z 09012KT CAVOK M09/M11 Q0995=",
            "ENBO 142350Z 09013KT 9999 NSC M10/M12 Q0995=",
            "",
            ""
        ]
    },
    {
        "metar": [
            "ENBO 150020Z 09012KT CAVOK M10/M12 Q0995=",
            "ENBO 150050Z 09012KT CAVOK M10/M12 Q0995=",
            "ENBO 150120Z 09013KT CAVOK M10/M12 Q0995=",
            "ENBO 150220Z 09012KT CAVOK M10/M12 Q0995=",
            "ENBO 150250Z 10012KT CAVOK M11/M13 Q0995=",
            "ENBO 150320Z 10013KT CAVOK M11/M13 Q0995=",
            "ENBO 150350Z 09012KT CAVOK M11/M13 Q0995=",
            "ENBO 150420Z 10013KT 9999 FEW006 M11/M13 Q0995=",
            "ENBO 150450Z 09013KT CAVOK M11/M13 Q0995=",
            "ENBO 150520Z 09014KT CAVOK M11/M13 Q0995=",
            "ENBO 150550Z 09013KT CAVOK M11/M13 Q0995=",
            "ENBO 150620Z 09013KT CAVOK M11/M13 Q0995 NOSIG=",
            "ENBO 150650Z 10013KT 9999 FEW006 M11/M12 Q0995 NOSIG=",
            "ENBO 150720Z 10012KT 9999 FEW006 M11/M13 Q0995 NOSIG=",
            "ENBO 150750Z 10012KT 9999 FEW006 M11/M13 Q0995 NOSIG=",
            "ENBO 150820Z 10011KT 9999 FEW010 SCT040 M10/M12 Q0995 NOSIG=",
            "ENBO 150850Z 09013KT 9999 FEW032 SCT042 M11/M13 Q0995 NOSIG=",
            "ENBO 150920Z 09013KT 9999 FEW006 SCT035 M11/M13 Q0995 NOSIG=",
            "ENBO 150950Z 10012KT 9999 VCSH FEW015 SCT044 M11/M13 Q0995 NOSIG=",
            "ENBO 151020Z 10013KT 9999 VCSH FEW005 M11/M13 Q0995 NOSIG=",
            "ENBO 151050Z 10010KT 9999 VCSH FEW006 SCT044 M11/M13 Q0995 TEMPO 0600 SHSN VV004=",
            "ENBO 151120Z 10011KT 9999 VCSH FEW006 SCT034 M10/M12 Q0995 TEMPO 0600 SHSN VV004=",
            "ENBO 151150Z 10011KT 9999 FEW030 SCT060 M10/M12 Q0995 TEMPO 0600 SHSN VV004=",
            "ENBO 151220Z 10010KT 9999 VCSH FEW005 BKN028 M10/M12 Q0995 TEMPO 0600 SHSN VV004=",
            "ENBO 151250Z 10011KT 9999 VCSH FEW006 BKN017 M10/M12 Q0995 TEMPO 0600 SHSN VV004=",
            "ENBO 151320Z 10011KT 5000 -SN VV014 M09/M11 Q0994 TEMPO 0600 SHSN VV004=",
            "ENBO 151350Z 11012KT 4000 -SN VV017 M09/M11 Q0994 TEMPO 0600 SHSN VV004=",
            "ENBO 151420Z 11010KT 8000 -SN SCT010 BKN022 M09/M10 Q0994 NOSIG=",
            "ENBO 151450Z 10010KT 0750 SN VV006 M09/M10 Q0994 TEMPO 0600 SHSN VV004=",
            "ENBO 151520Z 11010KT 9999 -SN VV008 M09/M10 Q0994 TEMPO 0600 SHSN=",
            "ENBO 151550Z 11010KT 9999 -SN FEW006 SCT009 BKN031 M09/M10 Q0994 TEMPO 0600 SHSN=",
            "ENBO 151620Z 13008KT 110V160 9999 FEW006 SCT008 BKN050 M09/M11 Q0994 TEMPO 0600 SHSN VV004=",
            "ENBO 151650Z 11009KT 9999 -SN BKN012 M09/M10 Q0994=",
            "ENBO 151720Z 10011KT 9000 -SN BKN011 M08/M10 Q0993 TEMPO 0600 SHSN VV004=",
            "ENBO 151750Z 10011KT 9999 FEW008 SCT053 BKN110 M09/M10 Q0993 TEMPO 1000 SHSN VV08=",
            "ENBO 151750Z 10011KT 9999 FEW008 SCT053 BKN110 M09/M10 Q0993 TEMPO 1000 SHSN VV008=",
            "ENBO 151820Z 10010KT 9999 SCT009 BKN020 M09/M10 Q0993 TEMPO 1000 SHSN VV008=",
            "ENBO 151850Z 10013KT 2000 SN VV010 M08/M10 Q0993 TEMPO 0600 SHSN VV004=",
            "ENBO 151920Z 10011KT 9999 -SN FEW008 SCT014 M08/M10 Q0993 TEMPO 0800 SHSN VV006=",
            "ENBO 151950Z 11010KT 9999 FEW010 SCT012 M09/M10 Q0993 TEMPO 0800 SHSN VV006=",
            "ENBO 152020Z 09011KT 9999 SCT007 BKN015 M09/M10 Q0993 TEMPO 0800 SHSN VV006=",
            "ENBO 152050Z 10012KT 9999 SCT008 BKN012 OVC140 M08/M09 Q0993 TEMPO 0600 SHSN VV004=",
            "ENBO 152120Z 10012KT 9999 FEW006 SCT012 M08/M09 Q0992 TEMPO 0600 SHSN VV004=",
            "ENBO 152150Z 10013KT 9999 SCT009 BKN012 M07/M09 Q0992 TEMPO 0600 SHSN VV004=",
            "ENBO 152220Z 10012KT 9999 -SN SCT009 BKN018 OVC034 M07/M09 Q0992=",
            "ENBO 152250Z 09015KT 1900 -SN VV015 M07/M09 Q0992=",
            "ENBO 152320Z 09017KT 2000 R07/P2000N R25/P2000N -SN VV009 M07/M08 Q0992=",
            "ENBO 152350Z 10015KT 1500 R07/P2000N R25/P2000N -SN VV010 M07/M08 Q0992=",
            "",
            ""
        ]
    },
    {
        "metar": [
            "ENBO 160020Z 09017KT 1500 -SN VV006 M07/M08 Q0992=",
            "ENBO 160050Z 08018KT 1500 R07/P2000N R25/1400D SN VV003 M07/M08 Q0992=",
            "ENBO 160120Z 08018KT 1500 R07/P2000N R25/1700N SN VV007 M07/M08 Q0992=",
            "ENBO 160150Z 08020KT 1500 R07/P2000N R25/P2000D -SN VV006 M07/M08 Q0992=",
            "ENBO 160220Z 08020KT 5000 -SN BKN009 BKN016 OVC032 M07/M09 Q0992=",
            "ENBO 160250Z 09018KT 8000 -SN FEW006 SCT013 BKN017 M07/M09 Q0992=",
            "ENBO 160350Z 11019KT 9999 -SN SCT017 OVC024 M07/M10 Q0992=",
            "ENBO 160420Z 10022KT 9999 FEW029 SCT037 M07/M11 Q0992=",
            "ENBO 160450Z 11022KT 9999 -SN FEW014 BKN055 M08/M12 Q0992=",
            "ENBO 160520Z 10022KT 9000 -SN BKN057 M08/M12 Q0992=",
            "ENBO 160550Z 11024KT 9999 -SN SCT040 BKN060 M08/M12 Q0992=",
            "ENBO 160620Z 10026KT 9999 -SN BLSN FEW023 BKN072 M08/M12 Q0992 NOSIG=",
            "ENBO 160650Z 10024KT 2500 -SN BLSN FEW045 BKN075 M08/M12 Q0992 NOSIG=",
            "ENBO 160720Z 11023KT 2400 -SN BLSN FEW045 BKN088 M08/M12 Q0992 BECMG 9999 DRSN=",
            "ENBO 160720Z 11023KT 2400 -SN BLSN FEW045 BKN088 M08/M12 Q0992 BECMG 9999 DRSN=",
            "ENBO 160750Z 11024KT 5000 DRSN FEW062 SCT086 M08/M13 Q0992=",
            "ENBO 160820Z 11020KT 3100 BLSN NSC M08/M13 Q0992 TEMPO 9999 DRSN=",
            "ENBO 160850Z 11026KT 9999 BLSN NSC M08/M14 Q0993 TEMPO 4000 DRSN=",
            "ENBO 160920Z 11024KT 9999 DRSN NSC M08/M14 Q0993 TEMPO 4000 BLSN=",
            "ENBO 160950Z 11023KT 9999 BLSN NSC M08/M15 Q0993 TEMPO 4000 BLSN=",
            "ENBO 161020Z 10022KT 8000 BLSN NSC M09/M15 Q0993 TEMPO 4000 BLSN=",
            "ENBO 161050Z 10022KT 9999 DRSN NSC M09/M15 Q0993 TEMPO NSW=",
            "ENBO 161120Z 11021KT 9999 DRSN NSC M09/M15 Q0993 TEMPO NSW=",
            "ENBO 161150Z 11020KT 8000 DRSN NSC M09/M15 Q0993 TEMPO NSW=",
            "ENBO 161220Z 11021KT 5000 DRSN NSC M09/M16 Q0993 TEMPO 9999 NSW=",
            "ENBO 161250Z 10023KT 9999 DRSN NSC M09/M16 Q0993 TEMPO NSW=",
            "ENBO 161320Z 10022KT 9999 DRSN NSC M10/M16 Q0993 TEMPO NSW=",
            "ENBO 161350Z 11023KT 9999 DRSN NSC M10/M16 Q0993 TEMPO NSW=",
            "ENBO 161420Z 10020KT 9999 DRSN NSC M10/M16 Q0993 TEMPO NSW=",
            "ENBO 161450Z 08023KT 9999 DRSN NSC M10/M17 Q0993 NOSIG=",
            "ENBO 161520Z 09023KT CAVOK M10/M17 Q0993 NOSIG=",
            "ENBO 161550Z 09023KT CAVOK M10/M17 Q0993 NOSIG=",
            "ENBO 161620Z 10023KT CAVOK M10/M17 Q0993 NOSIG=",
            "ENBO 161650Z 08018KT 9999 DRSN NSC M12/M18 Q0993 NOSIG=",
            "ENBO 161720Z 10023KT 9999 DRSN NSC M11/M18 Q0992 NOSIG=",
            "ENBO 161720Z 10023KT 9999 DRSN NSC M11/M18 Q0992 NOSIG=",
            "ENBO 161750Z 10024KT 9999 DRSN NSC M11/M17 Q0992 NOSIG=",
            "ENBO 161820Z 10023KT 9999 DRSN NSC M11/M17 Q0992 NOSIG=",
            "ENBO 161850Z 10023KT CAVOK M11/M18 Q0992 NOSIG=",
            "ENBO 161920Z 10019KT 9999 DRSN NSC M11/M18 Q0992 NOSIG=",
            "ENBO 161920Z 10019KT 9999 DRSN NSC M11/M18 Q0992 NOSIG=",
            "ENBO 161950Z 10025KT 9999 DRSN NSC M11/M18 Q0992 NOSIG=",
            "ENBO 162020Z 10020KT 9999 DRSN NSC M11/M18 Q0992 NOSIG=",
            "ENBO 162050Z 10021KT 9999 DRSN NSC M11/M18 Q0992 NOSIG=",
            "ENBO 162120Z 10024KT 9999 DRSN NSC M11/M18 Q0992 NOSIG=",
            "ENBO 162150Z 10024KT 9999 DRSN NSC M12/M18 Q0992 NOSIG=",
            "ENBO 162220Z 10023KT 9999 DRSN NSC M12/M19 Q0992=",
            "ENBO 162250Z 10025KT 9999 DRSN NSC M12/M19 Q0991=",
            "ENBO 162320Z 10024KT 9999 DRSN NSC M12/M19 Q0991=",
            "ENBO 162350Z 10027KT 9999 DRSN NSC M12/M18 Q0991=",
            "",
            ""
        ]
    },
    {
        "metar": [
            "ENBO 170020Z 10028KT 9999 DRSN NSC M13/M19 Q0991=",
            "ENBO 170050Z 10027KT 9999 DRSN NSC M12/M18 Q0991=",
            "ENBO 170120Z 10025KT 9999 DRSN NSC M12/M18 Q0991=",
            "ENBO 170150Z 10027KT 9000 BLSN NSC M12/M18 Q0991=",
            "ENBO 170220Z 10025KT 9999 DRSN NSC M13/M18 Q0991=",
            "ENBO 170250Z 10027KT 9999 DRSN NSC M13/M18 Q0990=",
            "ENBO 170320Z 11025KT 9999 R07/0650N BLSN NSC M13/M18 Q0991=",
            "ENBO 170350Z 10025KT 9999 R07/0650N BLSN NSC M13/M18 Q0991=",
            "ENBO 170420Z 11026KT 9999 DRSN NSC M12/M19 Q0991=",
            "ENBO 170450Z 10026KT 9999 R07/0650 BLSN NSC M12/M18 Q0990=",
            "ENBO 170520Z 11029G40KT 9999 R07/0650 BLSN NSC M12/M18 Q0990=",
            "ENBO 170550Z 11028KT 9999 R07/0650 BLSN NSC M13/M18 Q0990=",
            "ENBO 170620Z 10029KT 9999 BLSN NSC M12/M19 Q0990 TEMPO 10030G40KT DRSN=",
            "ENBO 170650Z 12028KT 9999 BLSN NSC M12/M18 Q0990 TEMPO 10028G38KT DRSN=",
            "ENBO 170720Z 11025KT 9999 BLSN NSC M12/M18 Q0990 TEMPO 10025G35KT DRSN=",
            "ENBO 170750Z 11025KT 9999 DRSN NSC M12/M18 Q0990 TEMPO 10025G35KT=",
            "ENBO 170820Z 12021KT 9999 DRSN NSC M12/M18 Q0990 TEMPO 10021G31KT=",
            "ENBO 170850Z 12027KT 9999 DRSN FEW050 M12/M17 Q0990 TEMPO 10025G35KT=",
            "ENBO 170920Z 12029KT 9999 DRSN FEW035 M11/M17 Q0990 TEMPO 10027G37KT=",
            "ENBO 170950Z 11030KT 9999 DRSN FEW035 SCT074 M11/M17 Q0991 TEMPO 10027G37KT=",
            "ENBO 171020Z 11027G37KT 9999 DRSN FEW040 SCT070 M11/M18 Q0991=",
            "ENBO 171050Z 10025KT 9999 DRSN FEW040 SCT070 M11/M18 Q0991 TEMPO 10027G37KT=",
            "ENBO 171120Z 11026KT 9999 DRSN FEW040 SCT080 M11/M17 Q0990 TEMPO 10027G37KT=",
            "ENBO 171150Z 11028G39KT 9999 DRSN FEW040 SCT080 M11/M16 Q0991 TEMPO 10030G40KT=",
            "ENBO 171220Z 10030KT 9999 DRSN FEW040 SCT070 M10/M16 Q0991 TEMPO 10030G40KT=",
            "ENBO 171250Z 11030KT 9999 DRSN FEW035 BKN068 M10/M16 Q0990 TEMPO 11030G40KT=",
            "ENBO 171320Z 12034KT 9999 DRSN FEW035 BKN064 M10/M16 Q0990 TEMPO 11030G40KT=",
            "ENBO 171350Z 11025KT 9999 DRSN FEW040 BKN080 M10/M15 Q0991 TEMPO 11025G35KT=",
            "ENBO 171420Z 10030KT 9999 DRSN FEW036 BKN072 M10/M16 Q0991 TEMPO 11025G35KT=",
            "ENBO 171450Z 12027G37KT 9999 DRSN FEW040 BKN074 M10/M16 Q0991 TEMPO 10025KT=",
            "ENBO 171450Z 12027G37KT 9999 DRSN FEW040 BKN074 M10/M16 Q0991 TEMPO 10025KT=",
            "ENBO 171520Z 11026G37KT 9999 DRSN NSC M10/M16 Q0991 NOSIG=",
            "ENBO 171550Z 12032G45KT 9999 BLSN NSC M09/M15 Q0990=",
            "ENBO 171620Z 11030KT 9999 BLSN NSC M09/M15 Q0991 TEMPO 12035G45KT=",
            "ENBO 171650Z 10022KT 9999 DRSN FEW041 BKN100 M10/M16 Q0992 TEMPO 12025G35KT=",
            "ENBO 171720Z 10018KT 070V130 9999 DRSN NSC M09/M16 Q0991 TEMPO 12025G35KT=",
            "ENBO 171750Z 11024G35KT 9999 DRSN NSC M09/M15 Q0991 NOSIG=",
            "ENBO 171820Z 11026G37KT 9999 DRSN NSC M09/M15 Q0991 NOSIG=",
            "ENBO 171850Z 12019G29KT 090V150 9999 DRSN NSC M08/M15 Q0992 NOSIG=",
            "ENBO 171920Z 12023G35KT CAVOK M08/M15 Q0992 NOSIG=",
            "ENBO 171950Z 11025G38KT CAVOK M08/M14 Q0992 NOSIG=",
            "ENBO 172020Z 12024KT CAVOK M08/M14 Q0992 TEMPO 12025G35KT=",
            "ENBO 172050Z 11023KT CAVOK M08/M15 Q0992 TEMPO 12025G35KT=",
            "ENBO 172120Z 10023G35KT 080V130 CAVOK M08/M14 Q0991 NOSIG=",
            "ENBO 172150Z 10024KT 9999 DRSN NSC M08/M15 Q0991 TEMPO 10025G35KT=",
            "ENBO 172220Z 10027KT 9999 DRSN NSC M08/M15 Q0991=",
            "ENBO 172250Z 11031G41KT CAVOK M08/M15 Q0991=",
            "ENBO 172320Z 11030KT CAVOK M08/M15 Q0991=",
            "ENBO 172350Z 11026KT CAVOK M08/M15 Q0991=",
            "",
            ""
        ]
    },
    {
        "metar": [
            "ENBO 180020Z 10023KT CAVOK M08/M14 Q0991=",
            "ENBO 180050Z 10021G33KT CAVOK M07/M14 Q0991=",
            "ENBO 180120Z 10022KT CAVOK M07/M14 Q0991=",
            "ENBO 180150Z 08018KT CAVOK M07/M14 Q0991=",
            "ENBO 180220Z 09022G35KT CAVOK M07/M14 Q0992=",
            "ENBO 180250Z 08024KT CAVOK M07/M15 Q0991=",
            "ENBO 180320Z 09024KT CAVOK M07/M14 Q0991=",
            "ENBO 180350Z 09020KT CAVOK M07/M14 Q0992=",
            "ENBO 180420Z 07024KT CAVOK M07/M14 Q0991=",
            "ENBO 180450Z 09027KT CAVOK M07/M14 Q0991=",
            "ENBO 180520Z 10025KT CAVOK M08/M14 Q0991 RESN=",
            "ENBO 180550Z 11024KT CAVOK M07/M14 Q0992=",
            "ENBO 180620Z 11023KT 9999 DRSN NSC M07/M14 Q0992 TEMPO 11025G35KT=",
            "ENBO 180650Z 12019KT 9999 DRSN NSC M07/M14 Q0992 TEMPO 11020G30KT=",
            "ENBO 180720Z 11023KT 9999 DRSN NSC M07/M14 Q0992 TEMPO 11025G35KT=",
            "ENBO 180750Z 09021KT CAVOK M07/M14 Q0992 TEMPO 11025G30KT=",
            "ENBO 180820Z 09023KT 9999 DRSN NSC M07/M13 Q0992 TEMPO 11025G30KT=",
            "ENBO 180850Z 11023KT CAVOK M07/M14 Q0992 NOSIG=",
            "ENBO 180920Z 11019KT CAVOK M07/M15 Q0993 NOSIG=",
            "ENBO 180950Z 11021KT CAVOK M07/M15 Q0993 NOSIG=",
            "ENBO 181020Z 10021KT CAVOK M07/M15 Q0993 NOSIG=",
            "ENBO 181050Z 10022KT CAVOK M07/M15 Q0992 NOSIG=",
            "ENBO 181120Z 10025KT CAVOK M07/M16 Q0992 NOSIG=",
            "ENBO 181150Z 12023KT CAVOK M07/M15 Q0992 NOSIG=",
            "ENBO 181220Z 10019KT CAVOK M07/M16 Q0993 NOSIG=",
            "ENBO 181250Z 09019KT CAVOK M07/M16 Q0993 NOSIG=",
            "ENBO 181320Z 09022KT CAVOK M07/M17 Q0992 NOSIG=",
            "ENBO 181350Z 10025KT CAVOK M07/M16 Q0992 NOSIG=",
            "ENBO 181420Z 11020KT CAVOK M07/M16 Q0992 NOSIG=",
            "ENBO 181450Z 11020KT CAVOK M08/M16 Q0992 NOSIG=",
            "ENBO 181520Z 11023KT CAVOK M08/M16 Q0992 NOSIG=",
            "ENBO 181550Z 10023KT CAVOK M08/M16 Q0992 NOSIG=",
            "ENBO 181620Z 10015KT CAVOK M08/M16 Q0992 NOSIG=",
            "ENBO 181650Z 10015KT CAVOK M07/M15 Q0992 NOSIG=",
            "ENBO 181720Z 08017KT CAVOK M08/M16 Q0992 NOSIG=",
            "ENBO 181750Z 08016KT CAVOK M08/M16 Q0992=",
            "ENBO 181820Z 07014KT CAVOK M09/M16 Q0992 NOSIG=",
            "ENBO 181850Z 08017KT CAVOK M09/M15 Q0992 NOSIG=",
            "ENBO 181920Z 08018KT CAVOK M08/M16 Q0991 NOSIG=",
            "ENBO 181950Z 09018KT CAVOK M09/M15 Q0992 NOSIG=",
            "ENBO 182020Z 09021KT CAVOK M08/M15 Q0992 NOSIG=",
            "ENBO 182050Z 08019KT CAVOK M09/M15 Q0992 NOSIG=",
            "ENBO 182120Z 09019KT CAVOK M09/M15 Q0992 NOSIG=",
            "ENBO 182150Z 08018KT CAVOK M09/M16 Q0992 NOSIG=",
            "ENBO 182220Z 09017KT CAVOK M09/M16 Q0992=",
            "ENBO 182250Z 08018KT CAVOK M09/M15 Q0992=",
            "ENBO 182320Z 08018KT CAVOK M09/M15 Q0992=",
            "ENBO 182350Z 08019KT CAVOK M09/M16 Q0992=",
            "",
            ""
        ]
    },
    {
        "metar": [
            "ENBO 190020Z 08020KT CAVOK M10/M16 Q0992=",
            "ENBO 190050Z 08018KT CAVOK M10/M17 Q0992=",
            "ENBO 190120Z 09017KT CAVOK M10/M16 Q0992=",
            "ENBO 190150Z 09018KT CAVOK M10/M16 Q0992=",
            "ENBO 190220Z 09017KT CAVOK M10/M16 Q0992=",
            "ENBO 190250Z 09017KT CAVOK M10/M16 Q0992=",
            "ENBO 190320Z 09017KT CAVOK M10/M16 Q0992=",
            "ENBO 190350Z 09016KT CAVOK M10/M16 Q0992=",
            "ENBO 190420Z 09016KT CAVOK M10/M17 Q0992=",
            "ENBO 190450Z 09015KT CAVOK M10/M17 Q0992=",
            "ENBO 190520Z 09015KT CAVOK M10/M16 Q0992=",
            "ENBO 190550Z 09016KT CAVOK M10/M16 Q0992=",
            "ENBO 190620Z 09015KT CAVOK M10/M16 Q0993 NOSIG=",
            "ENBO 190650Z 09014KT CAVOK M10/M16 Q0993 NOSIG=",
            "ENBO 190720Z 08015KT CAVOK M10/M16 Q0993 NOSIG=",
            "ENBO 190750Z 09015KT CAVOK M10/M16 Q0993 NOSIG=",
            "ENBO 190820Z 09014KT CAVOK M10/M16 Q0993 NOSIG=",
            "ENBO 190850Z 09016KT CAVOK M10/M16 Q0993 NOSIG=",
            "ENBO 190920Z 09015KT CAVOK M10/M16 Q0994 NOSIG=",
            "ENBO 190950Z 09015KT CAVOK M10/M16 Q0994 NOSIG=",
            "ENBO 191020Z 09014KT CAVOK M10/M15 Q0994 NOSIG=",
            "ENBO 191050Z 09015KT CAVOK M10/M15 Q0994 NOSIG=",
            "ENBO 191120Z 10015KT CAVOK M10/M15 Q0994 NOSIG=",
            "ENBO 191150Z 10016KT CAVOK M09/M14 Q0994 NOSIG=",
            "ENBO 191220Z 09016KT CAVOK M10/M14 Q0994 NOSIG=",
            "ENBO 191250Z 10015KT CAVOK M10/M14 Q0995 TEMPO 1200 SHSN VV008=",
            "ENBO 191320Z 09015KT 9999 FEW045 SCT062 M09/M14 Q0995 TEMPO 1200 SHSN VV008=",
            "ENBO 191350Z 10015KT 9999 FEW030 SCT061 M09/M15 Q0995 TEMPO 1200 SHSN VV008=",
            "ENBO 191420Z 09014KT 9999 VCSH SCT015CB SCT040 M10/M15 Q0995 TEMPO 0700 SHSN VV006=",
            "ENBO 191450Z 10015KT 9999 VCSH SCT015CB BKN040 M09/M15 Q0995 TEMPO 0800 SHSN VV006=",
            "ENBO 191520Z 09017KT 9999 VCSH BKN035 M09/M14 Q0995 TEMPO 0800 SHSN VV006=",
            "ENBO 191550Z 10017KT 9999 VCSH SCT020 BKN035 M09/M15 Q0995 TEMPO 0800 SHSN VV006=",
            "ENBO 191620Z 09016KT 9999 VCSH SCT015CB BKN035 M09/M14 Q0995 TEMPO 0800 SHSN VV006=",
            "ENBO 191650Z 09017KT 5000 -SHSN VV011 M09/M14 Q0996 TEMPO 0800 SHSN VV006=",
            "ENBO 191720Z 10016KT 2500 -SHSN VV008 M09/M13 Q0996 TEMPO 0800 SHSN VV006=",
            "ENBO 191750Z 10017KT 1000 R07/P2000N R25/P2000N SHSN VV005 M09/M12 Q0996 TEMPO 0800 SHSN VV004=",
            "ENBO 191820Z 10017KT 1000 R07/P2000N R25/P2000N SHSN VV005 M09/M11 Q0996 TEMPO 2000 -SHSN VV012=",
            "ENBO 191850Z 10020KT 0550 R07/1800N R25/P2000N SHSN VV002 M09/M11 Q0997 TEMPO 1500 -SHSN VV010=",
            "ENBO 191920Z 10020KT 5000 -SHSN FEW004 SCT006 BKN008 M09/M12 Q0997 TEMPO 2500 -SHSN VV012=",
            "ENBO 191950Z 10022KT 9999 VCSH FEW005 SCT025 BKN040 M10/M12 Q0997 TEMPO 3000 -SHSN VV012=",
            "ENBO 192020Z 10017KT 9999 VCSH FEW035 M09/M12 Q0997 TEMPO 3000 -SHSN VV012=",
            "ENBO 192050Z 09018KT 9999 FEW060 M09/M12 Q0998 TEMPO 3000 -SHSN VV012=",
            "ENBO 192120Z 09017KT 9999 FEW047 SCT066 M09/M12 Q0998 TEMPO 3000 -SHSN VV012=",
            "ENBO 192150Z 10017KT CAVOK M09/M12 Q0998 NOSIG=",
            "ENBO 192220Z 09016KT 9999 FEW038 M09/M11 Q0998=",
            "ENBO 192250Z 09017KT 9999 SCT036 M08/M11 Q0999=",
            "ENBO 192320Z 10016KT 9999 FEW040 M09/M11 Q0999=",
            "ENBO 192350Z 09016KT 9999 FEW039 M09/M11 Q0999=",
            "",
            ""
        ]
    },
    {
        "metar": [
            "ENBO 200020Z 09016KT 9999 FEW042 M09/M12 Q1000=",
            "ENBO 200050Z 09017KT CAVOK M09/M12 Q1000=",
            "ENBO 200120Z 09017KT 5000 -SN VV006 M08/M11 Q1000=",
            "ENBO 200150Z 09017KT 1500 -SN FEW003 SCT008 BKN014 M08/M11 Q1001=",
            "ENBO 200220Z 09017KT 3000 -SN VV010 M08/M09 Q1001=",
            "ENBO 200250Z 10017KT 9999 SCT020 BKN029 M08/M10 Q1001=",
            "ENBO 200350Z 10017KT 2300 -SN VV006 M07/M10 Q1001=",
            "ENBO 200420Z 10017KT 1700 -SN VV006 M07/M09 Q1001=",
            "ENBO 200450Z 10017KT 4700 -SN FEW003 SCT015 BKN026 M07/M09 Q1002=",
            "ENBO 200520Z 10019KT 4200 -SN SCT005 BKN039 M07/M09 Q1001=",
            "ENBO 200550Z 10017KT 9999 -SN BKN046 M07/M09 Q1002=",
            "ENBO 200620Z 10016KT 9999 -SN BKN020 M07/M09 Q1002 TEMPO 0800 SHSN BKN004 SCT020CB=",
            "ENBO 200650Z 10017KT 5000 -SN VV015 M06/M09 Q1002 TEMPO 0800 SHSN BKN004 SCT020CB=",
            "ENBO 200720Z 10019KT 6000 -SN SCT007 BKN035 M06/M08 Q1002 TEMPO 0800 SHSN VV004=",
            "ENBO 200750Z 10018KT 9999 FEW015 SCT024 BKN042 M06/M08 Q1003 TEMPO 1200 SHSN VV008=",
            "ENBO 200820Z 10016KT 0800 R07/P2000N R25/P2000N SHSN VV005 M06/M07 Q1003 TEMPO 1200 SHSN VV004=",
            "ENBO 200850Z 10018KT 9000 -SHSN FEW005 SCT010CB BKN017 M06/M07 Q1003 TEMPO 1500 SHSN VV006=",
            "ENBO 200920Z 11016KT 0800 R07/P2000N R25/P2000N SHSN SCT003 OVC012 M05/M07 Q1003 TEMPO 1500 SHSN VV006=",
            "ENBO 200950Z 10017KT 7000 -SHSN FEW003 SCT010 BKN015 M05/M06 Q1004 TEMPO 0800 SHSN VV003=",
            "ENBO 201020Z 11018KT 3200 -SHSN FEW003 SCT006 BKN009 M05/M06 Q1004 RESHSN TEMPO 0800 SHSN VV004=",
            "ENBO 201050Z 12014KT 6000 -SHSN FEW005 SCT010 BKN015 M05/M06 Q1004 TEMPO 1200 SHSN VV008=",
            "ENBO 201120Z 10013KT 2500 -SHSN VV008 M04/M05 Q1004 TEMPO 8000 -SHSN SCT015=",
            "ENBO 201150Z 09013KT 1000 R07/P2000N R25/1500U SHSN VV010 M05/M05 Q1005 TEMPO 8000 -SHSN SCT015=",
            "ENBO 201220Z 11012KT 6000 -SHSN FEW010 BKN015 M05/M05 Q1005 TEMPO BKN014=",
            "ENBO 201250Z VRB11KT 9999 -SHSN SCT007 BKN010 M05/M05 Q1005 BECMG 10009KT TEMPO BKN009=",
            "ENBO 201250Z VRB11KT 9999 -SHSN SCT007 BKN010 M05/M05 Q1005 BECMG 10009KT TEMPO BKN009=",
            "ENBO 201320Z 10010KT 9999 VCSH BKN008 M04/M05 Q1005 TEMPO 2000 SHSN VV005=",
            "ENBO 201350Z 10009KT 1800 SHSN SCT003 OVC006 M04/M05 Q1005 TEMPO 6000 -SHSN BKN012=",
            "ENBO 201420Z 12008KT 090V150 9999 -SHSN FEW003 SCT013 BKN019 M04/M05 Q1005 RESHSN TEMPO BKN008 FEW020CB=",
            "ENBO 201450Z 09012KT 2500 -SHSN FEW005 SCT010 BKN015 M04/M05 Q1006 TEMPO 1200 SHSN VV006=",
            "ENBO 201520Z 11010KT 9999 -SHSN FEW010 BKN015 M04/M04 Q1006 TEMPO 2000 SHSN VV014=",
            "ENBO 201550Z 11010KT 9999 FEW005 SCT010 BKN015 M04/M05 Q1005 TEMPO 2000 SHSN VV014=",
            "ENBO 201620Z 10014KT 9999 FEW005 SCT010 M05/M05 Q1005 TEMPO 2000 SHSN VV014=",
            "ENBO 201650Z 10013KT 9999 FEW010 BKN070 M04/M05 Q1006 NOSIG=",
            "ENBO 201720Z 10013KT 9999 SCT070 M04/M06 Q1006 NOSIG=",
            "ENBO 201750Z 09013KT CAVOK M05/M07 Q1005 NOSIG=",
            "ENBO 201820Z 10011KT CAVOK M05/M08 Q1005 NOSIG=",
            "ENBO 201850Z 09014KT CAVOK M04/M08 Q1005 NOSIG=",
            "ENBO 201920Z 09015KT CAVOK M04/M08 Q1005=",
            "ENBO 201950Z 09016KT CAVOK M04/M08 Q1004=",
            "ENBO 202020Z 09016KT CAVOK M04/M08 Q1004=",
            "ENBO 202050Z 09018KT CAVOK M04/M08 Q1004=",
            "ENBO 202120Z 09019KT CAVOK M04/M08 Q1003=",
            "ENBO 202150Z 09020KT CAVOK M03/M08 Q1003=",
            "ENBO 202220Z 09020KT CAVOK M03/M08 Q1002=",
            "ENBO 202250Z 10021KT CAVOK M03/M08 Q1002=",
            "ENBO 202320Z 09022KT CAVOK M03/M09 Q1002=",
            "ENBO 202350Z 09023KT CAVOK M03/M09 Q1001=",
            "",
            ""
        ]
    },
    {
        "metar": [
            "ENBO 210020Z 09024KT CAVOK M03/M09 Q1001=",
            "ENBO 210050Z 09024KT CAVOK M03/M09 Q1000=",
            "ENBO 210120Z 09023KT CAVOK M03/M09 Q1000=",
            "ENBO 210150Z 09023KT CAVOK M03/M09 Q1000=",
            "ENBO 210220Z 09023KT 9999 BKN062 M03/M09 Q1000=",
            "ENBO 210250Z 09021KT 9999 BKN068 M03/M09 Q0999=",
            "ENBO 210320Z 09022KT 9999 FEW046 BKN062 M03/M09 Q0999=",
            "ENBO 210350Z 09021KT 9999 BKN053 M02/M09 Q0999=",
            "ENBO 210420Z 09021KT 9999 SCT045 M02/M09 Q0999=",
            "ENBO 210450Z 09021KT 9999 BKN038 M02/M09 Q0998=",
            "ENBO 210520Z 09023KT 9999 FEW021 BKN034 M02/M09 Q0998=",
            "ENBO 210550Z 09024KT 9999 FEW026 SCT035 BKN055 M02/M08 Q0998=",
            "ENBO 210620Z 09025KT 9999 FEW033 M02/M09 Q0997=",
            "ENBO 210650Z 09026KT 9999 SCT028 BKN046 M02/M08 Q0997=",
            "ENBO 210720Z 09027KT 9000 -SN FEW006 SCT020 BKN042 M02/M08 Q0996=",
            "ENBO 210750Z 09026KT 9999 SCT040 BKN051 M02/M08 Q0996 NOSIG=",
            "ENBO 210820Z 09025KT 9999 BKN034 M02/M07 Q0995 NOSIG=",
            "ENBO 210850Z 09026KT 9999 SCT022 BKN032 M02/M07 Q0995 NOSIG=",
            "ENBO 210920Z 09027KT 9999 SCT035 BKN060 M02/M07 Q0995 NOSIG=",
            "ENBO 210950Z 09029KT 9999 DRSN FEW050 SCT060 M02/M07 Q0994 NOSIG=",
            "ENBO 211020Z 09028KT 9999 DRSN NSC M02/M06 Q0993 NOSIG=",
            "ENBO 211050Z 09028KT 9999 DRSN NSC M02/M06 Q0992 NOSIG=",
            "ENBO 211120Z 09026KT 9999 DRSN NSC M01/M06 Q0991 NOSIG=",
            "ENBO 211150Z 10026KT 9999 DRSN NSC M01/M05 Q0990 NOSIG=",
            "ENBO 211220Z 09027KT 9999 DRSN NSC M00/M05 Q0990 NOSIG=",
            "ENBO 211250Z 09026KT 9999 DRSN NSC 00/M05 Q0989 NOSIG=",
            "ENBO 211320Z 09024KT 9999 DRSN NSC 00/M06 Q0989 NOSIG=",
            "ENBO 211350Z 09028KT 9999 DRSN NSC 00/M05 Q0988 NOSIG=",
            "ENBO 211420Z 09028KT 9999 DRSN NSC 01/M05 Q0988 NOSIG=",
            "ENBO 211450Z 09026KT 9999 DRSN NSC 01/M05 Q0987 NOSIG=",
            "ENBO 211520Z 09025KT 9999 DRSN NSC 01/M05 Q0987 NOSIG=",
            "ENBO 211550Z 09026KT 9999 DRSN FEW050 BKN065 01/M05 Q0987 NOSIG=",
            "ENBO 211620Z 09026KT 9999 BKN053 00/M06 Q0987 NOSIG=",
            "ENBO 211650Z 09026KT 9999 DRSN FEW040 BKN050 00/M06 Q0987 TEMPO 2000 SN VV009=",
            "ENBO 211650Z 09026KT 9999 DRSN FEW040 BKN050 00/M06 Q0987 TEMPO 2000 SN VV009=",
            "ENBO 211720Z 09024KT 9999 DRSN FEW015 BKN022 M00/M07 Q0987 TEMPO 2000 SN VV009=",
            "ENBO 211750Z 09023KT 9999 -SN VV018 M01/M07 Q0987 TEMPO 2000 SN DRSN VV009=",
            "ENBO 211820Z 09022KT 2500 -SN VV009 M02/M06 Q0987 TEMPO 8000 SN DRSN FEW015 BKN020=",
            "ENBO 211850Z 09024KT 0900 R07/P2000N R25/1900D SN DRSN VV005 M03/M04 Q0987 TEMPO 8000 -SN FEW015 BKN020=",
            "ENBO 211920Z 09028KT 0500 R07/P2000N R25/1400D SN DRSN VV007 M04/M04 Q0987 TEMPO 8000 -SN FEW015 BKN020=",
            "ENBO 211950Z 09030KT 0700 R07/P2000N R25/1900N SN DRSN VV010 M04/M05 Q0986 TEMPO 8000 -SN FEW015 BKN020=",
            "ENBO 212020Z 09030KT 1500 R07/P2000N R25/1800D SN DRSN VV009 M04/M05 Q0986 TEMPO 8000 -SN FEW015 BKN020=",
            "ENBO 212050Z 09029KT 1000 R07/1900D R25/1500D SN DRSN VV006 M05/M05 Q0986 BECMG 09018KT 9999 NSW=",
            "ENBO 212120Z 09030KT 6000 -SN SCT006 BKN018 M05/M05 Q0986 RESN BECMG 09020KT=",
            "ENBO 212150Z 10028KT 9999 DRSN BKN035 M04/M06 Q0985 RESN BECMG 09018KT NSW=",
            "ENBO 212220Z 09029KT 9999 BKN037 M04/M06 Q0985=",
            "ENBO 212250Z 09028KT 9999 BKN040 M03/M06 Q0985=",
            "ENBO 212320Z 10028KT 9999 BKN042 M03/M06 Q0984=",
            "ENBO 212350Z 10025KT 9999 BKN040 M02/M06 Q0984=",
            "",
            ""
        ]
    },
    {
        "metar": [
            "ENBO 220020Z 10023KT 9999 OVC042 M02/M06 Q0984=",
            "ENBO 220050Z 10025KT 9999 BKN040 OVC068 M02/M06 Q0984=",
            "ENBO 220120Z 09023KT 9999 BKN043 M01/M06 Q0983=",
            "ENBO 220150Z 10023KT 9999 BKN040 M01/M05 Q0983=",
            "ENBO 220220Z 10019KT 9999 SCT038 M00/M05 Q0983=",
            "ENBO 220250Z 10017KT 9999 BKN044 00/M04 Q0982=",
            "ENBO 220320Z 10017KT 9999 BKN045 01/M04 Q0981=",
            "ENBO 220350Z 10017KT 9999 SCT055 00/M05 Q0981=",
            "ENBO 220420Z 10020KT CAVOK 00/M05 Q0980=",
            "ENBO 220450Z 09021KT CAVOK M00/M05 Q0979=",
            "ENBO 220520Z 09023KT CAVOK 00/M05 Q0978=",
            "ENBO 220550Z 10026KT CAVOK 00/M05 Q0977=",
            "ENBO 220620Z 10022KT CAVOK 02/M04 Q0976 NOSIG=",
            "ENBO 220650Z 10027KT CAVOK 01/M05 Q0975 TEMPO 10027G37KT=",
            "ENBO 220720Z 09031KT 9999 DRSN NSC 00/M05 Q0975 TEMPO 10030G40KT=",
            "ENBO 220750Z 11025KT 9999 DRSN FEW015 BKN110 01/M04 Q0974 TEMPO 10030G40KT=",
            "ENBO 220820Z 10027G37KT 9999 DRSN NSC 01/M04 Q0972 TEMPO 10025KT=",
            "ENBO 220850Z 10031KT 9999 DRSN FEW045 SCT070 01/M04 Q0971 TEMPO 10030G40KT=",
            "ENBO 220920Z 11029KT 9999 DRSN FEW045 SCT061 BKN078 01/M04 Q0971 TEMPO 10030G40KT=",
            "ENBO 220950Z 11028KT 9999 DRSN FEW045 SCT055 BKN065 00/M03 Q0969 TEMPO 10030G40KT=",
            "ENBO 221020Z 10026KT 9999 DRSN FEW038 BKN070 00/M04 Q0968 TEMPO 10030G40KT=",
            "ENBO 221050Z 11029G39KT 9999 DRSN FEW041 BKN064 00/M03 Q0968 TEMPO 10025KT=",
            "ENBO 221120Z 12032G42KT 9999 DRSN SCT045 BKN088 01/M05 Q0967 TEMPO 10025KT=",
            "ENBO 221150Z 12028KT 9999 DRSN SCT044 BKN080 01/M05 Q0967 TEMPO 10030G40KT=",
            "ENBO 221220Z 12029KT 9999 -SHSN DRSN FEW009 SCT020 BKN030 01/M05 Q0965 TEMPO 10030G40KT=",
            "ENBO 221250Z 11027KT 9999 -SN DRSN FEW010 SCT020 BKN040 01/M05 Q0965 TEMPO 10030G40KT=",
            "ENBO 221320Z 10023KT 9999 VCSH DRSN FEW030 BKN055 01/M04 Q0964 TEMPO 10030G40KT=",
            "ENBO 221350Z 11020KT 9999 VCSH FEW015 SCT025 BKN040 01/M04 Q0964 TEMPO 10030G40KT=",
            "ENBO 221420Z 10020KT 9999 4000E -SHSN SCT019 BKN037 01/M02 Q0964 TEMPO 10030G40KT 4000 -SN=",
            "ENBO 221450Z 09024KT 6000 -SN VV019 00/M01 Q0963 TEMPO 4000 -SHSN VV014=",
            "ENBO 221520Z 09021KT 8000 -SHSN VV014 M00/M02 Q0963 TEMPO 4000 -SHSN BKN020=",
            "ENBO 221550Z 09020KT 9999 -SN SCT015CB BKN025 01/M03 Q0963 NOSIG=",
            "ENBO 221620Z 09019KT 9999 VCSH FEW015 BKN037 01/M03 Q0963=",
            "ENBO 221650Z 09020KT 9999 SCT031 01/M03 Q0963 NOSIG=",
            "ENBO 221720Z 09020KT 9999 FEW030 SCT055 BKN090 02/M03 Q0963 NOSIG=",
            "ENBO 221750Z 09020KT 9999 FEW045 SCT110 02/M03 Q0963 NOSIG=",
            "ENBO 221820Z 09019KT 9999 FEW055 SCT120 BKN140 02/M03 Q0963 NOSIG=",
            "ENBO 221850Z 09018KT 9999 FEW055 SCT120 BKN140 02/M03 Q0963 NOSIG=",
            "ENBO 221920Z 09017KT CAVOK 02/M03 Q0963 NOSIG=",
            "ENBO 221950Z 09016KT 9999 SCT057 BKN072 02/M03 Q0963 NOSIG=",
            "ENBO 222020Z 09014KT 9999 -SHSN FEW019 BKN026 02/M03 Q0964 NOSIG=",
            "ENBO 222020Z 09014KT 9999 -SHSN FEW019 BKN026 02/M03 Q0964 NOSIG=",
            "ENBO 222050Z 10011KT 9999 -SHSN VV017 02/M03 Q0964 TEMPO 4000 -SN VV014=",
            "ENBO 222050Z 10011KT 9999 -SHSN VV017 02/M03 Q0964 TEMPO 4000 -SN VV014=",
            "ENBO 222120Z 09008KT 7000 -SN VV010 01/M01 Q0965 TEMPO 4000 -SN VV014=",
            "ENBO 222120Z 09008KT 7000 -SN VV010 01/M01 Q0965 TEMPO 4000 -SN VV008=",
            "ENBO 222150Z 10008KT 6000 -SN VV013 01/M00 Q0966 TEMPO 4000 -SN VV008=",
            "ENBO 222150Z 10008KT 6000 -SN VV013 01/M00 Q0966 TEMPO 4000 -SN VV008=",
            "ENBO 222220Z 10010KT 3500 -SN VV010 01/M00 Q0966=",
            "ENBO 222250Z 10009KT 9999 -SN FEW010 SCT017 00/M00 Q0966=",
            "ENBO 222320Z 10009KT 9999 -SN BKN027 01/00 Q0967=",
            "ENBO 222350Z 09006KT 6000 -SN VV015 01/M00 Q0967=",
            "",
            ""
        ]
    },
    {
        "metar": [
            "ENBO 230020Z 08005KT 5000 -SN VV011 00/M00 Q0968=",
            "ENBO 230050Z 09005KT 7000 -SN FEW010 BKN017 00/00 Q0968=",
            "ENBO 230120Z 07003KT 3600 -SN VV014 00/00 Q0969=",
            "ENBO 230150Z 09003KT 6000 -SN SCT009 BKN014 OVC017 00/00 Q0969=",
            "ENBO 230220Z VRB02KT 5000 -SN SCT006 OVC008 00/00 Q0970=",
            "ENBO 230250Z 36002KT 8000 -SN SCT007 OVC010 00/00 Q0971=",
            "ENBO 230350Z 32007KT 9999 -DZ VV013 01/01 Q0972=",
            "ENBO 230420Z 32009KT 9999 -SNRA SCT007 BKN012 BKN015 01/01 Q0973=",
            "ENBO 230450Z 31008KT 9999 BKN020 01/00 Q0974=",
            "ENBO 230520Z 29009KT 9999 4000N -RASN SCT010 BKN015 01/00 Q0975=",
            "ENBO 230550Z 27010KT 9999 4000NE -RASN FEW005 SCT008 BKN012 01/01 Q0976=",
            "ENBO 230620Z 26011KT 9999 -RASN FEW005 SCT020 BKN030 01/01 Q0977 TEMPO 4000 SHRASN BKN008=",
            "ENBO 230650Z 24014KT 9999 SCT005 BKN010 02/01 Q0978=",
            "ENBO 230720Z 23016KT 9999 FEW007 SCT009 BKN014 02/01 Q0978 TEMPO 4000 SHRASN BKN008=",
            "ENBO 230750Z 24020KT 9999 FEW008 SCT015 BKN025 02/01 Q0979 TEMPO 4000 -SHRASN BKN014=",
            "ENBO 230820Z 24019KT 9999 SCT018 BKN038 03/01 Q0981 TEMPO 4000 -SHRASN BKN014=",
            "ENBO 230850Z 26015KT 9999 FEW013 SCT032 BKN047 03/02 Q0982 TEMPO 4000 -SHRASN BKN014=",
            "ENBO 230920Z 28016KT 9999 FEW013 SCT033 BKN044 04/02 Q0983 TEMPO 4000 -SHRASN BKN014=",
            "ENBO 230950Z 28016KT 9999 FEW010 SCT018 BKN040 04/02 Q0983 TEMPO 4000 SHRASN BKN014=",
            "ENBO 231020Z 28016KT 9999 FEW020 SCT040 04/02 Q0984 TEMPO 4000 SHRASN BKN014=",
            "ENBO 231050Z 29018KT 9999 FEW015 SCT060 04/02 Q0985 TEMPO 4000 SHRASN BKN014=",
            "ENBO 231120Z 29020KT 9999 FEW015 SCT040 BKN050 04/01 Q0985 TEMPO 4000 SHRASN BKN014=",
            "ENBO 231150Z 29015KT 9999 SCT020 04/02 Q0986 TEMPO SHRA BKN014=",
            "ENBO 231220Z 27013KT 9999 FEW015 SCT025 04/02 Q0987 TEMPO SHRA BKN014=",
            "ENBO 231250Z 26011KT 9999 VCSH FEW015 SCT025CB BKN034 04/01 Q0988 TEMPO SHRA BKN014=",
            "ENBO 231320Z 28016KT 9999 VCSH FEW010 SCT020CB BKN030 04/01 Q0988 TEMPO SHRA BKN014=",
            "ENBO 231350Z 29017KT 9999 VCSH FEW007 SCT012 BKN020 03/02 Q0989 TEMPO SHRA BKN014=",
            "ENBO 231420Z 29019KT 9999 -RA FEW010 SCT016 BKN033 03/01 Q0989 TEMPO BKN014=",
            "ENBO 231450Z 31018KT 9999 -RA SCT010 BKN016 02/01 Q0990 TEMPO BKN014=",
            "ENBO 231520Z 29018KT 9999 FEW021 SCT026 BKN039 03/M01 Q0990 TEMPO BKN014=",
            "ENBO 231550Z 29017KT 9999 SCT042 BKN057 04/M02 Q0991 TEMPO FEW020CB=",
            "ENBO 231620Z 28020KT 9999 OVC045 03/M01 Q0991 TEMPO 3000 SHRASN VV010=",
            "ENBO 231650Z 27016KT 9999 VCSH FEW018 SCT034 BKN044 03/M02 Q0992 TEMPO 3000 SHRASN VV010=",
            "ENBO 231720Z 28017KT 9999 FEW013 SCT021 BKN036 02/M01 Q0992 TEMPO 4000 SHRASN VV010=",
            "ENBO 231750Z 28019KT 9999 FEW024 BKN062 02/M01 Q0992 TEMPO 24009KT=",
            "ENBO 231750Z 28019KT 9999 FEW024 BKN062 02/M01 Q0992 TEMPO 24009KT=",
            "ENBO 231820Z 26015KT 9999 FEW040 SCT072 BKN096 02/M01 Q0993 NOSIG=",
            "ENBO 231850Z 27015KT 9999 SCT045 BKN074 02/M02 Q0993 NOSIG=",
            "ENBO 231920Z 28013KT 9999 FEW019 SCT078 02/M01 Q0993 TEMPO 4000 SHRASN VV012=",
            "ENBO 231950Z 29012KT 9999 FEW018 SCT029 02/M00 Q0993 NOSIG=",
            "ENBO 232020Z 28012KT 9999 FEW018 SCT028 02/M01 Q0993 TEMPO 4000 SHRASN VV012=",
            "ENBO 232050Z 28009KT 9999 FEW017 SCT050 02/M02 Q0993 TEMPO 4000 SHRASN VV012=",
            "ENBO 232120Z 27013KT 9999 FEW008 SCT022 BKN053 02/M02 Q0993 NOSIG=",
            "ENBO 232150Z 22008KT 9999 FEW009 SCT014 BKN044 00/M01 Q0993 NOSIG=",
            "ENBO 232220Z 25008KT 9999 FEW038 00/M01 Q0993=",
            "ENBO 232250Z 26007KT CAVOK M00/M02 Q0993=",
            "ENBO 232320Z 25005KT 9999 FEW025 M02/M03 Q0993=",
            "ENBO 232350Z 17006KT 9999 FEW018 00/M01 Q0993=",
            "",
            ""
        ]
    },
    {
        "metar": [
            "ENBO 240020Z 18005KT 9999 FEW031 M01/M03 Q0992=",
            "ENBO 240050Z 12005KT 9999 FEW031 M02/M03 Q0992=",
            "ENBO 240120Z 09006KT CAVOK M02/M03 Q0991=",
            "ENBO 240150Z 09006KT CAVOK M03/M03 Q0991=",
            "ENBO 240220Z 09009KT CAVOK M02/M03 Q0991=",
            "ENBO 240250Z 09013KT CAVOK M01/M02 Q0990=",
            "ENBO 240320Z 09013KT CAVOK M01/M03 Q0990=",
            "ENBO 240350Z 09015KT CAVOK M01/M02 Q0990=",
            "ENBO 240420Z 09016KT CAVOK M01/M03 Q0990=",
            "ENBO 240450Z 08016KT CAVOK M01/M04 Q0990=",
            "ENBO 240520Z 09021KT CAVOK M01/M03 Q0989=",
            "ENBO 240550Z 09023KT CAVOK M01/M04 Q0989=",
            "ENBO 240620Z 09024KT CAVOK M01/M04 Q0989 NOSIG=",
            "ENBO 240650Z 09022KT CAVOK M01/M05 Q0988 NOSIG=",
            "ENBO 240720Z 09024KT CAVOK M00/M06 Q0988 NOSIG=",
            "ENBO 240750Z 09022KT CAVOK M01/M06 Q0988 NOSIG=",
            "ENBO 240820Z 09024KT CAVOK M00/M07 Q0988 NOSIG=",
            "ENBO 240850Z 09025KT CAVOK M01/M06 Q0988 NOSIG=",
            "ENBO 240920Z 09022KT CAVOK M01/M06 Q0988 NOSIG=",
            "ENBO 240950Z 09024KT CAVOK M01/M07 Q0988 NOSIG=",
            "ENBO 241020Z 08021KT CAVOK M00/M07 Q0988 NOSIG=",
            "ENBO 241020Z 08021KT CAVOK M00/M07 Q0988 NOSIG=",
            "ENBO 241050Z 09023KT 9999 NSC M00/M07 Q0989 NOSIG=",
            "ENBO 241120Z 09023KT CAVOK M00/M07 Q0989 NOSIG=",
            "ENBO 241150Z 09023KT CAVOK 00/M06 Q0989 NOSIG=",
            "ENBO 241220Z 09022KT CAVOK 01/M06 Q0989 NOSIG=",
            "ENBO 241250Z 09023KT CAVOK 01/M06 Q0990 NOSIG=",
            "ENBO 241320Z 10021KT CAVOK 01/M06 Q0990 NOSIG=",
            "ENBO 241350Z 11022KT CAVOK 02/M05 Q0991 NOSIG=",
            "ENBO 241420Z 10023KT CAVOK 01/M05 Q0991 NOSIG=",
            "ENBO 241450Z 10023KT CAVOK 01/M05 Q0992 NOSIG=",
            "ENBO 241520Z 09021KT CAVOK 01/M06 Q0992 NOSIG=",
            "ENBO 241550Z 10022KT CAVOK 01/M06 Q0993 NOSIG=",
            "ENBO 241620Z 10022KT CAVOK 01/M06 Q0993 NOSIG=",
            "ENBO 241650Z 10021KT CAVOK 01/M06 Q0993 NOSIG=",
            "ENBO 241720Z 11024KT CAVOK 01/M06 Q0994 =",
            "ENBO 241750Z 10019KT CAVOK 01/M06 Q0994 =",
            "ENBO 241820Z 10021KT CAVOK 01/M06 Q0995 =",
            "ENBO 241850Z 10023KT CAVOK 01/M06 Q0996 =",
            "ENBO 241920Z 09021KT CAVOK 01/M06 Q0996 =",
            "ENBO 241950Z 10021KT CAVOK 01/M06 Q0997 =",
            "ENBO 242020Z 10022KT CAVOK 01/M06 Q0998 =",
            "ENBO 242050Z 10021KT CAVOK 00/M06 Q0998 =",
            "ENBO 242120Z 10019KT CAVOK 01/M06 Q0999 =",
            "ENBO 242120Z 10019KT CAVOK 01/M06 Q0999 NOSIG=",
            "ENBO 242150Z 09018KT CAVOK 00/M06 Q0999 NOSIG=",
            "ENBO 242220Z 09017KT CAVOK M00/M06 Q1000=",
            "ENBO 242250Z 09018KT CAVOK M00/M06 Q1001=",
            "ENBO 242320Z 09017KT CAVOK M00/M06 Q1001=",
            "ENBO 242350Z 09017KT CAVOK 00/M06 Q1002=",
            "",
            ""
        ]
    },
    {
        "metar": [
            "ENBO 250020Z 09017KT CAVOK M00/M06 Q1003=",
            "ENBO 250050Z 10017KT CAVOK M00/M06 Q1003=",
            "ENBO 250120Z 09017KT CAVOK M00/M06 Q1004=",
            "ENBO 250150Z 10014KT CAVOK M00/M07 Q1004=",
            "ENBO 250220Z 10015KT CAVOK M00/M07 Q1005=",
            "ENBO 250250Z 10015KT CAVOK M00/M06 Q1006=",
            "ENBO 250320Z 10014KT CAVOK M01/M07 Q1006=",
            "ENBO 250350Z 10014KT CAVOK M01/M07 Q1007=",
            "ENBO 250420Z 10013KT 9999 FEW024 M01/M06 Q1007=",
            "ENBO 250450Z 10014KT 9999 FEW031 M01/M06 Q1008=",
            "ENBO 250520Z 10014KT 9999 FEW033 M01/M06 Q1008=",
            "ENBO 250550Z 10013KT CAVOK M01/M06 Q1009=",
            "ENBO 250620Z 10014KT CAVOK M01/M06 Q1009 NOSIG=",
            "ENBO 250650Z 10014KT CAVOK M01/M06 Q1010 NOSIG=",
            "ENBO 250720Z 11013KT CAVOK M01/M06 Q1010 NOSIG=",
            "ENBO 250750Z 10013KT 9999 FEW062 M02/M07 Q1011 NOSIG=",
            "ENBO 250820Z 10013KT CAVOK M02/M06 Q1011 NOSIG=",
            "ENBO 250850Z 10014KT CAVOK M02/M06 Q1012 NOSIG=",
            "ENBO 250920Z 10016KT CAVOK M02/M06 Q1012 NOSIG=",
            "ENBO 250950Z 10015KT CAVOK M02/M06 Q1012 NOSIG=",
            "ENBO 251020Z 10016KT CAVOK M02/M06 Q1013 NOSIG=",
            "ENBO 251050Z 10015KT 9999 FEW045 M01/M06 Q1013 NOSIG=",
            "ENBO 251120Z 10016KT 9999 FEW044 M01/M06 Q1013 NOSIG=",
            "ENBO 251150Z 10014KT 9999 SCT042 M01/M06 Q1014 NOSIG=",
            "ENBO 251150Z 10014KT 9999 SCT042 M01/M06 Q1014 NOSIG=",
            "ENBO 251220Z 10015KT CAVOK M01/M06 Q1014 NOSIG=",
            "ENBO 251250Z 10014KT 9999 SCT027 BKN036 M01/M06 Q1014 NOSIG=",
            "ENBO 251250Z 10014KT 9999 SCT027 BKN036 M01/M06 Q1014 NOSIG=",
            "ENBO 251320Z 11013KT 9999 -SN FEW014 SCT019 BKN026 M01/M06 Q1014 NOSIG=",
            "ENBO 251350Z 10012KT 9999 4500N VCSH FEW009 SCT018 BKN045 M01/M06 Q1014 NOSIG=",
            "ENBO 251420Z 10010KT 9999 SCT018 BKN022 M01/M06 Q1014 NOSIG=",
            "ENBO 251450Z 11013KT 9999 FEW013 SCT019 BKN039 M01/M05 Q1015 NOSIG=",
            "ENBO 251520Z 10013KT 9999 VCSH SCT017 BKN028 M01/M05 Q1015 NOSIG=",
            "ENBO 251550Z 10013KT 9999 -SHSN FEW010 SCT020 BKN035 M01/M05 Q1015 NOSIG=",
            "ENBO 251620Z 10013KT 9999 FEW025 BKN040 M01/M05 Q1015 NOSIG=",
            "ENBO 251650Z 10013KT 9999 FEW016 BKN023 M01/M05 Q1015 NOSIG=",
            "ENBO 251720Z 10013KT 9999 SCT020 BKN031 M01/M05 Q1015 NOSIG=",
            "ENBO 251750Z 11013KT 9999 FEW025 BKN040 M01/M05 Q1015 NOSIG=",
            "ENBO 251820Z 10015KT 9999 FEW025 BKN040 M00/M05 Q1015 NOSIG=",
            "ENBO 251850Z 11013KT 9999 BKN039 M01/M05 Q1015 NOSIG=",
            "ENBO 251920Z 10014KT 9999 BKN038 M00/M05 Q1015 NOSIG=",
            "ENBO 251950Z 10014KT 9999 BKN038 M00/M05 Q1015 NOSIG=",
            "ENBO 252020Z 10013KT 9999 BKN038 M00/M05 Q1015 NOSIG=",
            "ENBO 252050Z 10012KT 9999 FEW028 BKN038 M00/M05 Q1014 NOSIG=",
            "ENBO 252120Z 11011KT 9999 BKN030 M00/M05 Q1014 NOSIG=",
            "ENBO 252150Z 10012KT 9999 BKN040 M00/M05 Q1014 NOSIG=",
            "ENBO 252220Z 10011KT 9999 BKN041 00/M05 Q1014=",
            "ENBO 252250Z 10011KT 9999 BKN041 00/M04 Q1013=",
            "ENBO 252320Z 10011KT 9999 SCT042 M01/M05 Q1013=",
            "ENBO 252350Z 10013KT CAVOK M01/M05 Q1012=",
            "",
            ""
        ]
    },
    {
        "metar": [
            "ENBO 260020Z 09011KT CAVOK M01/M05 Q1012=",
            "ENBO 260050Z 09011KT CAVOK M01/M05 Q1011=",
            "ENBO 260120Z 09013KT CAVOK M01/M05 Q1011=",
            "ENBO 260150Z 09015KT 9999 NSC M01/M06 Q1010=",
            "ENBO 260220Z 09018KT 9999 NSC M01/M06 Q1009=",
            "ENBO 260250Z 09020KT 9999 NSC M00/M06 Q1008=",
            "ENBO 260320Z 10019KT 9999 NSC M00/M06 Q1008=",
            "ENBO 260350Z 10019KT 9999 NSC 00/M06 Q1007=",
            "ENBO 260420Z 10021KT CAVOK M00/M06 Q1006=",
            "ENBO 260450Z 10023KT CAVOK 00/M06 Q1005=",
            "ENBO 260520Z 10027KT CAVOK 00/M06 Q1004=",
            "ENBO 260550Z 10027KT CAVOK M00/M06 Q1003=",
            "ENBO 260620Z 10024KT CAVOK M00/M06 Q1002 NOSIG=",
            "ENBO 260650Z 10026KT CAVOK 01/M06 Q1002 NOSIG=",
            "ENBO 260720Z 10027KT CAVOK 01/M05 Q1001 NOSIG=",
            "ENBO 260750Z 10028KT CAVOK 01/M06 Q1000 NOSIG=",
            "ENBO 260820Z 10025G35KT CAVOK 01/M06 Q1000 NOSIG=",
            "ENBO 260820Z 10025G35KT CAVOK 01/M06 Q1000 TEMPO 10020KT=",
            "ENBO 260850Z 11023KT CAVOK 01/M06 Q0999 TEMPO 06015G25KT=",
            "ENBO 260920Z 10026KT CAVOK 01/M06 Q0997 TEMPO 06015G25KT=",
            "ENBO 260950Z 10027KT CAVOK 02/M07 Q0997 TEMPO 06015G25KT=",
            "ENBO 261020Z 10025KT 9999 FEW050 SCT080 BKN130 02/M06 Q0996 TEMPO 06015G25KT=",
            "ENBO 261050Z 10029KT 9999 FEW050 SCT080 BKN120 02/M06 Q0996 TEMPO 06018G28KT=",
            "ENBO 261120Z 10025KT 9999 FEW050 SCT080 BKN110 02/M06 Q0995 TEMPO 06025G35KT=",
            "ENBO 261120Z 10025KT 9999 FEW050 SCT080 BKN110 02/M06 Q0995 TEMPO 06025G35KT=",
            "ENBO 261150Z 10024KT 9999 FEW050 SCT080 BKN110 02/M05 Q0995 TEMPO 06025G35KT=",
            "ENBO 261220Z 10021KT CAVOK 02/M05 Q0994 TEMPO 06020G30KT=",
            "ENBO 261250Z 10019KT CAVOK 02/M05 Q0994 NOSIG=",
            "ENBO 261320Z 10018KT CAVOK 02/M05 Q0993 NOSIG=",
            "ENBO 261350Z 09021KT CAVOK 02/M06 Q0993 NOSIG=",
            "ENBO 261420Z 10019KT CAVOK 02/M05 Q0993 NOSIG=",
            "ENBO 261450Z 09021KT 9999 FEW050 BKN070 02/M05 Q0993=",
            "ENBO 261520Z 10022KT 9999 FEW059 BKN072 02/M04 Q0993 NOSIG=",
            "ENBO 261550Z 10021KT 9999 FEW061 BKN074 01/M04 Q0993 NOSIG=",
            "ENBO 261620Z 10019KT 9999 SCT048 OVC064 01/M04 Q0994 TEMPO 4000 -SNRA VV014=",
            "ENBO 261650Z 10018KT 9999 4500NE -SHSN FEW015 OVC029 00/M03 Q0993 TEMPO 2000 SN VV008=",
            "ENBO 261720Z 09021KT 6000 -SN FEW015 BKN030 M01/M03 Q0994 TEMPO 2000 SN VV008=",
            "ENBO 261750Z 09023KT 9999 -SN FEW008 SCT015 BKN045 M01/M03 Q0993 TEMPO 2000 SN VV008=",
            "ENBO 261820Z 09023KT 8000 -SN VV011 M01/M03 Q0993 TEMPO 2000 SN VV008=",
            "ENBO 261850Z 09022KT 3000 -SN VV007 M02/M03 Q0993 TEMPO 2000 SN VV015=",
            "ENBO 261920Z 10021KT 2000 -SN VV009 M02/M02 Q0993 TEMPO 24020G30KT 8000 -SN VV020=",
            "ENBO 261950Z 10022KT 3000 -SN VV017 M02/M02 Q0993 TEMPO 24020G30KT 9999 BKN008=",
            "ENBO 262020Z 10022KT 3000 -SN VV014 M02/M02 Q0993 TEMPO 24020G30KT 9999 BKN008=",
            "ENBO 262050Z 10022KT 3000 -SN VV012 M01/M02 Q0994 TEMPO 24020G30KT 9999 BKN008=",
            "ENBO 262120Z 10020KT 1100 R07/P2000N R25/P2000N -SN VV011 M01/M01 Q0994 TEMPO 24020G30KT 9999 BKN008=",
            "ENBO 262150Z 12008G24KT 050V170 3700 SCT004 BKN008 BKN013 00/M00 Q0995 TEMPO 24020G30KT 9999 BKN020=",
            "ENBO 262220Z 23017KT 9999 BKN006 OVC014 02/02 Q0995=",
            "ENBO 262250Z 23018G34KT 9999 -DZRA FEW009 SCT018 BKN027 03/02 Q0995=",
            "ENBO 262320Z 24018KT 9999 FEW013 BKN020 OVC031 03/02 Q0996=",
            "ENBO 262350Z 23017KT 9999 FEW016 BKN032 BKN080 04/02 Q0997=",
            "",
            ""
        ]
    },
    {
        "metar": [
            "ENBO 270050Z 25020KT 9999 SCT035 04/M01 Q0997=",
            "ENBO 270120Z 23019KT 9999 BKN035 04/M00 Q0997=",
            "ENBO 270150Z 23019KT 9999 SCT037 BKN040 04/M01 Q0997=",
            "ENBO 270220Z 22018KT 9999 SCT040 04/M01 Q0997=",
            "ENBO 270250Z 22019KT CAVOK 04/M02 Q0997=",
            "ENBO 270350Z 18013KT 9999 SCT045 BKN055 OVC078 04/M04 Q0996=",
            "ENBO 270420Z 17012KT 150V200 9999 -RA FEW019 SCT024 04/M03 Q0996=",
            "ENBO 270450Z 19015KT 9999 -RA VV015 03/M00 Q0995 REDZ=",
            "ENBO 270520Z 19014KT 9999 -RA FEW005 SCT010 BKN016 03/01 Q0995 RERASN=",
            "ENBO 270550Z 19015KT 9999 -RA FEW009 SCT016 OVC023 03/01 Q0995=",
            "ENBO 270620Z 20015KT 9999 BKN025 OVC046 04/02 Q0995 TEMPO 21020G35KT SHRA BKN012=",
            "ENBO 270650Z 22018KT 9000 -RA BKN012 BKN023 03/02 Q0995 TEMPO 21020G35KT SHRA BKN018=",
            "ENBO 270720Z 18008KT 9999 -RA SCT008 BKN021 03/02 Q0995 RESHRA TEMPO 21015G35KT SHRA BKN012=",
            "ENBO 270750Z 12010KT 9999 -RA FEW004 BKN022 OVC028 03/02 Q0994 TEMPO 22018KT TSRA BKN012CB=",
            "ENBO 270820Z 14010KT 090V200 9999 -RA FEW010 FEW015CB BKN023 03/01 Q0994 TEMPO 22018KT TSRA BKN012CB=",
            "ENBO 270850Z 27018KT 5000 -RA FEW004 FEW010CB BKN012 03/02 Q0995 TEMPO TSRA BKN018CB=",
            "ENBO 270920Z 26009KT 9999 VCSH FEW005 FEW015CB BKN018 02/02 Q0995 TEMPO 24020KT TSRA BKN018CB=",
            "ENBO 270950Z 23013KT 9999 VCSH FEW012 FEW015CB BKN030 05/03 Q0994 TEMPO 23022KT SHRA BKN018CB=",
            "ENBO 271020Z 22022KT 9999 -RA FEW012 FEW015CB SCT030 BKN060 06/03 Q0993 TEMPO SHRA BKN012 FEW015CB=",
            "ENBO 271050Z 21021KT 9999 FEW015TCU SCT030 BKN049 06/02 Q0993 TEMPO SHRA BKN012 FEW015CB=",
            "ENBO 271050Z 21021KT 9999 FEW015TCU SCT030 BKN049 06/02 Q0993 TEMPO 12009KT SHRA BKN012 FEW015CB=",
            "ENBO 271120Z VRB03KT 9999 -SHRA FEW018 SCT025 BKN033 04/02 Q0993 TEMPO 23020KT SHRA BKN012 FEW015CB=",
            "ENBO 271150Z 21017G28KT 9999 VCSH FEW020 BKN032 BKN045 06/03 Q0992 TEMPO 23020KT SHRA BKN012=",
            "ENBO 271220Z 17013KT 9999 -RA FEW020 BKN030 06/03 Q0991 TEMPO 22020G30KT SHRA BKN012=",
            "ENBO 271250Z 18015KT 9999 -RA FEW022 OVC030 05/03 Q0990 TEMPO 22018G28KT SHRA BKN012=",
            "ENBO 271320Z 18014KT 9999 -RA FEW021 BKN032 OVC042 06/03 Q0989 TEMPO 22018G28KT SHRA BKN012=",
            "ENBO 271350Z 21026G38KT 170V240 9999 -SHRA FEW015 BKN041 05/02 Q0988=",
            "ENBO 271420Z 21026G38KT 9999 VCSH FEW013 BKN037 07/03 Q0986 TEMPO 22020KT SHRA BKN012=",
            "ENBO 271450Z 21022G32KT 9999 -SHRA FEW022 BKN034 06/03 Q0986 TEMPO 24032G45KT SHRA BKN012 SCT015CB=",
            "ENBO 271520Z 20029G52KT 9999 -SHRA FEW021 BKN032 06/03 Q0985 TEMPO 26025G40KT SHRA BKN012 SCT015CB=",
            "ENBO 271550Z 23040G54KT 9999 -DZRA FEW016 SCT024 BKN034 07/03 Q0986 TEMPO 25030G40KT SHRA BKN012 SCT015CB=",
            "ENBO 271620Z 23035G51KT 8000 -DZRA FEW011 SCT022CB BKN031 06/03 Q0987 TEMPO 25030G40KT 4000 SHRA BKN012 SCT015CB=",
            "ENBO 271650Z 23037G49KT 8000 SHRAGS FEW004 SCT014CB BKN023 05/03 Q0988 TEMPO 25035KT NSW BKN012=",
            "ENBO 271720Z 25037G48KT 9999 -SHRA FEW004 SCT017CB BKN023 04/02 Q0990 TEMPO 24035KT 4000 SHRA BKN012 SCT015CB=",
            "ENBO 271750Z 24041G54KT 8000 SHRAGS FEW006 SCT012CB BKN018 03/02 Q0991 TEMPO 24030G40KT NSW=",
            "ENBO 271820Z 23026KT 9999 FEW009 SCT014 BKN022 03/02 Q0992 TEMPO 24035G50KT 4000 TSRAGS BKN012 SCT015CB=",
            "ENBO 271850Z 25028KT 9999 FEW018 SCT026 BKN038 03/01 Q0993 TEMPO 24030G40KT 4000 TSRAGS BKN012 SCT015CB=",
            "ENBO 271920Z 25032KT 9999 FEW014 SCT021 BKN033 02/01 Q0994=",
            "ENBO 271950Z 24028KT 9999 FEW025 SCT035 BKN046 04/01 Q0994=",
            "ENBO 272020Z 25025KT 9999 FEW023 SCT044 BKN057 04/01 Q0994=",
            "ENBO 272050Z 24031G42KT 9999 FEW018 SCT036 BKN064 04/M00 Q0995=",
            "ENBO 272120Z 24028KT 9999 FEW017 SCT037 BKN061 04/00 Q0995=",
            "ENBO 272150Z 24030KT 9999 SCT036 BKN068 04/00 Q0995=",
            "ENBO 272220Z 23033G43KT 9999 -RA FEW019 SCT037 BKN055 04/01 Q0995=",
            "ENBO 272250Z 24033KT 9999 FEW003 SCT014 BKN022 03/01 Q0996=",
            "ENBO 272320Z 25029KT 9999 FEW013 SCT022 BKN038 03/01 Q0997=",
            "ENBO 272350Z 25028G40KT 9999 FEW023 SCT029 BKN064 03/M00 Q0997=",
            "",
            ""
        ]
    },
    {
        "metar": [
            "ENBO 280020Z 25035KT 9999 FEW022 SCT039 BKN062 03/M01 Q0998=",
            "ENBO 280050Z 25030KT 9999 FEW012 SCT043 03/M01 Q0998=",
            "ENBO 280120Z 25029KT 9999 FEW035 SCT046 BKN068 04/M00 Q0998=",
            "ENBO 280150Z 25028KT 9999 FEW004 SCT035 BKN074 02/00 Q0999=",
            "ENBO 280220Z 25032KT 9999 FEW045 SCT072 BKN092 03/00 Q1000=",
            "ENBO 280250Z 24029KT 9999 FEW043 SCT057 BKN110 03/M00 Q1000=",
            "ENBO 280320Z 25030KT 9999 FEW023 SCT043 04/M00 Q1001=",
            "ENBO 280350Z 26029KT 9999 FEW022 SCT047 05/M01 Q1001=",
            "ENBO 280420Z 26027KT 9999 FEW025 SCT045 05/M01 Q1001=",
            "ENBO 280450Z 26026KT 9999 FEW016 SCT038 BKN051 05/00 Q1002=",
            "ENBO 280520Z 25023KT 9999 FEW016 SCT038 BKN057 04/01 Q1002=",
            "ENBO 280550Z 25022KT 9999 FEW040 04/00 Q1002=",
            "ENBO 280620Z 24017KT 9999 FEW014 BKN034 04/01 Q1002=",
            "ENBO 280650Z 24017KT 9999 FEW010 SCT120 04/01 Q1003=",
            "ENBO 280720Z 23017KT 9999 FEW012 SCT032 BKN086 05/01 Q1003=",
            "ENBO 280750Z 21013KT 9999 FEW032 SCT041 05/01 Q1003 NOSIG=",
            "ENBO 280820Z 22015KT 9999 FEW038 SCT088 05/01 Q1002 NOSIG=",
            "ENBO 280850Z 22016KT 9999 -SHRA FEW018 BKN030 04/01 Q1003 TEMPO 09012KT=",
            "ENBO 280920Z 17011KT 9999 -SHRA FEW012 SCT023 BKN035 04/01 Q1002 TEMPO 09012KT=",
            "ENBO 280950Z 18009KT 9999 VCSH FEW029 BKN038 04/01 Q1002 TEMPO 09012KT=",
            "ENBO 281020Z 17009KT 9999 VCSH FEW018 BKN035 04/00 Q1001 TEMPO 09012KT=",
            "ENBO 281050Z 13006KT 110V160 9999 FEW020 BKN040 04/01 Q1001 TEMPO RA BKN014=",
            "ENBO 281120Z 12008KT 9999 FEW015 SCT027 BKN040 04/00 Q1000 TEMPO 21015KT RA BKN014=",
            "ENBO 281150Z 12008KT 9999 -RA FEW014 SCT026 BKN037 05/01 Q0999 TEMPO 21015KT RA BKN014=",
            "ENBO 281220Z 15010KT 9999 -RA FEW019 SCT022 BKN030 04/01 Q0999 TEMPO 21015KT RA BKN014=",
            "ENBO 281250Z 14010KT 9999 -RA FEW015 SCT022 BKN030 04/02 Q0998 TEMPO 22015KT RA BKN014=",
            "ENBO 281320Z 16009KT 9999 -RA FEW013 SCT020 BKN029 05/02 Q0997 TEMPO 22015KT RA BKN014=",
            "ENBO 281350Z 16011KT 9999 -RA FEW015 SCT020 BKN030 05/03 Q0997 TEMPO 22020G30KT RA BKN014=",
            "ENBO 281420Z 20015KT 170V230 9999 -RA BKN024 05/03 Q0996 TEMPO 22020G30KT RA BKN014=",
            "ENBO 281450Z 22023G33KT 9000 -RA BKN024 OVC032 06/04 Q0996 TEMPO 22023KT RA BKN014=",
            "ENBO 281520Z 22029KT 9000 -RA SCT022 BKN035 06/04 Q0995 TEMPO 22025G35KT RA BKN014=",
            "ENBO 281550Z 22026G37KT 9999 -RA FEW012 SCT020 BKN030 06/04 Q0995 TEMPO 22025KT RA BKN014=",
            "ENBO 281550Z 22026G37KT 9999 -RA FEW012 SCT020 BKN030 06/04 Q0995 TEMPO 22025KT RA BKN014=",
            "ENBO 281620Z 21014KT 9999 -RA SCT022 BKN032 06/04 Q0994 TEMPO 22020G30KT RA BKN014=",
            "ENBO 281650Z 18013KT 9999 -RA FEW012 SCT020 BKN030 06/04 Q0994 TEMPO 22020G30KT RA BKN014=",
            "ENBO 281720Z 19012KT 9999 -RA FEW020 SCT025 BKN032 06/04 Q0993 TEMPO 22020G30KT RA BKN014=",
            "ENBO 281750Z 21017KT 9999 -RA SCT028 BKN039 06/04 Q0993 TEMPO 22020G30KT RA BKN014=",
            "ENBO 281820Z 21021G32KT 9999 -RA SCT032 BKN043 06/03 Q0992 TEMPO 22020KT RA BKN014=",
            "ENBO 281850Z 21019G30KT 9999 -RA BKN031 OVC043 06/03 Q0992 TEMPO 22020KT RA BKN014=",
            "ENBO 281920Z 22027G38KT 9999 -RA OVC030 07/03 Q0991 TEMPO 22018G28KT RA BKN014=",
            "ENBO 281950Z 22028KT 9999 -RA OVC031 08/04 Q0991 TEMPO 22025G35KT RA BKN014=",
            "ENBO 282020Z 22027KT 9999 RA FEW025 BKN033 OVC045 08/04 Q0991=",
            "ENBO 282050Z 21021G36KT 9999 -RA BKN032 OVC043 07/04 Q0990 TEMPO 22025KT RA BKN014=",
            "ENBO 282120Z 21022G34KT 180V230 9999 -RA OVC034 07/04 Q0990 TEMPO 22025KT RA BKN014=",
            "ENBO 282150Z 21020KT 9999 FEW028 BKN043 BKN062 07/04 Q0989 TEMPO 22018G28KT=",
            "ENBO 282220Z 16013KT 140V200 9999 BKN051 08/04 Q0988=",
            "ENBO 282250Z 13012KT 9999 FEW062 07/04 Q0986=",
            "ENBO 282320Z 15010KT 120V190 9999 BKN062 OVC072 09/03 Q0986=",
            "ENBO 282350Z 22035G48KT 9999 SQ OVC061 12/02 Q0984=",
            "",
            ""
        ]
    },
    {
        "metar": [
            "ENBO 290020Z 22035G51KT 9999 BKN057 12/03 Q0984=",
            "ENBO 290050Z 22036G46KT 9999 -DZRA OVC046 10/04 Q0984=",
            "ENBO 290150Z 22035G46KT 9999 DZ SCT033 BKN047 09/04 Q0983=",
            "ENBO 290220Z 22035G45KT 7000 DZRA FEW011 SCT029 BKN040 08/05 Q0983=",
            "ENBO 290250Z 22041G58KT 9999 FEW020 OVC031 09/05 Q0982=",
            "ENBO 290320Z 23041G56KT 9999 +DZRA SQ FEW013 SCT021 BKN032 08/04 Q0983 RERA=",
            "ENBO 290350Z 23040G51KT 9999 -DZRA SQ FEW008 BKN032 BKN043 07/04 Q0984 RERA=",
            "ENBO 290420Z 25036G47KT 3300 -RA FEW004 BKN028 OVC039 05/03 Q0986 RESHRA=",
            "ENBO 290450Z 24032KT 9999 FEW018 SCT032 BKN110 05/03 Q0985 RESHRA=",
            "ENBO 290520Z 23035KT 9999 FEW013 SCT025 BKN061 06/02 Q0985=",
            "ENBO 290550Z 24038KT 9999 SCT015 BKN080 06/01 Q0985=",
            "ENBO 290620Z 23040G50KT 9999 FEW024 SCT046 BKN094 06/M01 Q0985 TEMPO 23045G60KT SHRA=",
            "ENBO 290650Z 23038G50KT 9999 FEW020 SCT074 BKN098 05/M01 Q0986 TEMPO 23045G60KT SHRA=",
            "ENBO 290720Z 23040KT 9999 FEW027 SCT037 BKN072 05/M00 Q0986 TEMPO 23040G50KT SHRA=",
            "ENBO 290750Z 23041G51KT 9999 FEW031 BKN048 05/M01 Q0987=",
            "ENBO 290820Z 23040G54KT 9999 VCSH FEW011 FEW015CB SCT030 BKN040 05/M01 Q0986 TEMPO 23055G65KT SHRA BKN014=",
            "ENBO 290820Z 23040G54KT 9999 VCSH FEW011 FEW015CB SCT030 BKN040 05/M01 Q0986 TEMPO 23055G65KT SHRA BKN014=",
            "ENBO 290850Z 23044G59KT 9999 VCSH FEW015CB SCT040 04/M01 Q0986 TEMPO 23055G69KT SHRA BKN014CB=",
            "ENBO 290920Z 24050G62KT 8000 -SHRA FEW006 SCT015CB BKN025 04/M00 Q0987 TEMPO 23055G72KT TSRAGS BKN014CB=",
            "ENBO 290950Z 24045G64KT 9999 -RA FEW007 SCT034 04/00 Q0987 TEMPO 23055G74KT SHRAGS BKN014CB=",
            "ENBO 291020Z 25062G76KT 7000 -SHRA FEW010 SCT015CB BKN025 04/M02 Q0987=",
            "ENBO 291020Z 25062G76KT 7000 -SHRA FEW010 SCT015CB BKN025 04/M02 Q0987 TEMPO 23050G66KT SHRAGS BKN014CB=",
            "ENBO 291050Z 25048G62KT 8000 -SHRA FEW010 FEW015CB BKN040 04/M01 Q0988 TEMPO 23042G52KT SHRAGS BKN014CB=",
            "ENBO 291120Z 25047G62KT 8000 -RA FEW008 SCT025 04/M00 Q0989 TEMPO 23037G52KT SHRAGS BKN014CB=",
            "ENBO 291150Z 25049G63KT 6000 -DZRA FEW009 04/00 Q0990 TEMPO 23037G52KT SHRAGS BKN014CB=",
            "ENBO 291220Z 26049G60KT 5000 -DZRA FEW006 BKN019 03/01 Q0991 TEMPO 23037G50KT 4000 SHRAGS BKN014CB=",
            "ENBO 291250Z 26040G54KT 5000 -DZRA VV013 02/01 Q0993 TEMPO 4000 SHRAGS BKN016CB=",
            "ENBO 291320Z 25041KT 9999 VCSH FEW004 FEW012CB BKN015 03/01 Q0994 TEMPO 25040G50KT4000 SHRAGS BKN012CB=",
            "ENBO 291350Z 26045KT 4000 SHSNRA VV009 02/01 Q0995 TEMPO 25040G50KT 2000 SHSNRAGS BKN012CB=",
            "ENBO 291420Z 26033G43KT 9999 SHRA FEW005 SCT009 BKN025 03/00 Q0995 TEMPO 25040KT 4000 SHRASNGS BKN012CB=",
            "ENBO 291450Z 25039G50KT 9999 SHRA FEW015 BKN025 04/M01 Q0996 TEMPO 24040KT 4000 SHRASNGS BKN012CB=",
            "ENBO 291520Z 26041G53KT 9999 VCSH FEW015 FEW020CB SCT040 04/M02 Q0997 TEMPO 24040KT 4000 SHRASNGS BKN012CB=",
            "ENBO 291550Z 26043G54KT 9999 VCSH FEW015 FEW020CB SCT035 04/M03 Q0997 TEMPO 4000 SHRASNGS BKN012CB=",
            "ENBO 291620Z 25034G46KT 9999 VCSH FEW015 BKN020 03/M00 Q0998 TEMPO 4000 SHRASNGS BKN012CB=",
            "ENBO 291650Z 26036KT 9999 VCSH FEW019 SCT032 BKN045 05/M02 Q0998=",
            "ENBO 291720Z 25032KT 9999 VCSH SCT028 BKN044 04/M00 Q0998 TEMPO 26022G35KT 4000 SHRASNGS BKN012CB=",
            "ENBO 291750Z 25034G44KT 9999 VCSH FEW013 BKN025 03/01 Q0998 TEMPO 26022G35KT 4000 SHRASNGS BKN012CB=",
            "ENBO 291820Z 25036KT 9999 VCSH FEW013 BKN022 04/02 Q0998=",
            "ENBO 291850Z 25034KT 9999 VCSH FEW016 SCT035 04/01 Q0999 TEMPO 26025G35KT SHRASN BKN012CB=",
            "ENBO 291920Z 25034KT 9999 SCT021 BKN055 04/01 Q0999 TEMPO 26025G35KT SHRASN BKN012CB=",
            "ENBO 291950Z 26033KT 9999 VCSH FEW014 BKN035 04/01 Q1000 TEMPO SHRASN BKN012CB=",
            "ENBO 292020Z 27032KT 9999 FEW018 SCT023 BKN039 05/M01 Q1001 TEMPO SHRASN BKN012CB=",
            "ENBO 292050Z 27036KT 9999 BKN040 05/M02 Q1002 BECMG 25025KT=",
            "ENBO 292120Z 27032KT 9999 FEW040 05/M01 Q1003 BECMG 25022KT=",
            "ENBO 292220Z 27031G41KT 9999 BKN041 OVC066 05/M01 Q1005=",
            "ENBO 292250Z 26030KT 9999 FEW044 BKN140 05/M01 Q1006=",
            "ENBO 292320Z 26029KT 9999 FEW041 BKN055 BKN130 05/M02 Q1006=",
            "ENBO 292350Z 26029G40KT 9999 SCT120 05/M02 Q1007=",
            "",
            ""
        ]
    }
]