[
    {
        "metar": [
            "ENOL 010020Z 12031KT 9999 DRSN NSC M03/M09 Q1007=",
            "ENOL 010050Z 12031KT 9999 DRSN NSC M03/M09 Q1006=",
            "ENOL 010120Z 12032KT 9999 DRSN NSC M03/M09 Q1006=",
            "ENOL 010150Z 12029G39KT 9999 DRSN NSC M03/M09 Q1006=",
            "ENOL 010220Z 12030G44KT 9999 BLSN NSC M03/M10 Q1006=",
            "ENOL 010250Z 12028KT 9999 DRSN NSC M03/M09 Q1007=",
            "ENOL 010320Z 12031KT 9999 DRSN NSC M03/M09 Q1007=",
            "ENOL 010350Z 13028KT 9999 DRSN NSC M03/M09 Q1007=",
            "ENOL 010420Z 12028KT 9999 DRSN NSC M02/M09 Q1007=",
            "ENOL 010450Z 12028G39KT 9999 DRSN NSC M02/M09 Q1007=",
            "ENOL 010520Z 12027G37KT 9999 DRSN NSC M02/M09 Q1007 TEMPO 12037G47KT=",
            "ENOL 010550Z 12029KT 9999 DRSN NSC M02/M09 Q1007 TEMPO 12030G45KT=",
            "ENOL 010620Z 12030KT 9999 DRSN NSC M02/M09 Q1007 TEMPO 12030G45KT=",
            "ENOL 010650Z 12031KT 9999 DRSN NSC M02/M09 Q1007 TEMPO 12031G45KT=",
            "ENOL 010720Z 13035G45KT 9999 DRSN NSC M02/M09 Q1007 TEMPO 12030KT=",
            "ENOL 010750Z 13034G46KT 9999 DRSN NSC M02/M09 Q1007 TEMPO 12030KT=",
            "ENOL 010820Z 12036G48KT 9999 DRSN NSC M02/M09 Q1007 TEMPO 12030KT=",
            "ENOL 010850Z 13036KT 9999 DRSN NSC M02/M09 Q1007 TEMPO 13036G48KT=",
            "ENOL 010920Z 13036G48KT 9999 DRSN NSC M02/M09 Q1008 TEMPO 13035KT=",
            "ENOL 010950Z 13039G49KT 9999 DRSN NSC M02/M10 Q1007 TEMPO BLSN=",
            "ENOL 011020Z 13038G48KT 9999 DRSN NSC M02/M10 Q1007 TEMPO BLSN=",
            "ENOL 011050Z 13037KT 9999 DRSN NSC M02/M10 Q1008 TEMPO 13038G48KT BLSN=",
            "ENOL 011120Z 13038G45KT 9999 DRSN NSC M02/M10 Q1008 TEMPO BLSN=",
            "ENOL 011150Z 13036G49KT 9999 DRSN NSC M02/M10 Q1008 TEMPO BLSN=",
            "ENOL 011220Z 12028KT 9999 DRSN NSC M03/M10 Q1009 TEMPO 13038G50KT BLSN=",
            "ENOL 011250Z 12030KT 9999 DRSN NSC M03/M11 Q1009 TEMPO 13038G50KT BLSN=",
            "ENOL 011320Z 13034G44KT 9999 DRSN NSC M02/M10 Q1008 TEMPO BLSN=",
            "ENOL 011350Z 13034G44KT 9999 DRSN NSC M02/M10 Q1008 TEMPO BLSN=",
            "ENOL 011420Z 13030G41KT 9999 DRSN NSC M02/M10 Q1009 TEMPO BLSN=",
            "ENOL 011450Z 13030G43KT 9999 DRSN NSC M02/M10 Q1008 TEMPO BLSN=",
            "ENOL 011520Z 13032G44KT 9999 DRSN NSC M02/M10 Q1008 TEMPO BLSN=",
            "ENOL 011550Z 13032G42KT 9999 BLSN NSC M02/M09 Q1008 TEMPO DRSN=",
            "ENOL 011620Z 13032G42KT 9999 DRSN NSC M02/M09 Q1007 TEMPO BLSN=",
            "ENOL 011650Z 13033G43KT 9999 DRSN NSC M02/M09 Q1007 TEMPO BLSN=",
            "ENOL 011720Z 13032KT 9999 DRSN NSC M02/M09 Q1008 TEMPO 13038G50KT BLSN=",
            "ENOL 011750Z 13027G38KT 9999 DRSN NSC M02/M10 Q1008 TEMPO 13038G50KT BLSN=",
            "ENOL 011820Z 13027G40KT 9999 DRSN NSC M02/M10 Q1009 TEMPO 13038G50KT BLSN=",
            "ENOL 011850Z 13027G37KT 9999 DRSN NSC M02/M10 Q1008 TEMPO 13038G50KT BLSN=",
            "ENOL 011920Z 13030G42KT 9999 DRSN NSC M03/M10 Q1008 TEMPO BLSN=",
            "ENOL 011950Z 12030KT 9999 DRSN NSC M03/M10 Q1009 TEMPO 13038G50KT BLSN=",
            "ENOL 012020Z 12028KT 9999 DRSN NSC M03/M10 Q1009 TEMPO 13038G50KT BLSN=",
            "ENOL 012050Z 12030KT 9999 DRSN NSC M03/M11 Q1009 TEMPO 13038G50KT BLSN=",
            "ENOL 012120Z 12032KT 9999 DRSN NSC M03/M11 Q1009 TEMPO 13038G50KT BLSN=",
            "ENOL 012150Z 12030KT 9999 DRSN NSC M03/M11 Q1009 TEMPO 13038G50KT BLSN=",
            "ENOL 012220Z 12031KT 9999 DRSN NSC M03/M11 Q1009=",
            "ENOL 012250Z 12031KT 9999 DRSN NSC M03/M11 Q1009=",
            "ENOL 012320Z 12031G42KT 9999 DRSN NSC M03/M11 Q1009=",
            "ENOL 012350Z 12031G41KT 9999 DRSN NSC M04/M11 Q1009=",
            "",
            ""
        ]
    },
    {
        "metar": [
            "ENOL 020020Z 12028KT 9999 DRSN NSC M03/M10 Q1009=",
            "ENOL 020050Z 12024KT 9999 DRSN NSC M04/M11 Q1009=",
            "ENOL 020120Z 13027KT 9999 DRSN NSC M04/M10 Q1009=",
            "ENOL 020150Z 13025G35KT 9999 DRSN NSC M04/M10 Q1008=",
            "ENOL 020220Z 13030G40KT 9999 DRSN NSC M04/M11 Q1008=",
            "ENOL 020250Z 12028KT 9999 DRSN NSC M04/M11 Q1008=",
            "ENOL 020320Z 12027G37KT 9999 DRSN NSC M04/M11 Q1008=",
            "ENOL 020350Z 12038G51KT 9999 DRSN NSC M04/M11 Q1007=",
            "ENOL 020420Z 12036KT 9999 DRSN NSC M05/M12 Q1008=",
            "ENOL 020450Z 11032G42KT 9999 DRSN NSC M05/M11 Q1007=",
            "ENOL 020520Z 12035G45KT 9999 DRSN NSC M05/M12 Q1008 TEMPO 12032KT=",
            "ENOL 020550Z 12037KT 9999 DRSN NSC M05/M12 Q1008 TEMPO 12040G50KT=",
            "ENOL 020620Z 12035G45KT 9999 DRSN NSC M05/M12 Q1008 NOSIG=",
            "ENOL 020650Z 12035G46KT 9999 DRSN NSC M05/M12 Q1007 NOSIG=",
            "ENOL 020720Z 12037G47KT 9999 DRSN NSC M05/M12 Q1007 NOSIG=",
            "ENOL 020750Z 12033G48KT 9999 DRSN NSC M06/M12 Q1007 NOSIG=",
            "ENOL 020820Z 12030G44KT 9999 DRSN NSC M06/M12 Q1008 TEMPO 12040G50KT=",
            "ENOL 020850Z 12032G44KT 9999 DRSN NSC M06/M12 Q1008 TEMPO 12030KT=",
            "ENOL 020920Z 12028KT 9999 DRSN NSC M06/M13 Q1008 TEMPO 12040G50KT=",
            "ENOL 020950Z 12025G38KT 9999 DRSN NSC M06/M13 Q1009 TEMPO 12040G50KT=",
            "ENOL 021020Z 11027G37KT 9999 DRSN NSC M06/M13 Q1009 TEMPO 12040G50KT=",
            "ENOL 021050Z 12023G38KT 9999 DRSN NSC M06/M13 Q1009 TEMPO 13040G50KT=",
            "ENOL 021120Z 13029G40KT 9999 DRSN NSC M06/M14 Q1008 TEMPO 13040G50KT=",
            "ENOL 021150Z 13034G48KT 9999 BLSN NSC M06/M14 Q1007 TEMPO 12030KT=",
            "ENOL 021220Z 13037G52KT 9999 BLSN NSC M07/M14 Q1007 TEMPO 12030KT=",
            "ENOL 021250Z 13031G44KT 9999 DRSN NSC M07/M14 Q1006 TEMPO 12030KT=",
            "ENOL 021320Z 13031KT 9999 DRSN FEW040 M06/M15 Q1007 TEMPO 12040G50KT=",
            "ENOL 021350Z 13028KT 9999 DRSN NSC M06/M14 Q1007 TEMPO 12040G50KT=",
            "ENOL 021420Z 12031G47KT 9999 DRSN NSC M06/M14 Q1007 TEMPO 12030KT=",
            "ENOL 021450Z 12030G42KT 9999 DRSN NSC M06/M14 Q1007 TEMPO 12030KT=",
            "ENOL 021520Z 13030G45KT 9999 DRSN NSC M06/M14 Q1007 TEMPO 12030KT=",
            "ENOL 021550Z 13034G46KT 9999 DRSN NSC M06/M14 Q1006 TEMPO 12030KT=",
            "ENOL 021620Z 13043KT 9999 DRSN NSC M06/M14 Q1006 TEMPO 12030KT=",
            "ENOL 021650Z 13040KT 9999 DRSN NSC M06/M14 Q1006 TEMPO 12040G50KT=",
            "ENOL 021720Z 13035G47KT 9999 DRSN NSC M06/M14 Q1006 TEMPO 12030KT=",
            "ENOL 021750Z 13032G45KT 9999 DRSN NSC M06/M14 Q1006 TEMPO 12030KT=",
            "ENOL 021820Z 13037G47KT 9999 DRSN NSC M06/M14 Q1006 TEMPO 12030KT=",
            "ENOL 021850Z 13036G51KT 9999 DRSN NSC M06/M14 Q1006 TEMPO 12030KT=",
            "ENOL 021920Z 13037G49KT 9999 DRSN NSC M06/M14 Q1005 TEMPO 12030KT=",
            "ENOL 021950Z 13039G51KT 9999 DRSN NSC M06/M13 Q1005 TEMPO 12030KT=",
            "ENOL 022020Z 13039G53KT 9999 BLSN NSC M07/M14 Q1005 TEMPO 12030KT=",
            "ENOL 022050Z 13031G45KT 9999 DRSN NSC M06/M14 Q1007 TEMPO 12030KT=",
            "ENOL 022120Z 13025KT 9999 DRSN NSC M06/M14 Q1007 TEMPO 12040G50KT=",
            "ENOL 022150Z 13025G37KT 9999 DRSN NSC M07/M15 Q1007 TEMPO 12040G50KT=",
            "ENOL 022220Z 13030G41KT 9999 DRSN NSC M07/M15 Q1006=",
            "ENOL 022250Z 13031KT 9999 DRSN NSC M07/M14 Q1006=",
            "ENOL 022320Z 13022KT 9999 DRSN NSC M07/M14 Q1006=",
            "ENOL 022350Z 13026G38KT 9999 DRSN NSC M07/M14 Q1006=",
            "",
            ""
        ]
    },
    {
        "metar": [
            "ENOL 030020Z 13031KT 9999 DRSN NSC M07/M14 Q1005=",
            "ENOL 030050Z 13031KT 9999 DRSN NSC M07/M14 Q1005=",
            "ENOL 030120Z 13033G43KT 9999 DRSN NSC M07/M14 Q1005=",
            "ENOL 030150Z 13036G52KT 9999 BLSN NSC M07/M14 Q1005=",
            "ENOL 030220Z 13036KT 9999 DRSN NSC M07/M14 Q1005=",
            "ENOL 030250Z 13036G48KT 9999 DRSN NSC M07/M15 Q1005=",
            "ENOL 030320Z 13034G47KT 9999 DRSN NSC M07/M14 Q1005=",
            "ENOL 030350Z 13037G47KT 9999 DRSN NSC M07/M15 Q1005=",
            "ENOL 030420Z 13037G49KT 9999 DRSN NSC M07/M15 Q1005=",
            "ENOL 030450Z 13038G49KT 9999 DRSN NSC M07/M15 Q1004=",
            "ENOL 030520Z 13038KT 9999 DRSN NSC M07/M15 Q1004=",
            "ENOL 030550Z 13040G52KT 9999 BLSN NSC M07/M15 Q1004 TEMPO 13035KT=",
            "ENOL 030620Z 13037KT 9999 DRSN NSC M07/M15 Q1004 TEMPO 13040G50KT BLSN=",
            "ENOL 030650Z 13033G44KT 9999 DRSN NSC M08/M15 Q1004 TEMPO 13040G50KT BLSN=",
            "ENOL 030720Z 13035G46KT 9999 BLSN NSC M08/M15 Q1004 TEMPO 13040G50KT DRSN=",
            "ENOL 030750Z 13033G47KT 9999 BLSN NSC M08/M15 Q1004 TEMPO 13035KT DRSN=",
            "ENOL 030820Z 13035G47KT 9999 BLSN NSC M08/M15 Q1004 TEMPO 13035KT DRSN=",
            "ENOL 030850Z 13035G46KT 9999 DRSN NSC M07/M15 Q1004 TEMPO 13035KT BLSN=",
            "ENOL 030920Z 13036G48KT 9999 DRSN NSC M08/M14 Q1003 TEMPO 13035KT BLSN=",
            "ENOL 030950Z 13036KT 9999 BLSN NSC M08/M14 Q1003 TEMPO 13040G50KT DRSN=",
            "ENOL 031020Z 13036G46KT 9999 BLSN NSC M08/M14 Q1003 TEMPO 13035KT DRSN=",
            "ENOL 031050Z 13035G48KT 9999 BLSN NSC M08/M15 Q1002 TEMPO 13035KT DRSN=",
            "ENOL 031120Z 13036G47KT 9999 BLSN NSC M08/M15 Q1003 TEMPO 13035KT DRSN=",
            "ENOL 031150Z 13037G47KT 9999 BLSN NSC M07/M15 Q1003 TEMPO 13035KT DRSN=",
            "ENOL 031220Z 13034G46KT 9999 DRSN NSC M07/M15 Q1003 TEMPO 13035KT BLSN=",
            "ENOL 031250Z 13032G42KT 9999 DRSN NSC M07/M15 Q1003 TEMPO 13030KT BLSN=",
            "ENOL 031320Z 13033G45KT 9999 DRSN NSC M07/M16 Q1003 TEMPO 13030KT BLSN=",
            "ENOL 031350Z 13035KT 9999 DRSN NSC M08/M15 Q1003 TEMPO 13035G50KT BLSN=",
            "ENOL 031420Z 13034G45KT 9999 DRSN NSC M08/M15 Q1003 TEMPO BLSN=",
            "ENOL 031450Z 13028G40KT CAVOK M08/M15 Q1003 TEMPO BLSN=",
            "ENOL 031520Z 13032G45KT CAVOK M08/M15 Q1003 TEMPO BLSN=",
            "ENOL 031550Z 13031KT CAVOK M08/M15 Q1004 TEMPO 13035G50KT BLSN=",
            "ENOL 031620Z 13031G41KT CAVOK M08/M15 Q1004 TEMPO BLSN=",
            "ENOL 031650Z 13033KT 9999 DRSN NSC M08/M15 Q1003 TEMPO 13035G50KT BLSN=",
            "ENOL 031720Z 13032G45KT CAVOK M08/M14 Q1003 TEMPO BLSN=",
            "ENOL 031750Z 13033G44KT CAVOK M08/M15 Q1003 TEMPO BLSN=",
            "ENOL 031820Z 13031G41KT CAVOK M07/M15 Q1003 TEMPO BLSN=",
            "ENOL 031850Z 13032G43KT CAVOK M07/M15 Q1004 TEMPO BLSN=",
            "ENOL 031920Z 13033G44KT CAVOK M07/M15 Q1004 TEMPO BLSN=",
            "ENOL 031950Z 13030KT CAVOK M07/M15 Q1004 TEMPO BLSN=",
            "ENOL 032020Z 13030KT CAVOK M08/M15 Q1004 TEMPO 13040G50KT BLSN=",
            "ENOL 032050Z 13027G37KT CAVOK M07/M15 Q1004 TEMPO 13040G50KT BLSN=",
            "ENOL 032120Z 13030G41KT CAVOK M07/M15 Q1004 TEMPO DRSN=",
            "ENOL 032150Z 13031G41KT CAVOK M07/M15 Q1004 TEMPO DRSN=",
            "ENOL 032220Z 13032G45KT CAVOK M07/M15 Q1004=",
            "ENOL 032250Z 13032G42KT CAVOK M07/M15 Q1004=",
            "ENOL 032320Z 13031KT CAVOK M07/M15 Q1004=",
            "ENOL 032350Z 13033KT CAVOK M07/M15 Q1004=",
            "",
            ""
        ]
    },
    {
        "metar": [
            "ENOL 040020Z 13031G41KT CAVOK M07/M15 Q1004=",
            "ENOL 040050Z 13031G41KT CAVOK M07/M15 Q1004=",
            "ENOL 040120Z 13031G41KT CAVOK M07/M15 Q1004=",
            "ENOL 040150Z 13032KT CAVOK M07/M15 Q1004=",
            "ENOL 040220Z 13030KT CAVOK M07/M15 Q1004=",
            "ENOL 040250Z 13028KT CAVOK M07/M15 Q1004=",
            "ENOL 040320Z 13026KT CAVOK M07/M15 Q1004=",
            "ENOL 040350Z 13030KT CAVOK M07/M15 Q1004=",
            "ENOL 040420Z 13028KT CAVOK M07/M15 Q1004=",
            "ENOL 040450Z 13030KT CAVOK M07/M15 Q1004=",
            "ENOL 040520Z 13027KT CAVOK M07/M15 Q1004 TEMPO 13028G38KT=",
            "ENOL 040550Z 13025KT CAVOK M07/M15 Q1004 TEMPO 13028G38KT=",
            "ENOL 040620Z 13024KT CAVOK M07/M15 Q1005 TEMPO 13028G38KT=",
            "ENOL 040650Z 13025KT CAVOK M07/M15 Q1006 TEMPO 13028G38KT=",
            "ENOL 040720Z 13023KT CAVOK M07/M15 Q1006 NOSIG=",
            "ENOL 040750Z 13023KT CAVOK M07/M15 Q1006 NOSIG=",
            "ENOL 040820Z 13024KT CAVOK M07/M15 Q1006 NOSIG=",
            "ENOL 040850Z 13023KT CAVOK M07/M16 Q1007 NOSIG=",
            "ENOL 040920Z 13023KT CAVOK M07/M15 Q1007 NOSIG=",
            "ENOL 040950Z 13024KT CAVOK M07/M15 Q1007 NOSIG=",
            "ENOL 041020Z 13023KT CAVOK M07/M15 Q1007 NOSIG=",
            "ENOL 041050Z 13022KT CAVOK M07/M15 Q1007 NOSIG=",
            "ENOL 041120Z 13026KT CAVOK M07/M14 Q1007 NOSIG=",
            "ENOL 041150Z 13023KT CAVOK M06/M14 Q1007 NOSIG=",
            "ENOL 041220Z 12021KT CAVOK M07/M14 Q1007 NOSIG=",
            "ENOL 041250Z 13023KT CAVOK M06/M14 Q1007 NOSIG=",
            "ENOL 041320Z 12020KT 9999 BKN040 M07/M14 Q1008 NOSIG=",
            "ENOL 041350Z 12020KT 9999 BKN040 M07/M14 Q1008 NOSIG=",
            "ENOL 041420Z 12020KT 9999 BKN040 M07/M14 Q1008 NOSIG=",
            "ENOL 041450Z 13019KT 9999 BKN038 M07/M14 Q1008 NOSIG=",
            "ENOL 041520Z 12019KT 9999 BKN038 M07/M14 Q1008 NOSIG=",
            "ENOL 041550Z 13020KT 9999 BKN036 M07/M14 Q1008 NOSIG=",
            "ENOL 041620Z 13020KT 9999 BKN035 M07/M13 Q1008 NOSIG=",
            "ENOL 041650Z 13021KT 9999 BKN035 M07/M13 Q1008 NOSIG=",
            "ENOL 041720Z 13019KT 9999 BKN035 M07/M13 Q1009 NOSIG=",
            "ENOL 041750Z 13020KT 9999 BKN037 M07/M13 Q1009 NOSIG=",
            "ENOL 041820Z 13023KT 9999 SCT037 BKN068 M07/M14 Q1009 NOSIG=",
            "ENOL 041850Z 13022KT 9999 FEW037 BKN068 M07/M13 Q1009 NOSIG=",
            "ENOL 041920Z 13020KT CAVOK M07/M13 Q1009 NOSIG=",
            "ENOL 041950Z 13022KT 9999 FEW040 BKN068 M07/M13 Q1009 NOSIG=",
            "ENOL 042020Z 13021KT 9999 FEW040 SCT060 M08/M14 Q1010 NOSIG=",
            "ENOL 042050Z 13021KT 9999 FEW040 SCT070 M08/M14 Q1009 NOSIG=",
            "ENOL 042120Z 13022KT 9999 FEW040 SCT070 M08/M14 Q1010 NOSIG=",
            "ENOL 042150Z 13021KT 9999 FEW040 BKN065 M08/M14 Q1010 NOSIG=",
            "ENOL 042220Z 13020KT 9999 SCT040 BKN060 M08/M13 Q1010=",
            "ENOL 042250Z 13022KT 9999 FEW030 BKN060 M08/M13 Q1010=",
            "ENOL 042320Z 13022KT 9999 FEW030 BKN060 M08/M13 Q1010=",
            "ENOL 042350Z 13021KT CAVOK M08/M13 Q1010=",
            "",
            ""
        ]
    },
    {
        "metar": [
            "ENOL 050020Z 13022KT CAVOK M08/M13 Q1010=",
            "ENOL 050050Z 13021KT CAVOK M08/M12 Q1010=",
            "ENOL 050120Z 13022KT CAVOK M08/M13 Q1010=",
            "ENOL 050150Z 13020KT CAVOK M08/M13 Q1010=",
            "ENOL 050220Z 13020KT CAVOK M08/M12 Q1010=",
            "ENOL 050250Z 13019KT CAVOK M08/M12 Q1010=",
            "ENOL 050320Z 12017KT CAVOK M08/M12 Q1010=",
            "ENOL 050350Z 13019KT CAVOK M08/M12 Q1009=",
            "ENOL 050420Z 13018KT CAVOK M08/M12 Q1010=",
            "ENOL 050450Z 13018KT CAVOK M07/M12 Q1010=",
            "ENOL 050520Z 13017KT CAVOK M07/M11 Q1010 NOSIG=",
            "ENOL 050550Z 12017KT CAVOK M07/M11 Q1009 NOSIG=",
            "ENOL 050620Z 12017KT CAVOK M07/M12 Q1010 NOSIG=",
            "ENOL 050650Z 12017KT 9999 FEW020 BKN060 M07/M11 Q1010 NOSIG=",
            "ENOL 050650Z 12017KT 9999 FEW020 BKN060 M07/M11 Q1010 NOSIG=",
            "ENOL 050720Z 13016KT 9999 FEW020 BKN060 M06/M10 Q1010 NOSIG=",
            "ENOL 050750Z 13018KT 9999 FEW020 BKN060 M06/M10 Q1010 NOSIG=",
            "ENOL 050820Z 13018KT 9999 FEW020 BKN055 M06/M09 Q1010 NOSIG=",
            "ENOL 050850Z 13018KT 9999 SCT025 BKN060 M06/M09 Q1010 TEMPO 4000 -SHSN VV012=",
            "ENOL 050920Z 13018KT 9999 SCT019 BKN055 M06/M10 Q1010 TEMPO 4000 -SHSN VV012=",
            "ENOL 050950Z 13017KT 9999 BKN020 M05/M09 Q1010 TEMPO 4000 -SHSN VV012=",
            "ENOL 051020Z 13015KT 9999 FEW009 SCT018 BKN024 M05/M08 Q1010 TEMPO 4000 -SHSN VV012=",
            "ENOL 051050Z 13015KT 2000 SN VV007 M05/M07 Q1010 TEMPO 9999 BKN020=",
            "ENOL 051120Z 13014KT 9999 VCSH BKN017 M05/M07 Q1010 TEMPO 24012KT 2000 SHSN VV008=",
            "ENOL 051150Z 13014KT 9999 VCSH FEW010 BKN016 M05/M07 Q1011 TEMPO 24012KT 2000 SHSN VV008=",
            "ENOL 051220Z 13013KT 9999 VCSH FEW010 BKN016 M05/M06 Q1011 TEMPO 24012KT 2000 SHSN VV008=",
            "ENOL 051250Z 12011KT 2000 SHSN VV013 M04/M06 Q1011 TEMPO BKN020=",
            "ENOL 051250Z 12011KT 2000 SHSN VV013 M04/M06 Q1011 TEMPO BKN020=",
            "ENOL 051320Z 13012KT 2000 SHSN VV014 M04/M05 Q1011 TEMPO BKN020=",
            "ENOL 051330Z 13012KT 2000 SHSN VV014 M04/M05 Q1011 TEMPO BKN020=",
            "ENOL 051350Z 13012KT 2000 SHSN VV014 M04/M05 Q1011 TEMPO BKN020=",
            "ENOL 051420Z 13012KT 1200 SHSN VV016 M04/M05 Q1011 TEMPO BKN020=",
            "ENOL 051450Z 13010KT 4000 -SHSN VV016 M04/M05 Q1011 TEMPO BKN020=",
            "ENOL 051520Z 13010KT 9999 SCT007 BKN016 M03/M04 Q1011 TEMPO 0800 SHSN VV006=",
            "ENOL 051550Z 13011KT 9999 FEW007 SCT014 BKN020 M03/M04 Q1011 TEMPO 25012KT 0800 SHSN VV006=",
            "ENOL 051620Z 13013KT 9999 FEW008 SCT014 BKN020 M04/M05 Q1012 TEMPO 25012KT 0800 SHSN VV006=",
            "ENOL 051650Z 13012KT 9999 SCT008 BKN014 M03/M05 Q1012 TEMPO 25012KT 0800 SHSN VV006=",
            "ENOL 051720Z 13012KT 9999 SCT008 BKN014 M03/M04 Q1012 TEMPO BKN020=",
            "ENOL 051750Z 13012KT 9999 SCT008 BKN014 M03/M04 Q1012 TEMPO BKN020=",
            "ENOL 051820Z 13014KT 9999 SCT008 BKN014 M03/M04 Q1012 TEMPO BKN020=",
            "ENOL 051850Z 13014KT 9999 SCT008 BKN014 M03/M04 Q1013 TEMPO BKN020=",
            "ENOL 051920Z 13012KT 9999 -SN SCT008 BKN014 M03/M04 Q1013 TEMPO BKN020=",
            "ENOL 051950Z 13012KT 9999 -SN SCT008 BKN014 M03/M04 Q1013 TEMPO BKN020=",
            "ENOL 052020Z 14012KT 9999 SCT008 BKN014 M03/M04 Q1014 TEMPO BKN020=",
            "ENOL 052050Z 13011KT 9999 SCT008 BKN014 M03/M04 Q1014 TEMPO BKN020=",
            "ENOL 052120Z 13011KT 9999 SCT008 BKN014 M03/M04 Q1014 NOSIG=",
            "ENOL 052150Z 13012KT 9999 SCT008 BKN012 M02/M04 Q1014 NOSIG=",
            "ENOL 052220Z 13014KT 9999 SCT012 BKN020 M02/M04 Q1014=",
            "ENOL 052250Z 13014KT 9999 SCT012 BKN020 M02/M04 Q1014=",
            "ENOL 052320Z 13014KT 9999 BKN015 M02/M04 Q1015=",
            "ENOL 052350Z 13013KT 9999 BKN015 M02/M04 Q1015=",
            "",
            ""
        ]
    },
    {
        "metar": [
            "ENOL 060020Z 12011KT 9999 BKN015 M02/M04 Q1015=",
            "ENOL 060050Z 12011KT 9999 SCT014 BKN020 M02/M04 Q1015=",
            "ENOL 060120Z 13013KT 9999 SCT014 BKN020 M02/M04 Q1016=",
            "ENOL 060150Z 13014KT 9999 SCT014 BKN020 M02/M03 Q1016=",
            "ENOL 060220Z 13012KT 9999 SCT015 BKN025 M02/M03 Q1016=",
            "ENOL 060250Z 13013KT 9999 SCT015 BKN025 M02/M03 Q1016=",
            "ENOL 060320Z 13013KT 9999 FEW015 BKN025 M02/M03 Q1016=",
            "ENOL 060350Z 14015KT 9999 BKN025 M02/M03 Q1016=",
            "ENOL 060420Z 14014KT 9999 BKN025 M02/M03 Q1016=",
            "ENOL 060450Z 14011KT 9999 BKN025 M02/M03 Q1017=",
            "ENOL 060520Z 14012KT 9999 BKN023 M02/M03 Q1017 NOSIG=",
            "ENOL 060550Z 13013KT 9999 BKN022 M02/M03 Q1017 NOSIG=",
            "ENOL 060620Z 13013KT 9999 FEW020 M02/M04 Q1017 NOSIG=",
            "ENOL 060650Z 13013KT 9999 FEW020 M02/M04 Q1018 NOSIG=",
            "ENOL 060720Z 13013KT 9999 FEW020 M02/M04 Q1018 NOSIG=",
            "ENOL 060750Z 13011KT 9999 FEW020 M02/M04 Q1019 NOSIG=",
            "ENOL 060820Z 13014KT 9999 FEW020 M02/M04 Q1019 NOSIG=",
            "ENOL 060850Z 13015KT 9999 FEW020 M02/M04 Q1019 NOSIG=",
            "ENOL 060920Z 13014KT 9999 FEW020 M02/M04 Q1020 NOSIG=",
            "ENOL 060950Z 13015KT 9999 FEW020 M02/M04 Q1020 NOSIG=",
            "ENOL 061020Z 13013KT 9999 FEW015 M02/M04 Q1020 NOSIG=",
            "ENOL 061050Z 13015KT 9999 FEW015 M02/M05 Q1020 NOSIG=",
            "ENOL 061120Z 13013KT 9999 FEW015 M02/M05 Q1021 NOSIG=",
            "ENOL 061150Z 13014KT 9999 FEW025 M02/M05 Q1021 NOSIG=",
            "ENOL 061220Z 13014KT 9999 FEW020 M02/M05 Q1021 NOSIG=",
            "ENOL 061220Z 13014KT 9999 FEW020 M02/M05 Q1021 NOSIG=",
            "ENOL 061250Z 13013KT 9999 FEW020 M03/M05 Q1021 NOSIG=",
            "ENOL 061320Z 13013KT 9999 FEW020 M03/M05 Q1021 NOSIG=",
            "ENOL 061350Z 12013KT 9999 FEW020 M03/M05 Q1021 NOSIG=",
            "ENOL 061420Z 12015KT 9999 FEW015 M03/M05 Q1022 NOSIG=",
            "ENOL 061450Z 13014KT 9999 FEW015 M03/M06 Q1022 NOSIG=",
            "ENOL 061520Z 12013KT 9999 FEW020 M03/M05 Q1022 NOSIG=",
            "ENOL 061550Z 13014KT 9999 FEW020 M03/M05 Q1022 NOSIG=",
            "ENOL 061620Z 13015KT 9999 FEW020 M03/M05 Q1023 NOSIG=",
            "ENOL 061650Z 13014KT 9999 FEW020 M03/M06 Q1023 NOSIG=",
            "ENOL 061720Z 13015KT 9999 FEW020 M03/M05 Q1023 NOSIG=",
            "ENOL 061750Z 12015KT CAVOK M03/M05 Q1023 NOSIG=",
            "ENOL 061820Z 12013KT CAVOK M03/M06 Q1023 NOSIG=",
            "ENOL 061850Z 12011KT CAVOK M04/M06 Q1024 NOSIG=",
            "ENOL 061920Z 13013KT CAVOK M04/M06 Q1024 NOSIG=",
            "ENOL 061950Z 12011KT CAVOK M04/M06 Q1024 NOSIG=",
            "ENOL 062020Z 13014KT CAVOK M04/M06 Q1024 NOSIG=",
            "ENOL 062050Z 12012KT 9999 BKN040 M04/M06 Q1024 NOSIG=",
            "ENOL 062120Z 13016KT 9999 SCT040 M04/M06 Q1024 NOSIG=",
            "ENOL 062150Z 13014KT 9999 FEW040 M04/M06 Q1024 NOSIG=",
            "ENOL 062220Z 12014KT 9999 FEW030 M04/M06 Q1025=",
            "ENOL 062250Z 12014KT 9999 FEW035 M04/M06 Q1025=",
            "ENOL 062320Z 12012KT 9999 FEW035 M04/M06 Q1025=",
            "ENOL 062350Z 12013KT 9999 FEW035 M04/M06 Q1026=",
            "",
            ""
        ]
    },
    {
        "metar": [
            "ENOL 070020Z 13011KT 9999 FEW035 M04/M06 Q1026=",
            "ENOL 070050Z 13013KT 9999 FEW035 M05/M06 Q1026=",
            "ENOL 070120Z 13014KT 9999 FEW035 M05/M07 Q1026=",
            "ENOL 070150Z 13014KT 9999 FEW035 M05/M06 Q1026=",
            "ENOL 070220Z 13012KT 9999 FEW035 M05/M06 Q1027=",
            "ENOL 070250Z 13014KT 9999 FEW035 M05/M06 Q1027=",
            "ENOL 070320Z 13016KT 9999 FEW035 M05/M06 Q1027=",
            "ENOL 070350Z 13014KT 9999 FEW035 M05/M07 Q1027=",
            "ENOL 070420Z 13013KT 9999 FEW030 M05/M07 Q1027=",
            "ENOL 070450Z 13015KT 9999 FEW030 M05/M08 Q1027=",
            "ENOL 070520Z 12011KT 9999 FEW030 M05/M07 Q1027 NOSIG=",
            "ENOL 070550Z 13013KT 9999 FEW030 M05/M07 Q1027 NOSIG=",
            "ENOL 070620Z 12012KT 9999 FEW020 M05/M07 Q1027 NOSIG=",
            "ENOL 070650Z 12012KT 9999 FEW020 M05/M07 Q1028 NOSIG=",
            "ENOL 070720Z 12013KT 9999 FEW020 M05/M07 Q1028 NOSIG=",
            "ENOL 070750Z 12012KT 9999 FEW020 M05/M07 Q1028 NOSIG=",
            "ENOL 070820Z 12012KT 9999 FEW020 M05/M07 Q1029 NOSIG=",
            "ENOL 070850Z 13013KT 9999 FEW018 M05/M07 Q1029 NOSIG=",
            "ENOL 070920Z 13013KT 9999 FEW018 M05/M07 Q1029 NOSIG=",
            "ENOL 070950Z 12013KT 9999 FEW018 M05/M07 Q1029 NOSIG=",
            "ENOL 071020Z 12012KT 9999 FEW018 M05/M07 Q1030 NOSIG=",
            "ENOL 071050Z 12012KT 9999 FEW018 M05/M07 Q1030 NOSIG=",
            "ENOL 071120Z 12011KT 9999 FEW018 M05/M08 Q1030 NOSIG=",
            "ENOL 071150Z 13011KT CAVOK M04/M07 Q1030 NOSIG=",
            "ENOL 071220Z 12012KT CAVOK M05/M07 Q1030 BECMG 24015KT=",
            "ENOL 071250Z 12012KT CAVOK M05/M08 Q1030 BECMG 24015KT=",
            "ENOL 071320Z 12012KT 9999 SCT030 M04/M07 Q1030 BECMG 24015KT=",
            "ENOL 071350Z 12012KT 9999 SCT030 M04/M07 Q1030 BECMG 24015KT=",
            "ENOL 071420Z 13014KT 9999 FEW030 SCT057 M04/M07 Q1031 BECMG 24015KT=",
            "ENOL 071450Z 12009KT CAVOK M04/M07 Q1031 BECMG 24015KT=",
            "ENOL 071520Z 12010KT CAVOK M04/M06 Q1031 BECMG 24015KT=",
            "ENOL 071550Z 12010KT 9999 SCT030 BKN051 M03/M05 Q1031 BECMG 24015KT=",
            "ENOL 071620Z 13011KT 9999 BKN026 M03/M06 Q1031 BECMG 24015KT=",
            "ENOL 071650Z 13010KT 9999 BKN026 M02/M05 Q1031 BECMG 24015KT=",
            "ENOL 071720Z 12006KT 9999 BKN024 M02/M04 Q1032 BECMG 24015KT=",
            "ENOL 071750Z 12007KT 9999 OVC025 M01/M04 Q1032 BECMG 24020KT=",
            "ENOL 071820Z 24014KT 9999 VCSH OVC023 M00/M03 Q1032 TEMPO BKN014=",
            "ENOL 071820Z 24014KT 9999 VCSH OVC023 M00/M03 Q1032 TEMPO BKN014=",
            "ENOL 071850Z 25015KT 9999 OVC023 02/M01 Q1032 TEMPO BKN014=",
            "ENOL 071920Z 23019KT 9999 BKN018 02/M01 Q1032 TEMPO BKN014=",
            "ENOL 071950Z 23020KT 9999 SCT018 BKN044 02/M01 Q1032 TEMPO BKN014=",
            "ENOL 072020Z 23022KT 9999 SCT021 BKN040 02/M00 Q1032 TEMPO BKN014=",
            "ENOL 072050Z 24022KT 9999 SCT018 BKN027 02/M00 Q1032 TEMPO BKN014=",
            "ENOL 072120Z 24021KT 9999 BKN018 02/M00 Q1032 TEMPO BKN014=",
            "ENOL 072150Z 24020KT 9999 BKN017 02/00 Q1032 TEMPO BKN014=",
            "ENOL 072220Z 25022G32KT 9999 SCT016 BKN030 03/00 Q1033=",
            "ENOL 072250Z 25024KT 9999 -RADZ FEW015 SCT020 BKN035 03/00 Q1033=",
            "ENOL 072320Z 25023KT 9999 FEW014 BKN026 02/01 Q1033=",
            "ENOL 072350Z 25024KT 9999 -RA SCT012 BKN016 02/01 Q1033=",
            "",
            ""
        ]
    },
    {
        "metar": [
            "ENOL 080020Z 25023KT 9999 BKN012 02/01 Q1033=",
            "ENOL 080050Z 24022KT 7000 -RADZ OVC009 02/02 Q1033=",
            "ENOL 080120Z 24022KT 7000 -RADZ BKN008 02/02 Q1033=",
            "ENOL 080150Z 24018KT 3500 RA SCT004 BKN008 02/02 Q1034=",
            "ENOL 080220Z 24020KT 9999 SCT006 BKN016 03/02 Q1034 RERA=",
            "ENOL 080250Z 24018KT 8000 -RA BKN007 02/02 Q1034 RERA=",
            "ENOL 080320Z 24018KT 4000 -RADZ SCT005 BKN010 03/02 Q1034=",
            "ENOL 080350Z 24017KT 7000 -RA SCT005 BKN009 03/02 Q1034 RERA=",
            "ENOL 080420Z 24018KT 9999 SCT005 BKN009 03/02 Q1034=",
            "ENOL 080450Z 25017KT 7000 -RA SCT004 BKN007 03/02 Q1034=",
            "ENOL 080520Z 24016KT 9999 FEW003 SCT006 BKN010 03/02 Q1034 TEMPO 3000 RADZ BR=",
            "ENOL 080550Z 24018KT 9999 FEW003 BKN007 03/02 Q1035 TEMPO 3000 RADZ BR=",
            "ENOL 080620Z 25018KT 9999 FEW003 BKN007 02/02 Q1034 TEMPO 3000 RADZ BR=",
            "ENOL 080650Z 24020KT 5000 -RADZ FEW005 BKN007 02/02 Q1034 TEMPO 3000 RADZ BR=",
            "ENOL 080650Z 24020KT 5000 -RADZ FEW005 BKN007 02/02 Q1034 TEMPO 3000 RADZ BR=",
            "ENOL 080720Z 25018KT 5000 -RADZ FEW003 BKN007 03/02 Q1035 TEMPO 3000 RADZ BR=",
            "ENOL 080750Z 25017KT 9999 FEW003 BKN007 03/02 Q1035 TEMPO 3000 RADZ BR=",
            "ENOL 080820Z 25016KT 9999 SCT006 BKN026 03/02 Q1035 TEMPO BKN007=",
            "ENOL 080850Z 24017KT 9999 -RADZ FEW006 BKN022 03/02 Q1035 NOSIG=",
            "ENOL 080920Z 25016KT 9999 -RADZ SCT010 BKN015 03/02 Q1036 NOSIG=",
            "ENOL 080950Z 25012KT 9999 SCT009 BKN014 03/02 Q1036 TEMPO BKN020=",
            "ENOL 081020Z 27012KT 9999 SCT010 BKN020 03/02 Q1036 TEMPO BKN014=",
            "ENOL 081050Z 24014KT 9999 VCSH FEW012 SCT025 BKN034 03/02 Q1036 TEMPO BKN014=",
            "ENOL 081050Z 24014KT 9999 VCSH FEW012 SCT025 BKN034 03/02 Q1036 TEMPO BKN014=",
            "ENOL 081120Z 25012KT 9999 VCSH FEW010 SCT020 BKN030 03/02 Q1035 NOSIG=",
            "ENOL 081150Z 25013KT 9999 -RADZ SCT008 BKN012 03/02 Q1035 TEMPO BKN020=",
            "ENOL 081220Z 24013KT 9999 SCT010 BKN015 03/02 Q1036 TEMPO BKN012=",
            "ENOL 081250Z 24014KT 9999 SCT014 BKN020 03/02 Q1035 TEMPO BKN012=",
            "ENOL 081320Z 25012KT 9999 VCSH SCT010 BKN020 03/02 Q1036 TEMPO BKN012=",
            "ENOL 081350Z 23014KT 9999 4000SE -RADZ BKN012 03/02 Q1036 TEMPO BKN020=",
            "ENOL 081420Z 23014KT 9999 FEW008 SCT012 BKN023 03/02 Q1035 TEMPO BKN012=",
            "ENOL 081450Z 23015KT 9999 FEW008 SCT012 BKN023 03/02 Q1036 TEMPO BKN012=",
            "ENOL 081520Z 24015KT 9999 FEW008 SCT012 BKN018 03/03 Q1035 TEMPO BKN012=",
            "ENOL 081550Z 24013KT 9999 -DZ FEW007 SCT010 BKN015 03/03 Q1035 TEMPO 4000 -DZRA BKN010=",
            "ENOL 081620Z 24012KT 9999 -DZ FEW007 BKN010 03/03 Q1035 TEMPO 4000 DZ=",
            "ENOL 081650Z 25016KT 7000 4000S -DZ SCT008 BKN010 04/03 Q1035 TEMPO 4000 DZ=",
            "ENOL 081720Z 25015KT 8000 4000S -DZ SCT008 BKN010 04/03 Q1035 TEMPO 4000 DZ=",
            "ENOL 081750Z 25017KT 4000 2000S -DZ SCT007 OVC010 03/03 Q1035 TEMPO 2000 DZRA BKN007=",
            "ENOL 081820Z 24017KT 4000 -DZ FEW007 SCT010 OVC012 03/03 Q1035 TEMPO 2000 DZRA BKN007=",
            "ENOL 081850Z 25017KT 3500 -DZ SCT007 OVC010 03/03 Q1035 TEMPO 2000 DZRA BKN007=",
            "ENOL 081920Z 25017KT 8000 VCSH SCT007 OVC010 03/03 Q1035 TEMPO 2000 DZRA BKN007=",
            "ENOL 081950Z 25017KT 2500 -RADZ BKN007 03/03 Q1035 TEMPO 8000 SCT010 BKN015=",
            "ENOL 082020Z 24016KT 4000 2500S -DZ SCT007 BKN010 03/03 Q1035 TEMPO 2000 DZRA BKN007=",
            "ENOL 082050Z 24013KT 8000 -DZ SCT007 OVC010 03/03 Q1035 TEMPO 2000 DZRA BKN007=",
            "ENOL 082120Z 24013KT 9999 FEW007 SCT010 BKN020 03/03 Q1035 TEMPO 2000 DZRA BKN007=",
            "ENOL 082150Z 24014KT 9999 FEW007 SCT010 BKN020 04/03 Q1035 TEMPO 2000 DZRA BKN007=",
            "ENOL 082220Z 24014KT 9999 FEW024 BKN031 04/03 Q1035=",
            "ENOL 082250Z 25013KT 9999 FEW024 BKN047 04/03 Q1035=",
            "ENOL 082320Z 26017KT 9999 SCT029 BKN036 04/03 Q1035=",
            "ENOL 082350Z 25017KT 9999 SCT025 BKN031 04/02 Q1035=",
            "",
            ""
        ]
    },
    {
        "metar": [
            "ENOL 090020Z 25014KT 9999 SCT020 BKN033 04/03 Q1035=",
            "ENOL 090050Z 25019KT 8000 -RADZ FEW007 BKN011 04/03 Q1035=",
            "ENOL 090120Z 24017KT 9999 -DZ SCT007 BKN012 04/03 Q1035=",
            "ENOL 090150Z 24017KT 9999 -DZ SCT007 BKN012 04/03 Q1035=",
            "ENOL 090220Z 24018KT 7000 -DZ SCT007 BKN012 04/03 Q1035=",
            "ENOL 090250Z 24019KT 9999 SCT006 BKN012 04/04 Q1035=",
            "ENOL 090320Z 24019KT 3000 DZ VV011 04/04 Q1035=",
            "ENOL 090350Z 24020KT 5000 -DZ SCT006 BKN012 04/04 Q1034=",
            "ENOL 090420Z 25020KT 4000 -DZ BKN006 04/04 Q1034=",
            "ENOL 090450Z 25020KT 7000 -DZ FEW003 BKN006 04/04 Q1034=",
            "ENOL 090520Z 25019KT 6000 -DZ VV007 04/04 Q1034 TEMPO 3000 DZRA BKN007=",
            "ENOL 090550Z 25019KT 5000 -DZ VV009 04/04 Q1034 TEMPO 3000 DZRA BKN007=",
            "ENOL 090620Z 25017KT 6000 -DZ SCT004 BKN007 04/04 Q1034 TEMPO 3000 DZRA=",
            "ENOL 090650Z 25016KT 7000 -DZRA SCT005 BKN007 04/04 Q1034 TEMPO 3000 DZRA=",
            "ENOL 090720Z 25013KT 4000 -DZ SCT003 BKN005 04/04 Q1035 TEMPO 7000 BKN010=",
            "ENOL 090750Z 25017KT 5000 -DZRA OVC005 04/04 Q1034 TEMPO 3000 DZRA=",
            "ENOL 090820Z 25017KT 7000 -DZ SCT005 BKN008 04/04 Q1034 TEMPO 3000 DZRA=",
            "ENOL 090850Z 25017KT 8000 2000SE -DZRA SCT006 BKN012 04/04 Q1035 TEMPO 3000 DZRA BKN007=",
            "ENOL 090920Z 25015KT 9999 FEW004 SCT008 BKN010 05/04 Q1035 TEMPO 3000 DZRA BKN007=",
            "ENOL 090950Z 28017KT 9999 SCT009 BKN025 05/05 Q1035 TEMPO 3000 DZRA BKN007=",
            "ENOL 091020Z 27017KT 9999 FEW009 SCT015 BKN029 05/04 Q1036 TEMPO 3000 DZRA BKN007=",
            "ENOL 091050Z 27016KT 9999 VCSH FEW007 SCT010 BKN030 05/04 Q1036 TEMPO 3000 DZRA BKN007=",
            "ENOL 091120Z 28017KT 9999 -DZ FEW007 SCT010 BKN015 05/04 Q1036 TEMPO 3000 DZRA BKN007=",
            "ENOL 091150Z 28017KT 9999 FEW009 SCT025 BKN036 05/04 Q1036 TEMPO 3000 DZRA BKN007=",
            "ENOL 091220Z 27018KT 9999 -RADZ SCT008 BKN019 05/04 Q1036 TEMPO 3000 DZRA BKN007=",
            "ENOL 091250Z 27017KT 9999 SCT009 BKN030 05/04 Q1036 TEMPO 3000 DZRA BKN007=",
            "ENOL 091320Z 26016KT 9999 VCSH SCT008 BKN020 05/04 Q1036 TEMPO 2000 DZRA BR BKN005=",
            "ENOL 091350Z 26018KT 3000 DZ VV007 05/04 Q1036 TEMPO 2000 DZRA BR BKN005=",
            "ENOL 091420Z 26020KT 9999 4000E -DZ SCT007 BKN012 05/05 Q1036 REDZ TEMPO 2000 DZRA BR BKN005=",
            "ENOL 091450Z 26020KT 9999 VCSH SCT005 BKN010 05/05 Q1036 REDZ TEMPO 2000 DZRA BR BKN005=",
            "ENOL 091520Z 27019KT 3000 DZ SCT006 BKN010 05/05 Q1036 TEMPO 2000 DZRA BR BKN005=",
            "ENOL 091550Z 27018KT 9999 VCSH SCT007 BKN020 05/05 Q1036 REDZ TEMPO 2000 DZRA BR BKN005=",
            "ENOL 091620Z 27017KT 9999 FEW006 SCT025 05/04 Q1036 TEMPO 2000 DZRA BR BKN005=",
            "ENOL 091650Z 26017KT 9999 FEW009 BKN035 05/04 Q1036 TEMPO 2000 DZRA BR BKN005=",
            "ENOL 091720Z 27017KT 9999 VCSH SCT008 BKN022 05/04 Q1036 TEMPO 2000 DZRA BR BKN005=",
            "ENOL 091750Z 25017KT 6000 -DZRA SCT007 BKN014 05/04 Q1036 REDZ TEMPO 2000 DZRA BR BKN005=",
            "ENOL 091820Z 25016KT 3500 DZRA SCT008 BKN014 05/04 Q1036 TEMPO 2000 DZRA BR BKN005=",
            "ENOL 091850Z 25017KT 3000 DZ FEW007 BKN012 04/04 Q1036 TEMPO 2000 DZRA BR BKN005=",
            "ENOL 091920Z 25017KT 9999 VCSH FEW010 SCT022 BKN030 05/04 Q1036 REDZ TEMPO 2000 DZRA BR BKN005=",
            "ENOL 091950Z 25016KT 9999 VCSH FEW010 BKN030 05/04 Q1036 TEMPO 2000 DZRA BR BKN005=",
            "ENOL 092020Z 25017KT 9999 -DZ FEW010 BKN035 05/04 Q1036 TEMPO 2000 DZRA BR BKN005=",
            "ENOL 092050Z 25017KT 9999 FEW015 BKN035 05/04 Q1036 TEMPO 2000 DZRA BR BKN005=",
            "ENOL 092120Z 24016KT 9999 FEW007 SCT025 BKN035 05/04 Q1036 TEMPO 2000 DZRA BR BKN005=",
            "ENOL 092150Z 24016KT 9999 FEW007 BKN025 05/04 Q1037 TEMPO 2000 DZRA BR BKN005=",
            "ENOL 092220Z 24016KT 9999 -DZ SCT025 BKN035 05/04 Q1036=",
            "ENOL 092250Z 24016KT 9999 -DZ FEW025 BKN030 05/04 Q1036=",
            "ENOL 092320Z 24015KT 9999 BKN030 05/04 Q1037=",
            "ENOL 092350Z 25015KT 9999 FEW025 BKN030 05/04 Q1036=",
            "",
            ""
        ]
    },
    {
        "metar": [
            "ENOL 100020Z 25015KT 9999 SCT025 BKN030 05/04 Q1036=",
            "ENOL 100050Z 25014KT 9999 -DZ FEW025 BKN035 05/04 Q1036=",
            "ENOL 100120Z 25015KT 9999 -DZ FEW010 BKN030 05/04 Q1036=",
            "ENOL 100150Z 25015KT 7000 -RADZ FEW010 BKN025 05/04 Q1035=",
            "ENOL 100150Z 25015KT 7000 -RADZ FEW010 BKN025 05/04 Q1035=",
            "ENOL 100220Z 25015KT 9999 -RADZ BKN030 05/04 Q1035=",
            "ENOL 100250Z 25014KT 9999 -RADZ FEW015 BKN025 04/04 Q1035=",
            "ENOL 100320Z 25014KT 9999 -RADZ FEW015 BKN025 04/04 Q1035=",
            "ENOL 100350Z 26014KT 9999 -DZ FEW015 BKN020 04/04 Q1035=",
            "ENOL 100420Z 25014KT 9999 FEW010 BKN025 04/04 Q1035=",
            "ENOL 100450Z 26015KT 9999 -DZ BKN025 05/04 Q1034=",
            "ENOL 100520Z 25014KT 9999 -RADZ BKN025 05/04 Q1034 TEMPO 4000 DZ BR BKN009=",
            "ENOL 100550Z 26016KT 9999 BKN023 05/04 Q1034 TEMPO 4000 DZ BR BKN009=",
            "ENOL 100620Z 27017KT 9999 -RA BKN022 05/04 Q1034 TEMPO 4000 DZ BR BKN009=",
            "ENOL 100650Z 27020KT 9999 SCT020 BKN050 05/04 Q1034 TEMPO 4000 DZ BR BKN009=",
            "ENOL 100720Z 25016KT 9999 BKN022 05/04 Q1034 TEMPO 4000 DZ BR BKN009=",
            "ENOL 100750Z 25017KT 9999 BKN028 05/04 Q1033 TEMPO 4000 DZ BR BKN009=",
            "ENOL 100820Z 25018KT 9999 BKN035 05/03 Q1033 TEMPO 4000 DZ BR BKN009=",
            "ENOL 100850Z 25017KT 9000 -DZ BKN030 05/03 Q1033 TEMPO 4000 DZ BR BKN009=",
            "ENOL 100920Z 24016KT 9999 VCSH BKN030 05/03 Q1033 TEMPO 4000 DZ BR BKN009=",
            "ENOL 100920Z 24016KT 9999 VCSH BKN030 05/03 Q1033 TEMPO 4000 DZ BR BKN009=",
            "ENOL 100950Z 25016KT 9999 VCSH BKN025 05/03 Q1033 TEMPO 4000 DZ BR BKN009=",
            "ENOL 101020Z 25019KT 9999 VCSH SCT014 BKN030 05/03 Q1033 TEMPO 4000 DZ BR BKN009=",
            "ENOL 101050Z 25017KT 9999 VCSH FEW014 SCT020 BKN030 05/05 Q1033 TEMPO 4000 DZ BR BKN009=",
            "ENOL 101120Z 26015KT 9999 VCSH FEW014 BKN030 05/04 Q1033 TEMPO 4000 DZ BR BKN009=",
            "ENOL 101150Z 26016KT 9999 VCSH FEW014 SCT019 BKN030 05/04 Q1033 TEMPO 4000 DZ BKN009=",
            "ENOL 101220Z 26016KT 9999 VCSH FEW014 BKN025 05/04 Q1032 TEMPO 4000 DZ BKN009=",
            "ENOL 101250Z 26014KT 9999 VCSH FEW009 SCT014 BKN025 05/04 Q1032 TEMPO 4000 DZ BKN009=",
            "ENOL 101320Z 27019KT 9999 VCSH FEW009 SCT014 BKN022 06/04 Q1032 TEMPO 4000 DZ BKN009=",
            "ENOL 101350Z 27021KT 9999 VCSH FEW009 SCT015 BKN030 06/04 Q1032 TEMPO 4000 DZ BKN009=",
            "ENOL 101420Z 27021KT 9999 VCSH FEW009 SCT015 BKN030 06/04 Q1032 TEMPO 4000 DZ BKN009=",
            "ENOL 101450Z 27019KT 9999 VCSH FEW009 SCT015 BKN022 06/04 Q1031 TEMPO 4000 DZ BKN009=",
            "ENOL 101520Z 27018KT 9999 VCSH FEW009 SCT015 BKN022 06/04 Q1031 TEMPO 4000 DZ BKN009=",
            "ENOL 101550Z 27020KT 9999 VCSH FEW009 SCT015 BKN022 06/04 Q1031 TEMPO 4000 RADZ BKN009=",
            "ENOL 101550Z 27020KT 9999 VCSH FEW009 SCT015 BKN022 06/04 Q1031 TEMPO 4000 RADZ BKN009=",
            "ENOL 101620Z 27021KT 9999 VCSH FEW009 SCT015 BKN040 06/04 Q1031 TEMPO 4000 RADZ BKN009=",
            "ENOL 101650Z 28022KT 9999 VCSH FEW009 BKN014 06/04 Q1031 TEMPO 4000 RADZ BKN009=",
            "ENOL 101720Z 28023KT 9999 -DZ FEW009 BKN012 06/05 Q1031 TEMPO 4000 RADZ BKN009=",
            "ENOL 101750Z 28023KT 9999 -DZ FEW009 SCT014 BKN055 06/05 Q1031 TEMPO 4000 RADZ BKN009=",
            "ENOL 101850Z 28022KT 9999 -DZ FEW009 BKN014 06/05 Q1030 TEMPO 4000 RADZ BKN009=",
            "ENOL 101920Z 27022KT 9999 VCSH BKN010 06/05 Q1030 TEMPO 4000 RADZ BKN009=",
            "ENOL 101950Z 28021KT 9999 VCSH BKN009 06/05 Q1030 TEMPO 4000 RADZ=",
            "ENOL 102020Z 27020KT 9999 VCSH BKN009 06/05 Q1030 TEMPO 4000 RADZ=",
            "ENOL 102050Z 27020KT 9999 -RADZ BKN009 06/05 Q1030 TEMPO 4000 RADZ=",
            "ENOL 102120Z 27021KT 9000 -RADZ BKN009 06/05 Q1030 TEMPO 4000 RADZ=",
            "ENOL 102150Z 28020KT 9000 VCSH BKN009 06/05 Q1030 TEMPO 4000 RADZ=",
            "ENOL 102220Z 29018KT 9000 VCSH BKN010 06/06 Q1030=",
            "ENOL 102250Z 30018KT 9999 BKN010 07/06 Q1030=",
            "ENOL 102320Z 30018KT 9999 BKN012 07/05 Q1030=",
            "ENOL 102350Z 30019KT 9999 FEW010 BKN018 07/05 Q1030=",
            "",
            ""
        ]
    },
    {
        "metar": [
            "ENOL 110020Z 29019KT 9999 FEW010 BKN018 07/05 Q1030=",
            "ENOL 110050Z 30019KT 7000 -DZ FEW008 BKN013 07/05 Q1030=",
            "ENOL 110120Z 30018KT 9000 VCSH FEW008 BKN013 06/06 Q1030=",
            "ENOL 110150Z 31016KT 4000 RADZ SCT007 BKN010 06/06 Q1030=",
            "ENOL 110220Z 30016KT 9999 FEW007 SCT015 BKN025 06/06 Q1030 RERADZ=",
            "ENOL 110250Z 31017KT 9999 FEW015 BKN025 06/05 Q1031=",
            "ENOL 110320Z 31014KT 2000 DZ BR BKN009 06/05 Q1031=",
            "ENOL 110350Z 31013KT 2000 DZ BR SCT005 BKN012 06/05 Q1031=",
            "ENOL 110420Z 32014KT 2500 DZ BR SCT006 BKN009 05/05 Q1031=",
            "ENOL 110450Z 32014KT 5000 -DZ SCT006 BKN013 05/05 Q1031=",
            "ENOL 110520Z 32013KT 9999 VCSH FEW005 SCT010 BKN014 05/05 Q1031 TEMPO 2000 RADZ BR BKN007=",
            "ENOL 110550Z 32012KT 9999 3000E -DZ FEW005 BKN010 05/05 Q1031 REDZ TEMPO 2000 RADZ BR BKN007=",
            "ENOL 110620Z 32012KT 2500 -RADZ SCT006 BKN008 05/05 Q1031 TEMPO 9999 BKN015=",
            "ENOL 110650Z 32013KT 9999 2000SE -DZ FEW005 SCT008 BKN012 05/05 Q1031 TEMPO 2000 RADZ BKN007=",
            "ENOL 110720Z 32012KT 9999 VCSH FEW007 SCT010 BKN020 05/05 Q1031 TEMPO 2000 RADZ BKN007=",
            "ENOL 110750Z 33012KT 9999 3000NE -DZ FEW007 SCT013 BKN020 05/05 Q1031 TEMPO 2000 RADZ BKN007=",
            "ENOL 110820Z 32012KT 9999 VCSH FEW006 SCT013 BKN035 05/05 Q1032 TEMPO 2000 RADZ BKN007=",
            "ENOL 110850Z 31009KT 9000 VCSH FEW007 BKN016 05/05 Q1032 TEMPO 2000 RADZ BKN007=",
            "ENOL 110920Z 31010KT 9999 -RA FEW007 SCT015 BKN024 05/05 Q1032 RERA TEMPO 2000 RADZ BKN007=",
            "ENOL 110950Z 31012KT 9999 VCSH FEW007 SCT014 BKN020 05/05 Q1032 TEMPO 2000 RADZ BKN007=",
            "ENOL 111020Z 31013KT 2500 DZ FEW007 BKN014 05/05 Q1032 TEMPO BKN007=",
            "ENOL 111050Z 32011KT 9000 -DZ FEW007 SCT012 BKN018 05/04 Q1032 TEMPO 2000 DZ BR BKN007=",
            "ENOL 111120Z 32011KT 9000 -DZ SCT007 BKN010 05/04 Q1032 TEMPO 2000 DZ BR BKN007=",
            "ENOL 111150Z 31010KT 9999 -DZ FEW007 SCT014 BKN020 05/04 Q1032 TEMPO 2000 DZ BR BKN007=",
            "ENOL 111220Z 31009KT 9999 -DZ FEW004 SCT009 BKN014 05/05 Q1032 TEMPO 2000 DZ BR BKN007=",
            "ENOL 111250Z 31010KT 9999 VCSH FEW008 SCT010 BKN027 05/05 Q1032 REDZ TEMPO 2000 DZ BR BKN007=",
            "ENOL 111320Z 32010KT 9999 VCSH FEW007 SCT013 BKN020 05/05 Q1032 TEMPO 2000 DZ BR BKN007=",
            "ENOL 111350Z 31012KT 9999 VCSH FEW007 SCT014 BKN060 05/05 Q1032 TEMPO 2000 DZ BR BKN007=",
            "ENOL 111420Z 30013KT 9999 VCSH FEW010 BKN025 05/04 Q1031 TEMPO 2000 DZ BR BKN007=",
            "ENOL 111450Z 31011KT 9999 VCSH FEW013 BKN023 06/04 Q1031 TEMPO 2000 DZ BR BKN007=",
            "ENOL 111520Z 29013KT 9999 -DZ SCT019 BKN051 05/03 Q1031 TEMPO 2000 DZ BR BKN007=",
            "ENOL 111550Z 28015KT 9999 VCSH SCT012 BKN020 05/04 Q1031 TEMPO 2000 DZ BR BKN007=",
            "ENOL 111620Z 30011KT 9999 -DZ FEW002 SCT013 BKN020 05/04 Q1030 TEMPO 2000 DZ BR BKN007=",
            "ENOL 111650Z 28013KT 9999 -RADZ VV014 05/04 Q1030 TEMPO 2000 DZ BR BKN007=",
            "ENOL 111720Z 29021KT 9999 VCSH BKN017 05/03 Q1030 TEMPO 2000 DZ BR BKN007=",
            "ENOL 111750Z 29019KT 9999 SCT025 BKN057 05/03 Q1030 TEMPO 2000 DZ BR BKN007=",
            "ENOL 111820Z 28020KT 9999 FEW025 SCT059 05/03 Q1030 TEMPO 2000 DZ BR BKN007=",
            "ENOL 111850Z 28020KT 9999 FEW025 SCT059 05/03 Q1030 TEMPO 2000 DZ BR BKN007=",
            "ENOL 111920Z 28021KT 9999 SCT025 BKN057 05/03 Q1030 TEMPO 2000 SHRA BR BKN007=",
            "ENOL 111950Z 29019KT 9999 FEW020 BKN057 05/03 Q1029 TEMPO 2000 SHRA BR BKN007=",
            "ENOL 112020Z 29023KT 9999 FEW024 BKN057 05/02 Q1029 TEMPO 2000 SHRA BR BKN007=",
            "ENOL 112050Z 29019KT 9999 FEW011 BKN040 05/02 Q1029 TEMPO 2000 SHRA BR BKN007=",
            "ENOL 112120Z 29021G34KT 9999 FEW019 BKN026 05/02 Q1029 TEMPO 2000 SHRA BR BKN007=",
            "ENOL 112150Z 27020KT 9999 SCT024 BKN041 05/03 Q1029 TEMPO 2000 SHRA BR BKN007=",
            "ENOL 112220Z 27021KT 9999 SCT020 BKN045 04/02 Q1027=",
            "ENOL 112250Z 27024KT 9999 SCT020 BKN045 05/02 Q1027=",
            "ENOL 112320Z 27027KT 9999 VCSH SCT020 BKN040 05/03 Q1026=",
            "ENOL 112350Z 27024KT 9999 VCSH FEW010 CT020 BKN040 05/04 Q1026=",
            "",
            ""
        ]
    },
    {
        "metar": [
            "ENOL 120020Z 28024KT 9999 VCSH SCT020 BKN038 05/03 Q1026=",
            "ENOL 120050Z 29021KT 8000 -RADZ BKN010 05/03 Q1026=",
            "ENOL 120120Z 28021KT 9999 VCSH SCT010 BKN018 05/03 Q1026=",
            "ENOL 120150Z 29021KT 9999 VCSH SCT010 BKN020 05/03 Q1026=",
            "ENOL 120220Z 29021G31KT 9999 FEW010 SCT020 BKN030 05/03 Q1026=",
            "ENOL 120250Z 28018G32KT 9999 FEW010 SCT020 BKN026 05/03 Q1025=",
            "ENOL 120320Z 28020KT 9999 VCSH FEW010 SCT020 BKN030 05/03 Q1025=",
            "ENOL 120350Z 28019KT 9999 SCT020 BKN040 05/02 Q1025=",
            "ENOL 120420Z 28015KT 9999 SCT025 BKN035 05/03 Q1025=",
            "ENOL 120450Z 28019KT 9999 SCT020 BKN038 05/02 Q1024=",
            "ENOL 120520Z 28018KT 9999 SCT020 BKN030 05/03 Q1023 TEMPO 27025G35KT 2000 RADZ BR OVC007=",
            "ENOL 120550Z 29020G30KT 9999 SCT020 BKN030 05/03 Q1023 TEMPO 2000 RADZ BR OVC007=",
            "ENOL 120620Z 28021KT 9000 -DZ BKN020 06/03 Q1023 TEMPO 27022G32KT 2000 RADZ BR OVC007=",
            "ENOL 120650Z 29020KT 9000 -RADZ SCT020 BKN030 06/03 Q1022 TEMPO 27022G32KT 2000 RADZ BR OVC007=",
            "ENOL 120720Z 29020KT 9999 -RADZ SCT015 BKN032 05/04 Q1022 TEMPO 27022G32KT 2000 RADZ BR OVC007=",
            "ENOL 120750Z 29020G32KT 9000 -DZ SCT024 BKN032 05/04 Q1021 TEMPO 2000 RADZ BR OVC007=",
            "ENOL 120820Z 29022KT 8000 -DZ FEW012 BKN033 06/04 Q1021 TEMPO 2000 RADZ BR OVC007=",
            "ENOL 120850Z 28022KT 9999 -DZ FEW012 BKN020 06/04 Q1021 TEMPO 27022G32KT 2000 RADZ BR OVC007=",
            "ENOL 120920Z 28022KT 4000 2000S -RADZ FEW006 OVC010 05/04 Q1021 TEMPO 27022G32KT 2000 RADZ BR OVC007=",
            "ENOL 120950Z 27024KT 7000 -RADZ FEW008 BKN015 05/04 Q1021 RERADZ TEMPO 27025G35KT 2000 RADZ BR OVC007=",
            "ENOL 121020Z 27023KT 9999 4000N -RADZ FEW008 BKN015 05/04 Q1020 RERADZ TEMPO 27025G35KT 2000 RADZ BR OVC007=",
            "ENOL 121020Z 26020KT 9999 -RADZ FEW008 BKN018 05/04 Q1021 TEMPO 27025G35KT 2000 RADZ BR OVC007=",
            "ENOL 121050Z 27023KT 9999 4000N -RADZ FEW008 BKN015 05/04 Q1020 RERADZ TEMPO 27025G35KT 2000 RADZ BR OVC007=",
            "ENOL 121120Z 27022KT 9999 VCSH FEW008 BKN015 05/04 Q1020 TEMPO 27025G35KT 2000 RADZ BR OVC007=",
            "ENOL 121150Z 26021KT 9999 VCSH FEW007 SCT012 BKN020 05/05 Q1020 TEMPO 27025G35KT 2000 RADZ BR OVC007=",
            "ENOL 121220Z 27019KT 9999 VCSH FEW008 SCT016 BKN030 05/05 Q1019 TEMPO 27025G35KT 2000 RADZ BR OVC007=",
            "ENOL 121250Z 27018KT 9999 -RA SCT007 BKN016 05/04 Q1019 TEMPO 27025G35KT 2000 RADZ BR OVC007=",
            "ENOL 121320Z 27019KT 9999 VCSH FEW009 BKN035 05/04 Q1018 TEMPO 27025G35KT 2000 RADZ BR OVC007=",
            "ENOL 121350Z 27019KT 9999 -RA SCT010 BKN035 05/04 Q1018 TEMPO 27025G35KT 2000 RADZ BR OVC007=",
            "ENOL 121420Z 27016KT 8000 -DZ FEW007 SCT009 BKN018 05/04 Q1017 TEMPO 27025G35KT 2000 RADZ BR OVC007=",
            "ENOL 121450Z 26017KT 9000 -RADZ SCT006 BKN010 05/05 Q1016 REDZ TEMPO 27025G35KT 2000 RADZ BR OVC007=",
            "ENOL 121520Z 25017KT 5000 -DZ SCT006 BKN010 05/05 Q1016 TEMPO 27025G35KT 2000 RADZ BR OVC007=",
            "ENOL 121550Z 25013KT 9999 3000E -RADZ SCT006 BKN010 05/05 Q1015 REDZ TEMPO 27025G35KT 2000 RADZ BR OVC007=",
            "ENOL 121620Z 25015KT 9999 -RA SCT006 BKN009 05/05 Q1014 TEMPO 27025G35KT 2000 RADZ BR=",
            "ENOL 121650Z 24015KT 9999 -RA SCT006 BKN009 05/05 Q1014 TEMPO 25020G30KT 2000 RADZ BR=",
            "ENOL 121720Z 24022KT 9999 VCSH SCT008 BKN014 05/04 Q1014 TEMPO 25025G35KT 2000 RADZ BR BKN007=",
            "ENOL 121750Z 25023G33KT 9999 -RA FEW008 SCT015 BKN020 05/04 Q1012 TEMPO 2000 RADZ BR BKN007=",
            "ENOL 121820Z 24023KT 9999 VCSH FEW015 BKN020 05/03 Q1011 TEMPO 25025G35KT 2000 RADZ BR BKN007=",
            "ENOL 121850Z 24023KT 9999 FEW015 SCT025 BKN040 05/03 Q1010 TEMPO 25025G35KT 2000 RADZ BR BKN007=",
            "ENOL 121920Z 24023KT 9999 -RA FEW015 SCT025 BKN035 05/03 Q1009 TEMPO 25025G35KT 4000 RA BKN010=",
            "ENOL 121950Z 23021KT 9999 -RA FEW015 BKN025 05/04 Q1009 TEMPO 25025G35KT 4000 RA BKN010=",
            "ENOL 122020Z 22015KT 9999 -RA FEW013 BKN022 04/03 Q1008 TEMPO 25025G35KT 4000 RA BKN010=",
            "ENOL 122050Z 22017KT 9999 -RA FEW015 BKN022 04/03 Q1007 TEMPO 25025G35KT 4000 RA BKN010=",
            "ENOL 122120Z 20012KT 9999 -RA SCT014 BKN020 04/03 Q1006 TEMPO 25025G35KT 4000 RA BKN010=",
            "ENOL 122150Z 22017KT 9999 RA SCT014 BKN022 04/03 Q1005 TEMPO 25025G35KT 4000 RA BKN010=",
            "ENOL 122220Z 23016KT 9999 RA SCT012 BKN020 04/03 Q1004=",
            "ENOL 122250Z 22016KT 9999 -RA SCT014 BKN022 04/03 Q1003=",
            "ENOL 122320Z 22015KT 9999 -RA SCT014 BKN022 04/03 Q1002=",
            "ENOL 122350Z 23014KT 9999 -RA SCT014 BKN022 04/03 Q1001=",
            "",
            ""
        ]
    },
    {
        "metar": [
            "ENOL 130020Z 23019KT 9999 -RA SCT016 BKN020 04/03 Q1000=",
            "ENOL 130050Z 23020KT 9999 -RA SCT014 BKN022 04/03 Q1000=",
            "ENOL 130120Z 23020KT 9999 -RA SCT014 BKN022 04/03 Q0999=",
            "ENOL 130150Z 24021KT 9999 -RA SCT014 BKN022 04/03 Q0998=",
            "ENOL 130220Z 25025KT 9999 RA SCT010 BKN020 04/04 Q0998=",
            "ENOL 130250Z 26017KT 9999 RA SCT010 BKN020 04/04 Q0998=",
            "ENOL 130320Z 29012KT 9999 -RA SCT014 BKN022 05/04 Q0997=",
            "ENOL 130350Z 30014KT 9999 -RA FEW008 BKN020 04/03 Q0997=",
            "ENOL 130420Z 28015KT 9999 -RA SCT012 BKN022 05/04 Q0997=",
            "ENOL 130450Z 29013KT 9999 -RA SCT012 BKN022 05/04 Q0997=",
            "ENOL 130520Z 30013KT 9999 -RA SCT014 BKN022 04/03 Q0996 TEMPO 33025G35KT 4000 SHRA BKN012CB=",
            "ENOL 130550Z 30012KT 9999 -RA FEW010 BKN020 05/04 Q0996 TEMPO 33025G35KT 4000 SHRA BKN012CB=",
            "ENOL 130620Z 30014KT 9999 -RA FEW012 BKN020 05/04 Q0996 TEMPO 33025G35KT 4000 SHRA BKN012CB=",
            "ENOL 130650Z 29016KT 9999 VCSH FEW012 SCT018 BKN025 05/04 Q0996 RESHRA TEMPO 33025G35KT 4000 SHRA BKN012CB=",
            "ENOL 130720Z 29019KT 9999 -RA FEW008 SCT020 BKN030 05/04 Q0996 TEMPO 33025G35KT 4000 SHRA BKN012CB=",
            "ENOL 130750Z 29024KT 9999 -RA FEW008 SCT017 BKN025 04/04 Q0996 TEMPO 33025G35KT 4000 SHRA BKN012CB=",
            "ENOL 130820Z 30022KT 9999 -RA FEW008 SCT015 BKN022 05/03 Q0996 TEMPO 33025G35KT 4000 SHRA BKN012CB=",
            "ENOL 130850Z 29020KT 9999 -RA SCT010 BKN025 05/03 Q0996 TEMPO 33025G35KT 4000 SHRA BKN012CB=",
            "ENOL 130920Z 28022KT 9999 -RA SCT010 BKN020 05/03 Q0996 TEMPO 33025G35KT 4000 SHRA BKN012CB=",
            "ENOL 130950Z 29023KT 9999 -RA FEW010 SCT018 BKN025 05/03 Q0996 TEMPO 33025G35KT 4000 SHRA BKN012CB=",
            "ENOL 131020Z 29022KT 9000 -RA FEW010 SCT018 BKN025 04/04 Q0996 RESHRA TEMPO 33025G35KT 4000 SHRA BKN012CB=",
            "ENOL 131050Z 30022KT 8000 SHRA FEW010 SCT015CB BKN020 04/03 Q0996 TEMPO 33025G35KT 4000 SHRA BKN012CB=",
            "ENOL 131120Z 29023KT 9999 -RA SCT010 BKN018 05/04 Q0995 RESHRA TEMPO 33025G35KT SHRA BKN012CB=",
            "ENOL 131150Z 30020KT 9999 -RA FEW010 BKN020 05/04 Q0995 TEMPO 33025G35KT SHRA BKN012CB=",
            "ENOL 131220Z 31018KT 9999 SHRA FEW010 BKN018CB 04/03 Q0995 TEMPO 33025G35KT SHRA BKN012CB=",
            "ENOL 131250Z 30016KT 9999 -RA FEW010 SCT020 BKN030 05/04 Q0995 RESHRA TEMPO 33025G35KT SHRA BKN012CB=",
            "ENOL 131320Z 30016KT 9999 VCSH FEW015CB SCT020 BKN030 05/03 Q0995 BECMG 36018KT TEMPO 33025G35KT SHRA BKN012CB=",
            "ENOL 131350Z 32012KT 9999 -SHRA FEW009 SCT012CB BKN017 05/04 Q0995 TEMPO 33025G35KT SHRA BKN012CB=",
            "ENOL 131420Z 35014KT 9999 -SHRA FEW009 SCT017CB BKN023 05/04 Q0996 TEMPO 33020G30KT SHRA BKN012CB=",
            "ENOL 131450Z 34018KT 9999 VCSH FEW010CB BKN017 05/03 Q0996 TEMPO 33020G30KT SHRA BKN012CB=",
            "ENOL 131520Z 34018KT 9999 -SHRA FEW010 SCT020 BKN032 05/03 Q0996 TEMPO 33020G30KT SHRA BKN012CB=",
            "ENOL 131550Z 34018KT 9999 -RA FEW012 SCT018 BKN025 05/04 Q0996 NOSIG=",
            "ENOL 131620Z 35020KT 9999 -RADZ FEW012 SCT018 BKN025 04/03 Q0997 NOSIG=",
            "ENOL 131650Z 36014KT 9999 FEW018 BKN028 04/02 Q0997 NOSIG=",
            "ENOL 131720Z 35012KT 9999 FEW018 BKN030 04/02 Q0998 NOSIG=",
            "ENOL 131750Z 35009KT 9999 FEW015 SCT025 03/02 Q0998 NOSIG=",
            "ENOL 131820Z 35007KT 9999 -RA SCT025 BKN042 04/02 Q0998 NOSIG=",
            "ENOL 131850Z 33007KT 9999 -SHRA FEW015 BKN025 04/02 Q0998 NOSIG=",
            "ENOL 131920Z 31009KT 9999 -SHRA BKN020 04/02 Q0998 NOSIG=",
            "ENOL 131950Z 31005KT 9999 FEW014 BKN040 03/02 Q0998 NOSIG=",
            "ENOL 132020Z 30008KT 9999 -SHRA FEW014 BKN030 04/03 Q0997 TEMPO 4000 SHRASN BKN014CB=",
            "ENOL 132050Z 29009KT 9999 -SHRA FEW013 BKN020 04/03 Q0997 TEMPO 4000 SHRASN BKN014CB=",
            "ENOL 132120Z 28009KT 9999 -SHRA FEW009 BKN020 04/03 Q0997 TEMPO 4000 SHRASN BKN014CB=",
            "ENOL 132150Z 28006KT 9999 -SHRA FEW009 BKN020 04/03 Q0996 TEMPO 4000 SHRASN BKN014CB=",
            "ENOL 132220Z 29016KT 8000 SHRA FEW009 BKN015 03/02 Q0996=",
            "ENOL 132250Z 26009KT 9999 -SHRA FEW009 BKN02003/02 Q0996=",
            "ENOL 132320Z 28008KT 9999 -SHRA FEW012 BKN020 03/02 Q0995=",
            "ENOL 132350Z 35009KT 9999 -SHRA FEW009 BKN018 03/02 Q0995=",
            "",
            ""
        ]
    },
    {
        "metar": [
            "ENOL 140020Z 03004KT 8000 -SHRA BKN014 02/02 Q0994=",
            "ENOL 140050Z 02004KT 9999 -SHRA FEW009 BKN014 02/02 Q0994=",
            "ENOL 140120Z 06002KT 6000 -RADZ FEW009 BKN014 02/01 Q0993=",
            "ENOL 140150Z 35003KT 8000 SHRA FEW009 BKN014 02/01 Q0993=",
            "ENOL 140220Z 35008KT 6000 -SHSNRA BKN010 01/00 Q0993=",
            "ENOL 140250Z 13001KT 9999 FEW009 BKN025 00/00 Q0992=",
            "ENOL 140320Z VRB02KT 9999 FEW009 SCT012 BKN025 00/00 Q0992=",
            "ENOL 140350Z 16003KT 9999 -SHSNRA BKN010 00/00 Q0992=",
            "ENOL 140420Z 12004KT 9999 -SHRASN BKN010 00/00 Q0991=",
            "ENOL 140450Z 11008KT 9999 -SHRASN FEW008 BKN010 00/00 Q0990 TEMPO 4000 SNRA BKN008 SCT015CB=",
            "ENOL 140520Z 11008KT 9999 -SHRASN FEW008 BKN010 00/00 Q0990 TEMPO 4000 SNRA BKN008 SCT015CB=",
            "ENOL 140550Z 10011KT 6000 -SHSNRA SCT006 BKN010 00/00 Q0990 TEMPO 4000 SNRA BKN008 SCT015CB=",
            "ENOL 140620Z 10012KT 9999 -SHSNRA BKN008 00/00 Q0989 TEMPO 4000 SNRA SCT015CB=",
            "ENOL 140650Z 08012KT 3000 SHSNRA BKN008 00/00 Q0990 TEMPO SCT015CB=",
            "ENOL 140720Z 04015KT 3000 SHSNRA VV009 00/00 Q0990 TEMPO BKN008 SCT015CB=",
            "ENOL 140750Z 04011KT 3000 -SN VV010 00/00 Q0990 TEMPO SNRA BKN008 SCT015CB=",
            "ENOL 140820Z 02011KT 2000 SN VV006 00/00 Q0991 TEMPO BKN008=",
            "ENOL 140850Z 04012KT 9999 -SN SCT010 BKN015 00/00 Q0991 NOSIG=",
            "ENOL 140920Z 04010KT 9999 VCSH FEW010 BKN030 00/00 Q0992 NOSIG=",
            "ENOL 140950Z 05007KT 9999 FEW010 SCT025 BKN057 00/M01 Q0992 NOSIG=",
            "ENOL 141020Z 04009KT 9999 FEW010 SCT025 BKN060 00/M01 Q0992 NOSIG=",
            "ENOL 141050Z 05005KT 9999 FEW025 BKN080 00/M02 Q0993 NOSIG=",
            "ENOL 141120Z 04006KT 9999 FEW025 BKN080 M01/M02 Q0993 NOSIG=",
            "ENOL 141150Z 04008KT 9999 FEW025 BKN080 M01/M02 Q0993 NOSIG=",
            "ENOL 141220Z 04008KT CAVOK M01/M03 Q0993 NOSIG=",
            "ENOL 141250Z 04007KT CAVOK M01/M03 Q0993 NOSIG=",
            "ENOL 141320Z 07005KT CAVOK M03/M05 Q0993 NOSIG=",
            "ENOL 141350Z 10004KT CAVOK M03/M05 Q0993 NOSIG=",
            "ENOL 141420Z 09003KT 9999 FEW012 SCT150 M03/M05 Q0993 NOSIG=",
            "ENOL 141450Z 11003KT 9999 FEW012 SCT150 M04/M07 Q0993 TEMPO 0800 SHSN VV006=",
            "ENOL 141520Z 16001KT 9999 VCSH FEW012CB BKN055 M04/M06 Q0992 TEMPO 0800 SHSN VV006=",
            "ENOL 141550Z 17002KT 9999 VCSH FEW012CB SCT045 M04/M06 Q0992 TEMPO 0800 SHSN VV006=",
            "ENOL 141620Z 18004KT 9999 VCSH FEW012CB SCT045 M04/M06 Q0992 TEMPO 03022G32KT 0800 SHSN VV006=",
            "ENOL 141650Z 13004KT 9999 VCSH FEW012CB SCT030 BKN055 M03/M05 Q0991 TEMPO 03022G32KT 0800 SHSN VV006=",
            "ENOL 141720Z VRB01KT 1500 SHSN VV012 M01/M02 Q0991 TEMPO 03022G32KT 0800 SHSN VV006=",
            "ENOL 141750Z VRB01KT 0350 +SHSN VV003 M01/M02 Q0991 TEMPO 03022G32KT BKN012CB=",
            "ENOL 141820Z 07017KT 0350 +SHSN BLSN VV003 M01/M02 Q0992 TEMPO 03022G32KT BKN012CB=",
            "ENOL 141850Z 08017KT 1000 SHSN VV009 M04/M04 Q0992 RESHSN TEMPO 03022G32KT 3000 -SHSN VV014=",
            "ENOL 141920Z 11010KT 9999 VCSH FEW009 FEW012CB BKN050 M03/M04 Q0992 RESHSN NOSIG=",
            "ENOL 141950Z 05004KT 9999 VCSH FEW015 BKN075 M04/M05 Q0992 NOSIG=",
            "ENOL 142020Z 05005KT 9999 FEW009 BKN100 M04/M05 Q0993 NOSIG=",
            "ENOL 142050Z 11003KT 9999 FEW009 BKN100 M04/M06 Q0993 TEMPO 0800 SHSN VV006=",
            "ENOL 142120Z 10003KT 9999 FEW009 BKN100 M04/M06 Q0992 TEMPO 0800 SHSN VV006=",
            "ENOL 142150Z 15003KT 9999 FEW009 SCT100 M05/M07 Q0992 TEMPO 0800 SHSN VV006=",
            "ENOL 142220Z 08004KT 9999 -SHSN SCT020CB BKN040 M05/M05 Q0992=",
            "ENOL 142250Z 07005KT 030V110 9999 VCSH FEW020CB SCT040 M04/M05 Q0992=",
            "ENOL 142320Z 09005KT 9999 SCT030 M04/M05 Q0992=",
            "ENOL 142350Z 09005KT 6000 -SHSN FEW008 SCT016CB BKN025 M04/M05 Q0992=",
            "",
            ""
        ]
    },
    {
        "metar": [
            "ENOL 150020Z 11003KT 6000 -SHSN SCT020CB BKN050 M04/M05 Q0993=",
            "ENOL 150050Z VRB02KT 9999 BKN040 M05/M05 Q0993=",
            "ENOL 150120Z 11003KT CAVOK M06/M07 Q0993=",
            "ENOL 150150Z 11003KT CAVOK M06/M09 Q0993=",
            "ENOL 150220Z 11003KT CAVOK M08/M10 Q0993=",
            "ENOL 150250Z 11004KT CAVOK M08/M11 Q0993=",
            "ENOL 150320Z 10005KT CAVOK M07/M08 Q0993=",
            "ENOL 150350Z 11004KT CAVOK M07/M10 Q0993=",
            "ENOL 150420Z 10005KT CAVOK M07/M08 Q0993=",
            "ENOL 150450Z 10004KT CAVOK M07/M08 Q0993=",
            "ENOL 150520Z 10006KT 9999 FEW030 M08/M09 Q0993 NOSIG=",
            "ENOL 150550Z 09007KT 9999 FEW030 M07/M09 Q0993 NOSIG=",
            "ENOL 150620Z 07005KT 9999 FEW040 M08/M10 Q0993 NOSIG=",
            "ENOL 150650Z 07006KT 9999 FEW040 M08/M10 Q0994 NOSIG=",
            "ENOL 150720Z 09007KT 9999 FEW040 M08/M10 Q0994 NOSIG=",
            "ENOL 150750Z 10007KT 9999 FEW012 M08/M10 Q0994 NOSIG=",
            "ENOL 150820Z 09007KT 9999 VCSH FEW010 M09/M11 Q0994 NOSIG=",
            "ENOL 150850Z 09006KT 9999 VCSH FEW010 M08/M11 Q0995 NOSIG=",
            "ENOL 150920Z 09005KT 9999 FEW014 M09/M12 Q0995 NOSIG=",
            "ENOL 150950Z 07005KT 9999 FEW015 M10/M11 Q0995 NOSIG=",
            "ENOL 151020Z 07008KT 9999 FEW012 M10/M11 Q0995 NOSIG=",
            "ENOL 151050Z 07007KT 9999 FEW012 M09/M11 Q0995 NOSIG=",
            "ENOL 151120Z 07006KT 9999 FEW012 M09/M11 Q0995 NOSIG=",
            "ENOL 151150Z 07007KT 9999 FEW014 M10/M13 Q0996 NOSIG=",
            "ENOL 151220Z 06006KT 9999 FEW014 M09/M11 Q0996 NOSIG=",
            "ENOL 151250Z 06008KT 9999 FEW010 M10/M12 Q0996 NOSIG=",
            "ENOL 151320Z 06008KT 9999 FEW010 M10/M13 Q0996 NOSIG=",
            "ENOL 151350Z 07007KT 9999 FEW010 M10/M13 Q0996 NOSIG=",
            "ENOL 151420Z 07008KT 9999 FEW010 M11/M14 Q0996 NOSIG=",
            "ENOL 151450Z 07007KT 9999 FEW012 M11/M14 Q0997 NOSIG=",
            "ENOL 151520Z 07004KT 9999 FEW012 M11/M13 Q0997 NOSIG=",
            "ENOL 151550Z 08005KT 9999 VCFG FEW012 M10/M13 Q0997 NOSIG=",
            "ENOL 151620Z 12006KT 9999 FEW012 M08/M10 Q0997 NOSIG=",
            "ENOL 151650Z 07006KT 9999 FEW012 M09/M12 Q0997 NOSIG=",
            "ENOL 151720Z 10007KT 9999 FEW012 M10/M13 Q0997 NOSIG=",
            "ENOL 151750Z 09007KT 9999 FEW012 M08/M10 Q0997 NOSIG=",
            "ENOL 151820Z 13009KT 9999 FEW012 M08/M10 Q0997 NOSIG=",
            "ENOL 151850Z 14009KT 9999 FEW012 M07/M09 Q0997 NOSIG=",
            "ENOL 151920Z 14010KT 9999 FEW010 M07/M09 Q0996 NOSIG=",
            "ENOL 151950Z 14010KT 9999 FEW010 M07/M09 Q0996 NOSIG=",
            "ENOL 152020Z 13011KT 9999 FEW012 M07/M09 Q0996 NOSIG=",
            "ENOL 152050Z 13012KT 9999 FEW010 M07/M08 Q0996 NOSIG=",
            "ENOL 152120Z 14011KT 9999 FEW010 M07/M08 Q0996 NOSIG=",
            "ENOL 152150Z 14011KT 9999 FEW010 M07/M08 Q0996 NOSIG=",
            "ENOL 152220Z 13013KT 9999 FEW010 BKN060 M07/M08 Q0995=",
            "ENOL 152250Z 14011KT 9999 FEW015 BKN075 M06/M08 Q0995=",
            "ENOL 152320Z 14010KT 9999 FEW030 BKN080 M06/M08 Q0995=",
            "ENOL 152350Z 14011KT 9999 FEW030 BKN075 M06/M08 Q0994=",
            "",
            ""
        ]
    },
    {
        "metar": [
            "ENOL 160020Z 15008KT 9999 FEW030 BKN070 M05/M07 Q0994=",
            "ENOL 160050Z 13009KT 9999 FEW015 SCT035 BKN050 M05/M07 Q0994=",
            "ENOL 160120Z 14010KT 9999 FEW015 SCT035 BKN050 M05/M07 Q0993=",
            "ENOL 160150Z 19009KT 140V220 1000 SHSN VV012 M04/M06 Q0993=",
            "ENOL 160220Z 22013KT 9999 -SHSN SCT012 BKN025 M03/M05 Q0993 RESHSN=",
            "ENOL 160250Z 18011KT 9999 -SHSN FEW012CB BKN025 M03/M06 Q0992=",
            "ENOL 160320Z 16009KT 9999 VCSH FEW012CB BKN045 M05/M07 Q0992=",
            "ENOL 160350Z 16008KT 120V190 9999 VCSH FEW012CB BKN030 M05/M07 Q0992=",
            "ENOL 160420Z 15010KT 9999 -SHSN FEW012CB BKN025 M05/M07 Q0992=",
            "ENOL 160450Z 13010KT 9999 VCSH FEW012CB BKN025 M05/M07 Q0991=",
            "ENOL 160520Z 13010KT 9999 -SHSN FEW012CB BKN025 M05/M07 Q0991 BECMG 22015KT TEMPO 0800 SHSN VV006=",
            "ENOL 160550Z 13009KT 9999 -SHSN FEW008 SCT012CB BKN022 M05/M07 Q0991 BECMG 22015KT TEMPO 0800 SHSN VV006=",
            "ENOL 160620Z 13009KT 2000 -SHSN VV014 M05/M06 Q0991 TEMPO 22015KT 0800 SHSN VV006=",
            "ENOL 160650Z 14009KT 2000 -SHSN VV012 M05/M06 Q0991 TEMPO 22015KT 0800 SHSN VV006=",
            "ENOL 160720Z 13007KT 4000 -SHSN FEW008 BKN016CB M05/M05 Q0990 TEMPO 24015KT 0800 SHSN VV006=",
            "ENOL 160720Z 13007KT 4000 -SHSN FEW008 BKN016CB M05/M05 Q0990 TEMPO 24015KT 0800 SHSN VV006=",
            "ENOL 160750Z 17007KT 9999 -SHSN FEW008 BKN015CB M04/M05 Q0990 TEMPO 24015KT 0800 SHSN VV006=",
            "ENOL 160820Z 23014KT 9999 VCSH FEW008 SCT012CB BKN018 M02/M03 Q0990 TEMPO 0800 SHSN VV006=",
            "ENOL 160850Z 23016KT 9999 VCSH FEW010 SCT012CB BKN020 M02/M04 Q0990 TEMPO 0800 SHSN VV006=",
            "ENOL 160920Z 24015KT 9999 VCSH FEW010 SCT012CB BKN016 M02/M04 Q0989 TEMPO 0800 SHSN VV006=",
            "ENOL 160950Z 23019KT 9999 VCSH SCT015CB BKN023 M02/M04 Q0989 TEMPO 0800 SHSN VV006=",
            "ENOL 161020Z 24017KT 1200 -SHSN VV010 M02/M04 Q0989 TEMPO 0800 SHSN VV006=",
            "ENOL 161020Z 24017KT 1200 -SHSN VV010 M02/M04 Q0989 TEMPO 0800 SHSN VV006=",
            "ENOL 161050Z 23016KT 1200 SHSN VV010 M02/M04 Q0989 TEMPO 0800 SHSN VV006=",
            "ENOL 161120Z 24017KT 3000 -SHSN VV015 M02/M03 Q0989 TEMPO 0800 SHSN VV006=",
            "ENOL 161150Z 24020KT 9999 -SHSN FEW010 SCT017CB BKN021 M02/M03 Q0989 TEMPO 0800 SHSN VV006=",
            "ENOL 161220Z 24018KT 0700 SHSN FEW010 SCT012CB BKN015 M02/M03 Q0989 TEMPO 0800 SHSN VV006=",
            "ENOL 161220Z 24018KT 0700 SHSN FEW010 SCT012CB BKN015 M02/M03 Q0989 TEMPO 0800 SHSN VV006=",
            "ENOL 161250Z 23019KT 0700 +SHSN VV009 M02/M03 Q0989 TEMPO 0800 SHSN VV006=",
            "ENOL 161320Z 24018KT 2000 -SHSN VV014 M02/M03 Q0988 TEMPO 0500 +SHSN VV004=",
            "ENOL 161350Z 22014KT 3000 -SHSN VV014 M02/M03 Q0988 TEMPO 0500 +SHSN VV004=",
            "ENOL 161420Z 22014KT 9999 VCSH FEW010 BKN015 M02/M03 Q0987 TEMPO 0500 +SHSN VV004=",
            "ENOL 161450Z 23014KT 9999 VCSH FEW010 BKN015 M02/M04 Q0987 TEMPO 0500 +SHSN VV004=",
            "ENOL 161520Z 24015KT 9999 VCSH FEW010 BKN015 M01/M03 Q0987 TEMPO 0500 +SHSN VV004=",
            "ENOL 161550Z 24016KT 9999 FEW010 SCT015 M01/M03 Q0987 TEMPO SCT015CB=",
            "ENOL 161620Z 24014KT 9999 FEW010 SCT030 M02/M03 Q0986 TEMPO SCT015CB=",
            "ENOL 161650Z 22010KT 9999 FEW014 SCT020 M02/M03 Q0986 TEMPO SCT015CB=",
            "ENOL 161720Z 17007KT 9999 FEW014 BKN025 M03/M05 Q0986 NOSIG=",
            "ENOL 161750Z 14009KT 9999 BKN025 M03/M05 Q0986 NOSIG=",
            "ENOL 161820Z 13011KT 9999 BKN025 M03/M05 Q0986 NOSIG=",
            "ENOL 161850Z 13011KT 9999 BKN020 M03/M05 Q0986 NOSIG=",
            "ENOL 161920Z 14012KT 9999 BKN020 M03/M06 Q0986 NOSIG=",
            "ENOL 161950Z 14013KT 9999 BKN022 M04/M06 Q0986 NOSIG=",
            "ENOL 162020Z 14014KT 9999 BKN022 M04/M07 Q0985 NOSIG=",
            "ENOL 162050Z 13013KT 9999 SCT022 BKN045 M04/M08 Q0985 NOSIG=",
            "ENOL 162120Z 13013KT 9999 BKN028 M04/M09 Q0985 NOSIG=",
            "ENOL 162150Z 13015KT 9999 BKN022 M04/M09 Q0985 TEMPO 4000 -SHSN VV014=",
            "ENOL 162220Z 13015KT 9999 VCSH BKN020 M04/M09 Q0985=",
            "ENOL 162250Z 13014KT 9999 VCSH BKN040 M05/M09 Q0985=",
            "ENOL 162320Z 13015KT 9999 FEW040 SCT060 M05/M09 Q0985=",
            "ENOL 162350Z 12010KT CAVOK M05/M09 Q0985=",
            "",
            ""
        ]
    },
    {
        "metar": [
            "ENOL 170020Z 13015KT CAVOK M05/M09 Q0984=",
            "ENOL 170050Z 13014KT CAVOK M05/M10 Q0984=",
            "ENOL 170120Z 13014KT 9999 -SHSN FEW020CB BKN050 M05/M09 Q0984=",
            "ENOL 170150Z 12015KT 9999 VCSH FEW040 BKN050 M05/M10 Q0984=",
            "ENOL 170220Z 10012KT 9999 VCSH FEW040 BKN055 M06/M10 Q0984=",
            "ENOL 170250Z 11012KT 9999 VCSH FEW040 BKN055 M06/M10 Q0984=",
            "ENOL 170320Z 10011KT 9999 VCSH FEW040 BKN057 M06/M10 Q0984=",
            "ENOL 170350Z 10014KT CAVOK M06/M10 Q0984=",
            "ENOL 170350Z 10014KT CAVOK M06/M10 Q0984=",
            "ENOL 170420Z 10013KT CAVOK M07/M10 Q0984=",
            "ENOL 170450Z 11012KT 9999 BKN045 M07/M10 Q0984=",
            "ENOL 170520Z 10014KT 9999 SCT045 BKN080 M07/M11 Q0984 NOSIG=",
            "ENOL 170550Z 11014KT 9999 FEW040 BKN075 M07/M11 Q0984 NOSIG=",
            "ENOL 170620Z 09011KT 9999 FEW025 BKN050 M07/M11 Q0984 NOSIG=",
            "ENOL 170650Z 09010KT 9999 FEW040 SCT080 M08/M12 Q0984 NOSIG=",
            "ENOL 170720Z 10011KT 9999 FEW040 SCT080 M08/M12 Q0984 NOSIG=",
            "ENOL 170750Z 10011KT 9999 FEW020 SCT055 M08/M12 Q0984 NOSIG=",
            "ENOL 170820Z 08009KT 9999 VCSH BKN028 M09/M12 Q0985 NOSIG=",
            "ENOL 170850Z 08008KT 9999 VCSH BKN040 M09/M12 Q0985 NOSIG=",
            "ENOL 170920Z 06008KT 9999 VCSH BKN040 M09/M13 Q0985 BECMG 12010KT=",
            "ENOL 170950Z 09007KT 9999 VCSH BKN040 M10/M13 Q0985 NOSIG=",
            "ENOL 171020Z 10008KT 9999 FEW020 SCT045 M09/M13 Q0985 NOSIG=",
            "ENOL 171050Z 11008KT 9999 FEW020 SCT040 M09/M13 Q0985 NOSIG=",
            "ENOL 171120Z 13013KT 9999 FEW020 SCT045 M09/M12 Q0984 NOSIG=",
            "ENOL 171150Z 13013KT 9999 VCSH FEW015 BKN040 M09/M12 Q0984 NOSIG=",
            "ENOL 171220Z 11011KT 9999 VCSH FEW020 BKN060 M09/M13 Q0985 NOSIG=",
            "ENOL 171250Z 11010KT 9999 VCSH FEW020 BKN080 M10/M13 Q0985 NOSIG=",
            "ENOL 171320Z 11011KT 9999 VCSH FEW020 BKN100 M09/M13 Q0985 NOSIG=",
            "ENOL 171350Z 11010KT 9999 VCSH FEW020 SCT060 M10/M13 Q0985 NOSIG=",
            "ENOL 171420Z 12014KT 9999 VCSH FEW012 SCT060 M10/M13 Q0985 NOSIG=",
            "ENOL 171450Z 12014KT 9999 FEW012 M10/M13 Q0985 NOSIG=",
            "ENOL 171520Z 13015KT 9999 FEW012 M10/M13 Q0985 NOSIG=",
            "ENOL 171550Z 13014KT 9999 FEW012 M10/M13 Q0985 NOSIG=",
            "ENOL 171620Z 13012KT 9999 FEW012 M10/M12 Q0985 NOSIG=",
            "ENOL 171650Z 13014KT 9999 FEW012 M09/M12 Q0985 NOSIG=",
            "ENOL 171720Z 13014KT 9999 SCT010 M09/M11 Q0984 NOSIG=",
            "ENOL 171750Z 12014KT 9999 SCT010 M09/M11 Q0984 NOSIG=",
            "ENOL 171820Z 11014KT 9999 SCT010 M10/M12 Q0984 NOSIG=",
            "ENOL 171850Z 11013KT 9999 FEW010 M10/M12 Q0985 NOSIG=",
            "ENOL 171920Z 11014KT 9999 SCT010 M10/M12 Q0985 NOSIG=",
            "ENOL 171950Z 11011KT 9999 SCT010 M10/M12 Q0985 NOSIG=",
            "ENOL 172020Z 11013KT 9999 FEW010 M10/M12 Q0985 NOSIG=",
            "ENOL 172050Z 11012KT 9999 FEW009 M10/M12 Q0985 NOSIG=",
            "ENOL 172120Z 12013KT 9999 FEW009 M10/M12 Q0985 NOSIG=",
            "ENOL 172150Z 11012KT 9999 FEW008 M10/M12 Q0985 NOSIG=",
            "ENOL 172220Z 11012KT 9999 FEW008 M10/M12 Q0984=",
            "ENOL 172250Z 10008KT 9999 FEW010 M10/M12 Q0984=",
            "ENOL 172320Z 08008KT 9999 FEW010 M10/M12 Q0984=",
            "ENOL 172350Z 07009KT 9999 FEW010 M13/M16 Q0985=",
            "",
            ""
        ]
    },
    {
        "metar": [
            "ENOL 180020Z 07010KT 9999 FEW010 M13/M16 Q0985=",
            "ENOL 180050Z 07008KT 9999 SCT010 M13/M16 Q0985=",
            "ENOL 180120Z 08008KT 9999 SCT010 M13/M16 Q0985=",
            "ENOL 180150Z 09010KT 9999 FEW010 M13/M14 Q0985=",
            "ENOL 180220Z 09005KT 9999 FEW010 M13/M15 Q0986=",
            "ENOL 180250Z 07007KT 9999 SCT010 M13/M15 Q0986=",
            "ENOL 180320Z 08007KT 9999 SCT010 M12/M14 Q0986=",
            "ENOL 180350Z 07006KT 9999 FEW010 M13/M14 Q0986=",
            "ENOL 180420Z 07008KT 9999 FEW010 M13/M15 Q0986=",
            "ENOL 180450Z 06008KT 9999 SCT010 M13/M15 Q0986=",
            "ENOL 180520Z 07007KT 9999 FEW010 M13/M15 Q0986 NOSIG=",
            "ENOL 180550Z 06007KT 9999 FEW010 M14/M15 Q0986 NOSIG=",
            "ENOL 180620Z 07008KT 9999 FEW010 M14/M15 Q0986 NOSIG=",
            "ENOL 180650Z 06006KT 9999 FEW006 M14/M15 Q0986 NOSIG=",
            "ENOL 180720Z 09007KT 9999 FEW010 M13/M14 Q0986 NOSIG=",
            "ENOL 180750Z 06006KT 9999 FEW010 M10/M12 Q0987 NOSIG=",
            "ENOL 180820Z 07006KT 9999 FEW010 M09/M12 Q0987 NOSIG=",
            "ENOL 180850Z 09006KT 9999 VCFG FEW010 M09/M12 Q0987 NOSIG=",
            "ENOL 180920Z 07008KT 9999 VCFG FEW010 M09/M11 Q0987 NOSIG=",
            "ENOL 180950Z 07008KT 9999 FEW010 M09/M11 Q0987 NOSIG=",
            "ENOL 181020Z 11010KT 9999 FEW010 M09/M11 Q0987 NOSIG=",
            "ENOL 181050Z 10009KT 9999 SCT010 M08/M11 Q0987 NOSIG=",
            "ENOL 181120Z 12011KT 9999 FEW010 M09/M11 Q0987 NOSIG=",
            "ENOL 181150Z 13015KT 9999 FEW008 M09/M11 Q0987 NOSIG=",
            "ENOL 181220Z 13015KT 9999 FEW008 M09/M11 Q0987 NOSIG=",
            "ENOL 181250Z 12015KT 9999 FEW008 M08/M10 Q0987 NOSIG=",
            "ENOL 181320Z 12014KT 9999 SCT010 M08/M11 Q0987 NOSIG=",
            "ENOL 181350Z 12014KT 9999 FEW010 M08/M11 Q0987 NOSIG=",
            "ENOL 181420Z 12016KT 9999 FEW010 M09/M11 Q0987 NOSIG=",
            "ENOL 181450Z 12017KT 9999 FEW010 SCT170 M08/M10 Q0986 NOSIG=",
            "ENOL 181520Z 12017KT 9999 FEW010 SCT160 M08/M10 Q0987 NOSIG=",
            "ENOL 181550Z 12017KT 9999 FEW010 SCT160 M08/M11 Q0987 NOSIG=",
            "ENOL 181620Z 12018KT 9999 FEW010 SCT160 M08/M10 Q0987 NOSIG=",
            "ENOL 181650Z 12017KT 9999 FEW010 M08/M10 Q0987 NOSIG=",
            "ENOL 181720Z 12018KT 9999 FEW010 M08/M10 Q0986 NOSIG=",
            "ENOL 181750Z 12018KT 9999 FEW010 BKN140 M08/M10 Q0987 NOSIG=",
            "ENOL 181820Z 12018KT 9999 FEW020 BKN039 M08/M10 Q0987 NOSIG=",
            "ENOL 181850Z 12017KT 9999 BKN019 M08/M10 Q0987 NOSIG=",
            "ENOL 181920Z 11014KT 9999 SCT018 BKN032 M08/M10 Q0987 NOSIG=",
            "ENOL 181950Z 12017KT 3000 VV012 M08/M10 Q0987 TEMPO BKN030=",
            "ENOL 181950Z 12017KT 3000 -SHSN VV012 M08/M10 Q0987 TEMPO BKN030=",
            "ENOL 182020Z 12019KT 5000 -SHSN BKN020 M08/M10 Q0987 TEMPO 1500 SHSN VV008=",
            "ENOL 182050Z 12016KT 8000 -SHSN SCT020CB BKN026 M08/M10 Q0987 TEMPO 1500 SHSN VV008=",
            "ENOL 182120Z 12017KT 9999 DRSN FEW015CB SCT040 M07/M10 Q0987 TEMPO 1500 SHSN VV008=",
            "ENOL 182150Z 12014KT 9999 BKN025 M07/M10 Q0988 TEMPO 1500 SHSN VV008=",
            "ENOL 182220Z 12017KT 9999 BKN022 M07/M10 Q0988=",
            "ENOL 182250Z 12017KT 9999 FEW010 BKN022 M07/M10 Q0988=",
            "ENOL 182320Z 13019KT 9999 FEW010 BKN024 M07/M10 Q0988=",
            "ENOL 182350Z 13019KT 9999 DRSN FEW014 SCT020 BKN070 M07/M09 Q0988=",
            "",
            ""
        ]
    },
    {
        "metar": [
            "ENOL 190020Z 12017KT 9999 FEW012 SCT040 BKN070 M07/M10 Q0988=",
            "ENOL 190050Z 11014KT 9999 FEW012 BKN020 M08/M10 Q0988=",
            "ENOL 190120Z 12017KT 9999 FEW012 BKN020 M08/M10 Q0989=",
            "ENOL 190150Z 11015KT 9999 FEW012 BKN020 M07/M10 Q0989=",
            "ENOL 190220Z 11016KT 9999 FEW012 SCT025 M08/M10 Q0989=",
            "ENOL 190250Z 11014KT 9999 FEW012 BKN028 M08/M10 Q0989=",
            "ENOL 190320Z 13017KT 9999 FEW012 BKN030 M07/M10 Q0989=",
            "ENOL 190350Z 12018KT 9999 FEW012 BKN030 M07/M10 Q0989=",
            "ENOL 190420Z 11013KT 9999 FEW012 BKN030 M08/M10 Q0990=",
            "ENOL 190450Z 12016KT 9999 FEW012 BKN030 M07/M10 Q0990=",
            "ENOL 190520Z 11016KT 9999 FEW012 SCT030 M08/M10 Q0990=",
            "ENOL 190550Z 11013KT 9999 FEW012 M08/M10 Q0991=",
            "ENOL 190620Z 11015KT 9999 FEW012 M08/M10 Q0991 NOSIG=",
            "ENOL 190650Z 12014KT 9999 FEW012 M08/M10 Q0991 NOSIG=",
            "ENOL 190720Z 11015KT 9999 FEW020 M07/M10 Q0991 NOSIG=",
            "ENOL 190750Z 11014KT 9999 FEW020 M08/M10 Q0992 NOSIG=",
            "ENOL 190820Z 11014KT 9999 FEW020 M07/M09 Q0992 NOSIG=",
            "ENOL 190850Z 13016KT 9999 FEW030 M07/M09 Q0992 NOSIG=",
            "ENOL 190920Z 12013KT 9999 FEW030 M07/M09 Q0993 NOSIG=",
            "ENOL 190950Z 11014KT 9999 FEW030 M07/M09 Q0993 NOSIG=",
            "ENOL 191020Z 10013KT 9999 FEW020 M07/M10 Q0994 NOSIG=",
            "ENOL 191050Z 09009KT 9999 FEW040 M08/M11 Q0994 NOSIG=",
            "ENOL 191120Z 10010KT 9999 SCT040 M07/M10 Q0995 NOSIG=",
            "ENOL 191150Z 11011KT 9999 FEW010 SCT040 M07/M09 Q0995 NOSIG=",
            "ENOL 191220Z 11011KT 9999 FEW010 SCT040 M07/M09 Q0995 NOSIG=",
            "ENOL 191250Z 11011KT 9999 FEW012 M07/M09 Q0995 NOSIG=",
            "ENOL 191320Z 11010KT 9999 FEW012 M07/M09 Q0996 NOSIG=",
            "ENOL 191350Z 11011KT 9999 FEW012 M06/M08 Q0996 NOSIG=",
            "ENOL 191420Z 13013KT 9999 FEW012 M07/M09 Q0997 NOSIG=",
            "ENOL 191450Z 12010KT 9999 FEW012 M07/M08 Q0997 NOSIG=",
            "ENOL 191520Z 11008KT 9999 FEW012 M06/M08 Q0998 NOSIG=",
            "ENOL 191550Z 11010KT 9999 FEW012 M07/M09 Q0998 NOSIG=",
            "ENOL 191620Z 07007KT 9999 FEW012 M09/M11 Q0998 NOSIG=",
            "ENOL 191650Z 08008KT 9999 FEW012 M08/M10 Q0999 NOSIG=",
            "ENOL 191720Z 06010KT 9999 FEW012 M08/M10 Q0999 NOSIG=",
            "ENOL 191750Z 08008KT 9999 FEW012 M08/M10 Q0999 NOSIG=",
            "ENOL 191820Z 08008KT 9999 FEW012 M08/M10 Q1000 NOSIG=",
            "ENOL 191850Z 08007KT 9999 FEW012 M07/M08 Q1000 NOSIG=",
            "ENOL 191920Z 07006KT 9999 FEW012 M09/M11 Q1001 NOSIG=",
            "ENOL 191950Z 09008KT 9999 FEW012 M09/M11 Q1001 NOSIG=",
            "ENOL 192020Z 09008KT 9999 FEW012 M08/M10 Q1002 NOSIG=",
            "ENOL 192050Z 08007KT 9999 FEW012 M08/M09 Q1002 NOSIG=",
            "ENOL 192120Z 11008KT 9999 FEW012 M06/M08 Q1003 NOSIG=",
            "ENOL 192150Z 11008KT 9999 FEW012 M06/M08 Q1003 NOSIG=",
            "ENOL 192220Z 13011KT 9999 FEW012 M07/M08 Q1003=",
            "ENOL 192250Z 12009KT 9999 FEW012 M06/M08 Q1003=",
            "ENOL 192320Z 12008KT 9999 FEW012 M06/M08 Q1004=",
            "ENOL 192350Z 11008KT 9999 FEW012 M06/M08 Q1004=",
            "",
            ""
        ]
    },
    {
        "metar": [
            "ENOL 200020Z 12010KT 9999 FEW012 M07/M08 Q1004=",
            "ENOL 200050Z 12010KT 9999 FEW012 M06/M08 Q1005=",
            "ENOL 200120Z 12008KT 9999 FEW012 M07/M08 Q1005=",
            "ENOL 200150Z 12009KT 9999 FEW012 M06/M08 Q1005=",
            "ENOL 200220Z 13010KT 9999 FEW012 M06/M07 Q1005=",
            "ENOL 200250Z 12011KT 9999 FEW010 M06/M07 Q1006=",
            "ENOL 200320Z 13010KT 9999 FEW010 M06/M07 Q1006=",
            "ENOL 200350Z 13011KT 9999 FEW010 M06/M07 Q1006=",
            "ENOL 200420Z 13012KT 9999 FEW010 M06/M07 Q1006=",
            "ENOL 200450Z 13012KT 9999 FEW010 M06/M07 Q1006=",
            "ENOL 200520Z 12011KT 9999 FEW010 M06/M07 Q1006 NOSIG=",
            "ENOL 200550Z 12010KT 9999 FEW010 M06/M07 Q1007 NOSIG=",
            "ENOL 200620Z 13012KT 9999 FEW010 M06/M07 Q1007 NOSIG=",
            "ENOL 200650Z 13013KT 9999 FEW010 M06/M07 Q1007 NOSIG=",
            "ENOL 200720Z 13014KT 9999 FEW008 M06/M07 Q1007 NOSIG=",
            "ENOL 200750Z 12011KT 9999 FEW008 M05/M07 Q1008 NOSIG=",
            "ENOL 200820Z 13011KT 9999 FEW008 M06/M07 Q1008 NOSIG=",
            "ENOL 200850Z 13013KT 9999 FEW008 SCT250 M05/M07 Q1008 NOSIG=",
            "ENOL 200920Z 12014KT 9999 FEW008 SCT250 M05/M07 Q1008 NOSIG=",
            "ENOL 200950Z 13017KT 9999 FEW010 M05/M07 Q1008 NOSIG=",
            "ENOL 201020Z 13016KT 9999 FEW010 M05/M07 Q1008 NOSIG=",
            "ENOL 201050Z 12019KT CAVOK M05/M07 Q1008 NOSIG=",
            "ENOL 201120Z 12017KT CAVOK M05/M07 Q1008 NOSIG=",
            "ENOL 201150Z 13018KT CAVOK M04/M07 Q1007 NOSIG=",
            "ENOL 201220Z 13017KT CAVOK M05/M08 Q1007 NOSIG=",
            "ENOL 201250Z 13020KT 9999 DRSN NSC M05/M08 Q1007 NOSIG=",
            "ENOL 201320Z 13022KT 9999 DRSN NSC M04/M08 Q1006 NOSIG=",
            "ENOL 201350Z 13024KT 9999 DRSN NSC M04/M08 Q1005 NOSIG=",
            "ENOL 201420Z 14019KT 9999 DRSN NSC M04/M09 Q1005 NOSIG=",
            "ENOL 201450Z 14021KT CAVOK M04/M09 Q1005 NOSIG=",
            "ENOL 201520Z 13022KT CAVOK M03/M09 Q1005 NOSIG=",
            "ENOL 201550Z 13023KT CAVOK M03/M06 Q1004 NOSIG=",
            "ENOL 201620Z 13024KT CAVOK M03/M09 Q1003 NOSIG=",
            "ENOL 201650Z 13023KT CAVOK M03/M09 Q1003 NOSIG=",
            "ENOL 201720Z 13020KT CAVOK M03/M08 Q1003 NOSIG=",
            "ENOL 201750Z 13018KT CAVOK M02/M08 Q1003 NOSIG=",
            "ENOL 201820Z 13018KT 9999 BKN048 M02/M07 Q1003 NOSIG=",
            "ENOL 201850Z 14019KT 9999 BKN042 M03/M07 Q1003 NOSIG=",
            "ENOL 201920Z 13019KT 8000 -SN VV023 M03/M06 Q1002 NOSIG=",
            "ENOL 201950Z 13021KT 9999 FEW014 BKN034 M02/M05 Q1001 NOSIG=",
            "ENOL 202020Z 13021KT 9999 FEW014 BKN034 M02/M05 Q1001 NOSIG=",
            "ENOL 202050Z 13022KT 9999 BKN036 M02/M04 Q1001 NOSIG=",
            "ENOL 202120Z 13021KT 9999 BKN041 M02/M04 Q1001 NOSIG=",
            "ENOL 202150Z 13024KT 9999 SCT042 BKN094 M02/M05 Q1001 NOSIG=",
            "ENOL 202220Z 13022KT 9999 FEW040 BKN080 M01/M04 Q1000=",
            "ENOL 202250Z 13024KT 9999 FEW030 SCT050 BKN080 M01/M04 Q1000=",
            "ENOL 202320Z 13025KT 9999 FEW045 SCT080 M01/M04 Q1000=",
            "ENOL 202350Z 13027KT 9999 DRSN FEW045 SCT060 M00/M04 Q1000=",
            "",
            ""
        ]
    },
    {
        "metar": [
            "ENOL 210020Z 13025KT 9999 DRSN FEW045 SCT200 M00/M04 Q0999=",
            "ENOL 210050Z 13023KT 9999 DRSN FEW045 SCT200 M00/M04 Q0999=",
            "ENOL 210120Z 13024KT 9999 DRSN FEW045 SCT250 M00/M04 Q0999=",
            "ENOL 210150Z 12017KT 9999 FEW045 SCT250 00/M04 Q0998=",
            "ENOL 210220Z 12018KT 9999 FEW045 BKN250 00/M04 Q0999=",
            "ENOL 210250Z 14020KT 9999 FEW045 SCT150 BKN200 01/M05 Q0998=",
            "ENOL 210320Z 12017KT 9999 FEW045 SCT150 BKN200 01/M05 Q0997=",
            "ENOL 210350Z 12022KT 9999 FEW045 SCT080 BKN200 01/M04 Q0997=",
            "ENOL 210420Z 12020KT 9999 FEW045 SCT065 BKN180 01/M05 Q0996 TEMPO 13025G35KT=",
            "ENOL 210450Z 12022KT 9999 FEW045 BKN065 01/M04 Q0996 TEMPO 13025G35KT=",
            "ENOL 210520Z 10022KT 9999 FEW035 BKN064 01/M04 Q0993 TEMPO 13025G35KT=",
            "ENOL 210550Z 11025G37KT 9999 FEW035 BKN061 01/M04 Q0992 TEMPO 13025G35KT=",
            "ENOL 210620Z 10022KT 9999 FEW035 01/M04 Q0993 TEMPO 13025G35KT=",
            "ENOL 210650Z 13026KT 9999 FEW035 BKN064 01/M04 Q0992 TEMPO 13025G35KT=",
            "ENOL 210720Z 13026KT 9999 FEW035 BKN064 01/M04 Q0992 TEMPO 13025G35KT=",
            "ENOL 210750Z 13028G39KT 9999 FEW040 BKN062 02/M04 Q0992 BECMG 13022KT=",
            "ENOL 210820Z 13027KT 9999 FEW045 BKN072 02/M04 Q0991 TEMPO 13025G35KT=",
            "ENOL 210850Z 13030KT CAVOK 02/M03 Q0990 TEMPO 13025G35KT=",
            "ENOL 210920Z 13027G38KT CAVOK 02/M03 Q0990 BECMG 13022KT=",
            "ENOL 210950Z 13029KT CAVOK 02/M03 Q0989 BECMG 13022KT=",
            "ENOL 211020Z 13030G41KT CAVOK 03/M03 Q0989 BECMG 13022KT=",
            "ENOL 211050Z 13029KT CAVOK 03/M03 Q0988 TEMPO 13025G35KT=",
            "ENOL 211120Z 13025G35KT CAVOK 03/M03 Q0988 BECMG 13022KT=",
            "ENOL 211150Z 13026KT CAVOK 03/M03 Q0988 TEMPO 13025G35KT=",
            "ENOL 211220Z 13021KT CAVOK 03/M03 Q0988 TEMPO 13025G35KT=",
            "ENOL 211250Z 13017KT CAVOK 03/M03 Q0988 NOSIG=",
            "ENOL 211320Z 13015KT CAVOK 03/M02 Q0988 NOSIG=",
            "ENOL 211350Z 14015KT CAVOK 03/M02 Q0988 NOSIG=",
            "ENOL 211420Z 15014KT 9999 FEW040 SCT060 BKN100 04/M02 Q0988 NOSIG=",
            "ENOL 211450Z 16008KT 9999 FEW040 SCT050 BKN060 04/M01 Q0989 NOSIG=",
            "ENOL 211520Z 18005KT 9999 VCSH NSC 04/M01 Q0989 NOSIG=",
            "ENOL 211550Z 13010KT CAVOK 04/M01 Q0989 NOSIG=",
            "ENOL 211620Z 14011KT CAVOK 03/M01 Q0989 NOSIG=",
            "ENOL 211650Z 13011KT CAVOK 03/M01 Q0989 NOSIG=",
            "ENOL 211720Z 14010KT CAVOK 03/M01 Q0989 NOSIG=",
            "ENOL 211750Z 13014KT CAVOK 03/M01 Q0989 NOSIG=",
            "ENOL 211820Z 14013KT CAVOK 03/M02 Q0989 NOSIG=",
            "ENOL 211850Z 14014KT CAVOK 03/M02 Q0989 NOSIG=",
            "ENOL 211920Z 13015KT CAVOK 03/M02 Q0988 NOSIG=",
            "ENOL 211950Z 13015KT CAVOK 03/M02 Q0988 NOSIG=",
            "ENOL 212020Z 14014KT CAVOK 03/M02 Q0988 NOSIG=",
            "ENOL 212050Z 13015KT CAVOK 02/M02 Q0987 NOSIG=",
            "ENOL 212120Z 13016KT CAVOK 03/M03 Q0987 NOSIG=",
            "ENOL 212150Z 13018KT CAVOK 03/M03 Q0986 NOSIG=",
            "ENOL 212220Z 14023KT CAVOK 03/M03 Q0986=",
            "ENOL 212250Z 13025KT CAVOK 03/M03 Q0985=",
            "ENOL 212320Z 14026KT CAVOK 03/M03 Q0984=",
            "ENOL 212350Z 14024KT CAVOK 03/M03 Q0982=",
            "",
            ""
        ]
    },
    {
        "metar": [
            "ENOL 220020Z 14025KT CAVOK 03/M03 Q0980=",
            "ENOL 220050Z 13022G32KT CAVOK 03/M03 Q0979=",
            "ENOL 220120Z 12020KT CAVOK 03/M03 Q0977=",
            "ENOL 220150Z 14027G37KT CAVOK 03/M03 Q0976=",
            "ENOL 220220Z 13024G34KT 9999 -SNRA SCT015 BKN020 02/M01 Q0974=",
            "ENOL 220250Z 12024KT 3000 -SNRA VV012 01/M00 Q0971=",
            "ENOL 220320Z 11024G34KT 9999 VCSH SCT010 BKN075 02/M00 Q0969=",
            "ENOL 220350Z 12026KT 9999 -RASN SCT014 BKN060 03/M01 Q0966=",
            "ENOL 220420Z 12029KT 9999 -RA FEW014 SCT060 BKN080 04/M01 Q0965=",
            "ENOL 220450Z 12026G36KT 9999 -RA FEW014 SCT060 04/M01 Q0964=",
            "ENOL 220520Z 12027G39KT 9999 VCSH FEW014 SCT065 05/M01 Q0963 TEMPO 14025KT=",
            "ENOL 220550Z 12025G35KT CAVOK 05/M01 Q0962 TEMPO 14025KT=",
            "ENOL 220620Z 12026G36KT CAVOK 05/M01 Q0961 TEMPO 14025KT=",
            "ENOL 220650Z 15025KT CAVOK 05/M01 Q0960 TEMPO 13030G45KT=",
            "ENOL 220720Z 14027KT CAVOK 05/M01 Q0960 TEMPO 13030G45KT=",
            "ENOL 220750Z 14026KT CAVOK 06/M01 Q0959 TEMPO 13030G45KT=",
            "ENOL 220820Z 14029KT CAVOK 05/M00 Q0959 TEMPO 13030G45KT=",
            "ENOL 220850Z 14027KT CAVOK 06/M00 Q0959 TEMPO 13030G45KT=",
            "ENOL 220920Z 14026KT CAVOK 06/M00 Q0958 TEMPO 13030G45KT=",
            "ENOL 220950Z 14027KT CAVOK 06/M00 Q0958 NOSIG=",
            "ENOL 221020Z 14028KT CAVOK 06/M00 Q0957 NOSIG=",
            "ENOL 221050Z 13025KT CAVOK 06/M00 Q0957 NOSIG=",
            "ENOL 221120Z 14025KT CAVOK 06/M00 Q0956 NOSIG=",
            "ENOL 221150Z 14022KT CAVOK 06/M00 Q0956 NOSIG=",
            "ENOL 221220Z 14019KT 9999 SCT050 BKN085 06/00 Q0956 NOSIG=",
            "ENOL 221250Z 13017KT 9999 VCSH FEW030 SCT050 BKN080 06/00 Q0956 NOSIG=",
            "ENOL 221320Z 13008KT 9999 -RA FEW020 SCT030 BKN050 06/01 Q0957 NOSIG=",
            "ENOL 221350Z 14012KT 9999 -RA FEW020 BKN050 06/01 Q0957 NOSIG=",
            "ENOL 221420Z 14011KT 9999 -RA FEW020 BKN050 06/01 Q0957 NOSIG=",
            "ENOL 221450Z 14011KT 9999 -RA FEW022 SCT035 BKN050 06/01 Q0957 NOSIG=",
            "ENOL 221520Z 14006KT 9999 -RA FEW020 BKN035 05/02 Q0958 NOSIG=",
            "ENOL 221550Z 14004KT 9999 -RA FEW016 SCT025 BKN035 05/02 Q0958 NOSIG=",
            "ENOL 221620Z 06004KT 9999 -RA FEW018 SCT025 BKN035 05/02 Q0959 BECMG 24015KT=",
            "ENOL 221650Z 16003KT 9999 -RA FEW020 BKN040 04/02 Q0960 BECMG 24015KT=",
            "ENOL 221720Z 24017KT 9999 -RA FEW020 BKN035 06/03 Q0961 TEMPO 24020G30KT=",
            "ENOL 221750Z 26014KT 9999 -RA FEW012 SCT016 BKN038 05/03 Q0962 TEMPO 24020G30KT=",
            "ENOL 221820Z 25007KT 9999 -RA FEW014 SCT035 BKN050 05/03 Q0962 TEMPO 24020G30KT=",
            "ENOL 221850Z 24009KT 9999 -RA FEW014 BKN035 05/03 Q0962 TEMPO 24022G32KT=",
            "ENOL 221920Z 24014KT 9999 FEW014 BKN040 05/02 Q0963 TEMPO 24025G35KT=",
            "ENOL 221950Z 24017KT 9999 FEW014 BKN040 06/02 Q0963 TEMPO 24025G35KT=",
            "ENOL 222020Z 23016KT 9999 FEW014 BKN040 06/02 Q0964 TEMPO 24025G35KT=",
            "ENOL 222050Z 24023KT 9999 FEW014 BKN040 06/02 Q0964 TEMPO 24025G35KT=",
            "ENOL 222120Z 25017KT 9999 FEW014 SCT040 BKN060 06/02 Q0964 TEMPO 24025G35KT=",
            "ENOL 222150Z 25013KT 9999 FEW018 BKN045 06/02 Q0965 TEMPO 24025G35KT=",
            "ENOL 222220Z 24007KT 9999 FEW018 BKN045 06/02 Q0965=",
            "ENOL 222250Z 24007KT 9999 FEW020 BKN040 05/02 Q0965=",
            "ENOL 222320Z 23010KT 9999 FEW020 BKN040 06/02 Q0966=",
            "ENOL 222350Z 25004KT 9999 BKN040 05/02 Q0966=",
            "",
            ""
        ]
    },
    {
        "metar": [
            "ENOL 230020Z 25011KT 9999 BKN040 06/02 Q0967=",
            "ENOL 230050Z 25014KT 9999 BKN035 05/02 Q0968=",
            "ENOL 230120Z 25015KT 9999 -RADZ FEW015 BKN035 05/03 Q0968=",
            "ENOL 230150Z 25017KT 4000 RADZ BKN020 04/03 Q0969=",
            "ENOL 230220Z 24016KT 9000 RADZ FEW008 SCT012 BKN020 05/04 Q0970=",
            "ENOL 230250Z 35023KT 8000 RADZ FEW008 BKN020 05/04 Q0970=",
            "ENOL 230320Z 35026G37KT 9000 RADZ BKN020 05/03 Q0974=",
            "ENOL 230350Z 34024KT 9999 -RA FEW008 BKN020 05/03 Q0976=",
            "ENOL 230420Z 34025KT 9999 -RA FEW008 BKN020 05/02 Q0978=",
            "ENOL 230450Z 33023G33KT 9999 -RA FEW010 BKN025 05/02 Q0981=",
            "ENOL 230520Z 32019KT 9999 FEW010 BKN025 06/02 Q0983 TEMPO 32025G35KT 4000 SHRA BKN012CB=",
            "ENOL 230550Z 33018KT 9999 BKN035 06/02 Q0984 TEMPO 32025G35KT 4000 SHRA BKN012CB=",
            "ENOL 230620Z 31020KT 9999 VCSH FEW012CB SCT030 06/03 Q0986 TEMPO 32025G35KT 4000 SHRA BKN012CB=",
            "ENOL 230650Z 32018KT 9999 -SHRA FEW012CB BKN020 05/02 Q0987 TEMPO 32025G35KT 4000 SHRA BKN012CB=",
            "ENOL 230720Z 32026KT 9999 SHRA SCT012CB BKN020 05/03 Q0988 TEMPO 4000 SHRA BKN012CB=",
            "ENOL 230750Z 32020KT 9999 -SHRA FEW015CB SCT020 BKN050 05/03 Q0990 RESHRA TEMPO 31025G35KT 4000 SHRA BKN012CB=",
            "ENOL 230820Z 33013KT 9999 BKN030 05/03 Q0991 TEMPO 31020G30KT 4000 SHRA BKN012CB=",
            "ENOL 230850Z 32016KT 9999 BKN035 06/01 Q0992 NOSIG=",
            "ENOL 230920Z 32015KT 9999 SCT035TCU 05/01 Q0992 NOSIG=",
            "ENOL 230950Z 32010KT 9999 BKN035TCU 05/01 Q0993 NOSIG=",
            "ENOL 231020Z 31012KT 9999 FEW025TCU SCT040 05/02 Q0994 TEMPO SHRA BKN020CB=",
            "ENOL 231050Z 31010KT 9999 FEW020TCU SCT040 05/02 Q0995 TEMPO SHRA BKN020CB=",
            "ENOL 231120Z 29013KT 9999 SCT020TCU SCT040 04/02 Q0995 TEMPO SHRA BKN020CB=",
            "ENOL 231150Z 29014KT 9999 VCSH FEW015CB SCT020TCU 05/02 Q0996 TEMPO SHRA BKN020CB=",
            "ENOL 231220Z 29021KT 9999 SHRAGS BKN020CB 04/02 Q0996 TEMPO NSW SCT020TCU=",
            "ENOL 231250Z 30008KT 9999 VCSH FEW020CB SCT045 04/02 Q0997 RESHRAGS TEMPO SHRA BKN014CB=",
            "ENOL 231320Z 26009KT 9999 FEW014 SCT020CB 04/03 Q0997 TEMPO SHRA BKN020CB=",
            "ENOL 231350Z 26013KT 9999 -SHRA FEW014 BKN022CB 04/02 Q0998 TEMPO SHRA BKN020CB=",
            "ENOL 231420Z 25011KT 9999 VCSH FEW014CB BKN035 04/02 Q0998 TEMPO SHRA BKN014CB=",
            "ENOL 231450Z 25011KT 9999 -SHRA SCT014CB BKN020 03/02 Q0998 RESHRAGS TEMPO SHRA BKN014CB=",
            "ENOL 231520Z 24011KT 9999 VCSH FEW007 SCT014CB BKN030 03/02 Q0998 TEMPO SHRA BKN014CB=",
            "ENOL 231550Z 23015KT 9999 VCSH FEW007 SCT014CB BKN020 03/02 Q0998 TEMPO SHRA BKN014CB=",
            "ENOL 231620Z 22014KT 9999 -SHRA FEW007 SCT012CB BKN015 02/01 Q0998 TEMPO SHRA BKN012CB=",
            "ENOL 231650Z 22008KT 9999 VCSH FEW009 FEW012CB BKN020 02/01 Q0998 TEMPO SHRA BKN012CB=",
            "ENOL 231720Z 23010KT 9999 -SHRA FEW009 SCT012CB BKN020 02/02 Q0997 TEMPO SHRA BKN012CB=",
            "ENOL 231750Z 21006KT 9999 VCSH FEW009 SCT012CB BKN030 02/01 Q0997 TEMPO 4000 SHRAGS BKN012CB=",
            "ENOL 231820Z 15005KT 9999 FEW012CB SCT030 02/02 Q0997 BECMG 13015KT=",
            "ENOL 231850Z 14006KT 9999 FEW010 SCT180 02/02 Q0996 NOSIG=",
            "ENOL 231920Z 13010KT 9999 FEW010 SCT180 02/01 Q0995 NOSIG=",
            "ENOL 231950Z 13011KT 9999 FEW010 BKN180 02/01 Q0994 NOSIG=",
            "ENOL 232020Z 12009KT 9999 FEW010 BKN180 02/01 Q0993 NOSIG=",
            "ENOL 232050Z 10010KT 9999 FEW010 BKN180 02/01 Q0992 NOSIG=",
            "ENOL 232120Z 10011KT 9999 FEW010 BKN180 02/00 Q0991 NOSIG=",
            "ENOL 232150Z 10014KT 9999 FEW010 BKN180 03/M00 Q0990 NOSIG=",
            "ENOL 232220Z 10014KT 9999 FEW010 BKN120 02/M00 Q0989=",
            "ENOL 232250Z 10013KT 9999 FEW010 BKN110 03/M01 Q0987=",
            "ENOL 232320Z 12016KT 9999 FEW018 BKN170 03/M02 Q0985=",
            "ENOL 232350Z 12023G34KT CAVOK 03/M02 Q0984=",
            "",
            ""
        ]
    },
    {
        "metar": [
            "ENOL 240020Z 12022KT CAVOK 03/M02 Q0983=",
            "ENOL 240050Z 12019KT CAVOK 03/M02 Q0982=",
            "ENOL 240120Z 12020KT CAVOK 04/M03 Q0981=",
            "ENOL 240150Z 12016KT CAVOK 04/M02 Q0980=",
            "ENOL 240220Z 13019KT CAVOK 04/M03 Q0979=",
            "ENOL 240250Z 14016KT CAVOK 04/M03 Q0978=",
            "ENOL 240320Z 13018G30KT CAVOK 04/M03 Q0978=",
            "ENOL 240350Z 13017G27KT 9999 SCT050 04/M02 Q0977=",
            "ENOL 240420Z 14015KT 9999 FEW050 03/M02 Q0977=",
            "ENOL 240450Z 14013KT 9999 FEW050 03/M02 Q0977=",
            "ENOL 240550Z 15010KT 9999 FEW021 SCT055 03/M00 Q0977 NOSIG=",
            "ENOL 240620Z 13010KT 9999 -RA FEW017 BKN035 03/M00 Q0977 NOSIG=",
            "ENOL 240650Z 12013KT 9999 FEW020 BKN045 03/00 Q0977 NOSIG=",
            "ENOL 240720Z 13010KT 9999 FEW020 BKN060 03/00 Q0977 NOSIG=",
            "ENOL 240750Z 12007KT 9999 FEW030 BKN065 03/00 Q0977 NOSIG=",
            "ENOL 240820Z 13008KT 9999 FEW030 BKN060 03/M00 Q0977 NOSIG=",
            "ENOL 240850Z 14010KT 9999 FEW040 BKN065 03/M01 Q0978 NOSIG=",
            "ENOL 240920Z 13010KT 9999 SCT045 BKN065 04/M00 Q0978 NOSIG=",
            "ENOL 240950Z 13010KT 9999 FEW040 BKN060 04/M00 Q0979 NOSIG=",
            "ENOL 241020Z 15009KT 9999 -RA SCT030 BKN060 04/M00 Q0979 NOSIG=",
            "ENOL 241050Z 14007KT 9999 FEW030 BKN040 04/M00 Q0980 NOSIG=",
            "ENOL 241120Z 13008KT 9999 -RA FEW030 BKN040 04/M00 Q0980 NOSIG=",
            "ENOL 241150Z 14008KT 9999 -RADZ BKN040 03/01 Q0981 TEMPO 3000 RADZ BKN007=",
            "ENOL 241220Z 14008KT 8000 -DZ OVC035 03/01 Q0982 TEMPO 3000 RADZ BKN007=",
            "ENOL 241250Z 12008KT 9999 -DZ BKN025 03/01 Q0982 TEMPO 3000 RADZ BKN007=",
            "ENOL 241320Z 12010KT 5000 -RADZ SCT009 BKN012 03/02 Q0983 RERADZ TEMPO 3000 RADZ BKN007=",
            "ENOL 241350Z 12010KT 9999 -RA SCT009 BKN011 03/02 Q0984 TEMPO 3000 RADZ BKN007=",
            "ENOL 241420Z 12008KT 9999 -RA FEW008 SCT013 BKN020 03/02 Q0984 TEMPO 3000 RADZ BKN007=",
            "ENOL 241450Z 12011KT 9999 -RA FEW009 SCT025 BKN040 03/02 Q0985 TEMPO 3000 RADZ BKN007=",
            "ENOL 241520Z 12011KT 9999 -RA FEW009 SCT025 BKN040 03/02 Q0985 TEMPO 3000 RADZ BKN007=",
            "ENOL 241550Z 12012KT 9999 -RADZ FEW008 SCT014 BKN035 03/02 Q0986 TEMPO 3000 RADZ BKN007=",
            "ENOL 241620Z 13012KT 9999 -RADZ FEW008 SCT014 BKN020 03/02 Q0987 TEMPO 3000 RADZ BKN007=",
            "ENOL 241650Z 13013KT 9999 -RA FEW009 SCT016 BKN030 03/02 Q0988 TEMPO 3000 RADZ BKN007=",
            "ENOL 241720Z 13012KT 9999 -RADZ FEW008 SCT014 BKN025 03/02 Q0988 TEMPO 3000 RADZ BKN007=",
            "ENOL 241750Z 12009KT 8000 -RADZ FEW008 SCT013 BKN017 02/02 Q0989 TEMPO 3000 RADZ FEW005 BKN007=",
            "ENOL 241820Z 11009KT 9999 -RADZ FEW008 SCT014 BKN020 02/02 Q0990 TEMPO 3000 RADZ FEW005 BKN007=",
            "ENOL 241850Z 10007KT 9999 FEW009 SCT013 BKN020 02/02 Q0990 TEMPO 3000 -DZRA FEW005 BKN010=",
            "ENOL 241920Z 11006KT 3000 -DZ BR FEW005 SCT009 BKN012 02/02 Q0992 TEMPO DZRA FEW005 BKN007=",
            "ENOL 241920Z 11006KT 3000 -DZ BR FEW005 SCT009 BKN012 02/02 Q0992 TEMPO DZRA FEW005 BKN007=",
            "ENOL 241950Z 11006KT 2500 DZ BR FEW005 BKN007 02/02 Q0993 TEMPO 7000 -DZ SCT008 BKN015 BECMG 30015KT=",
            "ENOL 242020Z 09004KT 3000 DZ BR FEW003 BKN007 02/02 Q0994 TEMPO 7000 -DZ SCT008 BKN015 BECMG 30015KT=",
            "ENOL 242050Z 13004KT 4000 -DZ BR FEW003 SCT006 BKN009 02/02 Q0995 TEMPO 7000 -DZ SCT008 BKN015 BECMG 30015KT=",
            "ENOL 242120Z 12004KT 9999 FEW005 SCT035 BKN050 02/02 Q0995 TEMPO SHRA BKN012TCU BECMG 30012KT=",
            "ENOL 242150Z 10003KT 9999 FEW008 SCT018 BKN025 02/02 Q0997 TEMPO SHRA BKN012TCU BECMG 30012KT=",
            "ENOL 242220Z VRB02KT 9999 SCT010 BKN025 02/01 Q0998 TEMPO SHRA BKN012TCU BECMG 30012KT=",
            "ENOL 242250Z 31006KT 260V030 9999 SCT015 BKN022 04/03 Q0999=",
            "ENOL 242320Z 31003KT 9999 SCT014TCU BKN030 04/03 Q1000 RESHRA=",
            "ENOL 242350Z 36004KT 9999 -SHRA FEW014TCU BKN020 03/02 Q1000=",
            "",
            ""
        ]
    },
    {
        "metar": [
            "ENOL 250020Z 34010KT 9999 FEW014TCU BKN020 04/03 Q1002=",
            "ENOL 250050Z 32010KT 9999 FEW015 BKN060 04/03 Q1003=",
            "ENOL 250120Z 32013KT 9999 FEW015 BKN080 04/02 Q1005=",
            "ENOL 250150Z 32012KT 9999 FEW020 BKN050 05/02 Q1006=",
            "ENOL 250220Z 31012KT 9999 SHRA SCT015TCU BKN050 04/02 Q1006=",
            "ENOL 250250Z 31011KT 9999 SHRA FEW015TCU SCT050 04/02 Q1008=",
            "ENOL 250320Z 32011KT 9999 SHRA SCT020TCU BKN040 04/02 Q1008=",
            "ENOL 250350Z 32010KT 9999 FEW020TCU BKN040 04/02 Q1009=",
            "ENOL 250420Z 31009KT 9999 FEW020 04/02 Q1010=",
            "ENOL 250450Z 31007KT 9999 FEW020 SCT040 04/02 Q1010=",
            "ENOL 250520Z 31008KT 9999 SCT030 04/02 Q1011 BECMG 25012KT=",
            "ENOL 250550Z 28006KT 9999 -SHRA SCT030TCU 03/01 Q1012 NOSIG=",
            "ENOL 250620Z 29006KT 9999 VCSH FEW030TCU SCT045 04/02 Q1012 NOSIG=",
            "ENOL 250650Z 30008KT 9999 VCSH FEW025TCU BKN035 05/02 Q1013 NOSIG=",
            "ENOL 250720Z 28009KT 9999 -SHRA SCT020TCU SCT030 04/01 Q1013 NOSIG=",
            "ENOL 250750Z 31003KT 9999 SCT020TCU SCT030 03/02 Q1014 NOSIG=",
            "ENOL 250820Z 29003KT 240V330 9999 VCSH SCT020TCU SCT030 04/02 Q1014 NOSIG=",
            "ENOL 250850Z 27007KT 9999 VCSH FEW010 SCT020TCU 04/01 Q1014 RESHRA NOSIG=",
            "ENOL 250920Z 24009KT 9999 VCSH FEW020TCU SCT035 04/02 Q1015 NOSIG=",
            "ENOL 250950Z 24009KT 9999 FEW020TCU BKN040 04/02 Q1015 NOSIG=",
            "ENOL 251020Z 24009KT 9999 SCT045 04/02 Q1015 NOSIG=",
            "ENOL 251050Z 24007KT 9999 SCT040 04/02 Q1016 NOSIG=",
            "ENOL 251120Z 24008KT 9999 SCT040 04/02 Q1016 NOSIG=",
            "ENOL 251150Z 24009KT 9999 BKN038 04/02 Q1016 NOSIG=",
            "ENOL 251220Z 24006KT 9999 BKN035 04/02 Q1016 NOSIG=",
            "ENOL 251250Z 23008KT 9999 BKN035 04/02 Q1016 NOSIG=",
            "ENOL 251320Z 23006KT 9999 BKN030 04/02 Q1016 NOSIG=",
            "ENOL 251350Z 23004KT 9999 BKN030 04/01 Q1016 NOSIG=",
            "ENOL 251420Z 20003KT 9999 BKN030 03/01 Q1016 NOSIG=",
            "ENOL 251450Z 17004KT 9999 BKN025 03/01 Q1016 NOSIG=",
            "ENOL 251520Z 12005KT 9999 BKN028 03/01 Q1016 NOSIG=",
            "ENOL 251550Z 11006KT 9999 BKN030 03/01 Q1016 NOSIG=",
            "ENOL 251620Z 12007KT 9999 BKN028 03/02 Q1016 NOSIG=",
            "ENOL 251650Z 13007KT 9999 BKN026 03/01 Q1016 NOSIG=",
            "ENOL 251720Z 13010KT 9999 SCT026 03/01 Q1015 NOSIG=",
            "ENOL 251750Z 13012KT 9999 SCT030 03/01 Q1015 NOSIG=",
            "ENOL 251820Z 14013KT 9999 FEW030 03/01 Q1015 NOSIG=",
            "ENOL 251850Z 14013KT 9999 FEW030 03/01 Q1014 NOSIG=",
            "ENOL 251920Z 14013KT 9999 FEW030 03/01 Q1014 NOSIG=",
            "ENOL 251950Z 13013KT 9999 FEW030 03/00 Q1014 NOSIG=",
            "ENOL 252020Z 14013KT 9999 FEW030 02/M00 Q1013 NOSIG=",
            "ENOL 252050Z 12014KT CAVOK 02/M00 Q1012 NOSIG=",
            "ENOL 252120Z 13014KT CAVOK 02/M00 Q1011 NOSIG=",
            "ENOL 252150Z 12018KT CAVOK 03/M01 Q1010 NOSIG=",
            "ENOL 252220Z 12015KT CAVOK 02/M02 Q1010 NOSIG=",
            "ENOL 252250Z 13020KT CAVOK 03/M04 Q1008 NOSIG=",
            "ENOL 252350Z 13021KT CAVOK 03/M04 Q1007=",
            "",
            ""
        ]
    },
    {
        "metar": [
            "ENOL 260020Z 13019KT CAVOK 03/M04 Q1006=",
            "ENOL 260050Z 13019KT CAVOK 03/M04 Q1006=",
            "ENOL 260120Z 12018KT CAVOK 03/M04 Q1005=",
            "ENOL 260150Z 12019KT CAVOK 03/M03 Q1004=",
            "ENOL 260220Z 13017KT CAVOK 03/M04 Q1003=",
            "ENOL 260250Z 12015KT CAVOK 03/M03 Q1002=",
            "ENOL 260320Z 12012KT CAVOK 04/M04 Q1001=",
            "ENOL 260350Z 12012KT CAVOK 04/M04 Q1001=",
            "ENOL 260420Z 11013KT CAVOK 04/M03 Q1000=",
            "ENOL 260450Z 12017KT 9999 FEW020 SCT040 BKN100 04/M03 Q0998=",
            "ENOL 260520Z 12014KT 9999 FEW0300 BKN080 04/M03 Q0998 TEMPO 14020G30KT=",
            "ENOL 260520Z 12014KT 9999 FEW030 BKN080 04/M03 Q0998 TEMPO 14020G30KT=",
            "ENOL 260550Z 13018KT 9999 FEW030 SCT060 BKN080 04/M02 Q0997 TEMPO 14020G30KT=",
            "ENOL 260620Z 13017KT 9999 -RA FEW020 BKN050 04/M01 Q0996 TEMPO 14025G35KT=",
            "ENOL 260650Z 13017KT 9999 FEW040 BKN060 04/M01 Q0996 TEMPO 14025G35KT=",
            "ENOL 260720Z 13019KT 9999 FEW040 BKN055 05/M01 Q0994 TEMPO 14025G35KT=",
            "ENOL 260750Z 13021KT 9999 FEW040 BKN059 05/M02 Q0994 TEMPO 14025G35KT=",
            "ENOL 260820Z 13023KT 9999 FEW040 BKN060 05/M01 Q0994 TEMPO 14025G35KT=",
            "ENOL 260850Z 14021KT 9999 FEW040 BKN060 05/M01 Q0993 TEMPO 14025G35KT=",
            "ENOL 260920Z 13017KT 9999 -RA FEW011 BKN057 05/M01 Q0993 TEMPO 14025G35KT RA BKN014=",
            "ENOL 260950Z 14018KT 9999 -RA FEW008 BKN040 05/M01 Q0993 TEMPO 14025G35KT RA BKN014=",
            "ENOL 261020Z 14016KT 9999 -RA FEW015 BKN040 05/M01 Q0993 TEMPO RA BKN014=",
            "ENOL 261050Z 14014KT 9999 -RA FEW015 BKN030 04/00 Q0992 TEMPO RA BKN014=",
            "ENOL 261120Z 14014KT 9999 -RA FEW016 BKN030 04/01 Q0993 TEMPO RA BKN014=",
            "ENOL 261150Z 13014KT 9999 -RA BKN040 04/01 Q0993 TEMPO RA BKN014=",
            "ENOL 261220Z 13014KT 9999 VCSH FEW015 BKN040 04/02 Q0993 TEMPO RA BKN014=",
            "ENOL 261250Z 16008KT 9999 -RA SCT030 BKN040 04/01 Q0994 TEMPO RA BKN014 BECMG 26018KT=",
            "ENOL 261320Z 26018KT 9999 FEW020 BKN060 05/03 Q0994 TEMPO 26025G35KT SHRA BKN014 SCT020CB=",
            "ENOL 261350Z 25026KT 9999 -RA SCT014 BKN040 05/03 Q0995 TEMPO SHRA BKN014 SCT020CB=",
            "ENOL 261420Z 25017KT 9999 VCSH FEW015 BKN032 04/03 Q0996 TEMPO 26025G35KT BKN014=",
            "ENOL 261450Z 24015KT 9999 VCSH FEW015 BKN020 04/02 Q0997 TEMPO 26025G35KT BKN014=",
            "ENOL 261520Z 25014KT 9999 FEW010 BKN017 05/03 Q0997 TEMPO 26025G35KT BKN014=",
            "ENOL 261550Z 25020KT 9999 FEW010 BKN018 05/03 Q0998 TEMPO 26025G35KT BKN014=",
            "ENOL 261620Z 25023KT 9999 -SHRA FEW015TCU BKN018 05/03 Q0998 TEMPO 26025G35KT BKN014=",
            "ENOL 261650Z 28026KT 9999 VCSH FEW015 BKN030 06/03 Q1000 TEMPO 26025G35KT BKN014=",
            "ENOL 261720Z 28024KT 9999 FEW015 BKN040 05/02 Q1001 TEMPO 26025G35KT BKN014=",
            "ENOL 261750Z 28023KT 9999 SCT030 05/01 Q1001 TEMPO 26025G35KT=",
            "ENOL 261820Z 27021KT 9999 FEW030 05/02 Q1002 TEMPO 26025G35KT=",
            "ENOL 261850Z 27021KT 9999 FEW036 05/01 Q1003 NOSIG=",
            "ENOL 261920Z 27020KT CAVOK 05/01 Q1003 NOSIG=",
            "ENOL 261950Z 28016KT CAVOK 05/00 Q1004 NOSIG=",
            "ENOL 262020Z 26025KT CAVOK 05/01 Q1005 BECMG 20012KT=",
            "ENOL 262020Z 26025KT CAVOK 05/01 Q1005 BECMG 20012KT=",
            "ENOL 262050Z 26025KT 9999 FEW030 SCT055 04/01 Q1005 BECMG 20012KT=",
            "ENOL 262120Z 25013KT 9999 FEW030 SCT050 04/01 Q1005 BECMG 20012KT=",
            "ENOL 262150Z 24014KT 9999 SCT030 04/01 Q1005 NOSIG=",
            "ENOL 262220Z 23014KT 9999 FEW035 SCT050 04/01 Q1006=",
            "ENOL 262250Z 24016KT 9999 SCT045 05/01 Q1006=",
            "ENOL 262320Z 24014KT 9999 SCT045 05/01 Q1006=",
            "ENOL 262350Z 21010KT 9999 FEW045 03/M01 Q1005=",
            "",
            ""
        ]
    },
    {
        "metar": [
            "ENOL 270020Z 17009KT 9999 FEW045 02/M01 Q1005=",
            "ENOL 270050Z 18009KT 9999 SCT045 04/M01 Q1005=",
            "ENOL 270120Z 18009KT 9999 SCT040 04/M01 Q1005=",
            "ENOL 270150Z 19010KT 9999 BKN040 04/M01 Q1005=",
            "ENOL 270220Z 18010KT 9999 BKN039 05/M01 Q1005=",
            "ENOL 270250Z 18010KT 9999 BKN040 05/M01 Q1004=",
            "ENOL 270320Z 18009KT 9999 SCT045 04/M00 Q1004=",
            "ENOL 270350Z 18008KT 9999 SCT045 BKN180 05/M00 Q1004=",
            "ENOL 270420Z 23017KT 9999 BKN035 07/01 Q1004=",
            "ENOL 270450Z 22013KT 9999 BKN038 06/02 Q1004=",
            "ENOL 270520Z 19007KT 9999 BKN037 05/01 Q1004 NOSIG=",
            "ENOL 270550Z 23017KT 9999 BKN035 07/02 Q1004 NOSIG=",
            "ENOL 270620Z 23017KT 9999 BKN035 07/02 Q1003 NOSIG=",
            "ENOL 270650Z 23019KT 9999 BKN040 08/02 Q1003 TEMPO 24020G30KT=",
            "ENOL 270720Z 23019KT 9999 BKN035 08/32 Q1004 TEMPO 24020G30KT=",
            "ENOL 270720Z 23019KT 9999 BKN035 08/02 Q1004 TEMPO 24020G30KT=",
            "ENOL 270750Z 23018KT 9999 BKN035 07/03 Q1004 TEMPO 24020G30KT=",
            "ENOL 270820Z 23021KT 9999 BKN040 07/03 Q1003 NOSIG=",
            "ENOL 270850Z 23017KT 9999 BKN040 08/02 Q1003 TEMPO 24020G30KT=",
            "ENOL 270920Z 19008KT 140V230 9999 BKN040 07/02 Q1003 NOSIG=",
            "ENOL 270950Z 19007KT 9999 SCT040 07/02 Q1002 NOSIG=",
            "ENOL 271020Z 14015KT 9999 SCT040 SCT180 05/M01 Q1002 NOSIG=",
            "ENOL 271050Z 14012KT 9999 FEW040 BKN200 05/M01 Q1002 NOSIG=",
            "ENOL 271120Z 14009KT CAVOK 06/M00 Q1001 BECMG 24025KT=",
            "ENOL 271150Z 14010KT CAVOK 06/M00 Q1001 BECMG 24025KT=",
            "ENOL 271220Z 22015KT CAVOK 09/01 Q1000 BECMG 24025KT=",
            "ENOL 271250Z 23025G39KT 9999 FEW020 BKN200 09/01 Q1000 TEMPO 27032G50KT SHRA BKN010 SCT020CB=",
            "ENOL 271250Z 23025G39KT 9999 FEW020 BKN200 09/01 Q1000 TEMPO 27032G50KT SHRA BKN010 SCT020CB=",
            "ENOL 271320Z 24026KT CAVOK 09/01 Q1000 TEMPO 27032G50KT SHRA BKN010 SCT020CB=",
            "ENOL 271350Z 23041G56KT 9999 -SHRA BKN010 SCT020CB 09/02 Q1000 TEMPO SHRA BKN010 SCT020CB=",
            "ENOL 271420Z 23034G45KT 9999 SHRA BKN020CB 08/04 Q1002 TEMPO 24025KT -SHRA=",
            "ENOL 271420Z 23034G45KT 9999 SHRA BKN020CB 08/04 Q1002 TEMPO 24025KT -SHRA=",
            "ENOL 271450Z 23034G44KT 5000 SHRA BKN012CB 05/03 Q1004 TEMPO 24025KT -SHRA BKN030=",
            "ENOL 271520Z 25022KT 9999 -SHRA BKN015CB 05/03 Q1005 TEMPO 23032G50KT SHRA BKN010=",
            "ENOL 271550Z 23021KT 9999 FEW015CB SCT030 04/02 Q1005 TEMPO 23025G35KT=",
            "ENOL 271620Z 23020KT 9999 SCT025 04/03 Q1006 TEMPO 23025G35KT=",
            "ENOL 271650Z 24020KT 9999 VCSH SCT020CB 05/03 Q1006 TEMPO 23025G35KT=",
            "ENOL 271720Z 24017KT 9999 FEW020 05/03 Q1006 TEMPO 23025G35KT=",
            "ENOL 271750Z 24020KT 9999 FEW020 06/03 Q1007 TEMPO 23025G35KT SHRA SCT020CB=",
            "ENOL 271820Z 23019KT 9999 FEW020 06/03 Q1007 TEMPO 23025G35KT SHRA SCT020CB=",
            "ENOL 271850Z 24022KT 9999 FEW020 06/03 Q1008 TEMPO 23025G35KT SHRA SCT020CB=",
            "ENOL 271920Z 24021KT 9999 FEW020 06/03 Q1008 TEMPO 23025G35KT SHRA SCT020CB=",
            "ENOL 271950Z 26026G36KT 9999 -SHRA FEW020CB BKN025 06/03 Q1009 TEMPO 25022KT FEW020=",
            "ENOL 272020Z 27017KT 9999 VCSH FEW020CB SCT025 05/03 Q1009 TEMPO 25025G35KT SHRA=",
            "ENOL 272050Z 26020KT 9999 VCSH FEW020CB SCT025 06/03 Q1009 TEMPO 25025G35KT SHRA=",
            "ENOL 272120Z 27018G28KT 9999 FEW010 BKN060 04/03 Q1009 TEMPO 25025G35KT SHRA=",
            "ENOL 272150Z 25013KT 9999 SCT030 05/03 Q1009 NOSIG=",
            "ENOL 272220Z 23018KT 9999 FEW035 05/02 Q1010=",
            "ENOL 272250Z 23020KT 9999 FEW020 SCT050 BKN070 06/03 Q1010=",
            "ENOL 272320Z 23018KT 9999 FEW020 SCT070 06/03 Q1010=",
            "ENOL 272350Z 25019KT 9999 -SHRA SCT020 BKN070 05/04 Q1011=",
            "",
            ""
        ]
    },
    {
        "metar": [
            "ENOL 280020Z 28014KT 9999 SCT030 05/03 Q1010=",
            "ENOL 280050Z 27011KT 9999 FEW015 SCT025 BKN040 05/03 Q1010=",
            "ENOL 280120Z 19005KT 9999 FEW030 BKN055 04/03 Q1010=",
            "ENOL 280150Z 18007KT 9999 -RA FEW030 BKN060 05/03 Q1010=",
            "ENOL 280220Z 23011KT 9000 RA FEW005 SCT020 BKN040 05/03 Q1011=",
            "ENOL 280250Z 19006KT 9999 -RA FEW007 SCT020 BKN060 04/03 Q1010 RERA=",
            "ENOL 280320Z 19009KT 9999 -RA FEW020 SCT050 BKN180 04/03 Q1010=",
            "ENOL 280350Z 18007KT 9999 -RA SCT020 BKN060 04/03 Q1010=",
            "ENOL 280420Z 17007KT 9999 -RA SCT012 BKN040 04/03 Q1010=",
            "ENOL 280450Z 13007KT 9999 -RA SCT013 BKN050 04/03 Q1009=",
            "ENOL 280520Z 13010KT 9999 -RA FEW012 SCT030 BKN150 04/03 Q1008 NOSIG=",
            "ENOL 280550Z 14011KT 9999 FEW025 BKN050 04/03 Q1008 NOSIG=",
            "ENOL 280620Z 14013KT 9999 -RA FEW025 BKN030 04/03 Q1008 NOSIG=",
            "ENOL 280650Z 14012KT 9999 -RA FEW020 BKN025 04/03 Q1007 NOSIG=",
            "ENOL 280720Z 14012KT 9999 -RA FEW020 BKN025 05/03 Q1007 NOSIG=",
            "ENOL 280750Z 14011KT 9999 -RA FEW020 BKN025 05/03 Q1007 NOSIG=",
            "ENOL 280820Z 14010KT 9999 -RA FEW020 BKN030 05/03 Q1007 NOSIG=",
            "ENOL 280850Z 13012KT 9999 FEW020 BKN040 05/03 Q1006 NOSIG=",
            "ENOL 280920Z 14015KT 9999 BKN045 05/03 Q1005 NOSIG=",
            "ENOL 280950Z 13015KT CAVOK 05/03 Q1005 NOSIG=",
            "ENOL 281020Z 13019KT CAVOK 05/03 Q1004 NOSIG=",
            "ENOL 281050Z 14017KT CAVOK 05/03 Q1003 NOSIG=",
            "ENOL 281120Z 14018KT CAVOK 06/03 Q1003 NOSIG=",
            "ENOL 281150Z 15017KT CAVOK 06/02 Q1003 NOSIG=",
            "ENOL 281220Z 14014KT CAVOK 07/02 Q1003 NOSIG=",
            "ENOL 281250Z 15009KT CAVOK 07/02 Q1003 NOSIG=",
            "ENOL 281320Z VRB01KT CAVOK 06/02 Q1002 BECMG 15012KT=",
            "ENOL 281350Z 11006KT CAVOK 07/02 Q1002 NOSIG=",
            "ENOL 281420Z 09006KT CAVOK 06/02 Q1002 NOSIG=",
            "ENOL 281450Z 10007KT CAVOK 06/01 Q1001 NOSIG=",
            "ENOL 281520Z 10007KT CAVOK 05/02 Q1000 NOSIG=",
            "ENOL 281550Z 12008KT CAVOK 05/02 Q1000 NOSIG=",
            "ENOL 281620Z 11007KT CAVOK 06/01 Q1000 NOSIG=",
            "ENOL 281650Z 11006KT CAVOK 06/01 Q0999 NOSIG=",
            "ENOL 281720Z 13012KT CAVOK 06/01 Q0998 NOSIG=",
            "ENOL 281750Z 13015KT CAVOK 07/01 Q0998 NOSIG=",
            "ENOL 281820Z 14016KT CAVOK 07/01 Q0997 NOSIG=",
            "ENOL 281850Z 14017KT CAVOK 07/01 Q0996 NOSIG=",
            "ENOL 281920Z 14018KT CAVOK 08/00 Q0995 NOSIG=",
            "ENOL 281950Z 14022KT CAVOK 08/00 Q0995 NOSIG=",
            "ENOL 282020Z 14023KT CAVOK 08/00 Q0994 NOSIG=",
            "ENOL 282050Z 14022KT CAVOK 09/00 Q0994 NOSIG=",
            "ENOL 282120Z 14022KT CAVOK 09/01 Q0994 NOSIG=",
            "ENOL 282150Z 14023KT CAVOK 09/01 Q0993 NOSIG=",
            "ENOL 282220Z 14021KT CAVOK 10/01 Q0993 NOSIG=",
            "ENOL 282250Z 14017KT CAVOK 09/01 Q0993=",
            "ENOL 282320Z 14018KT CAVOK 09/01 Q0993=",
            "ENOL 282350Z 14008KT CAVOK 09/02 Q0995=",
            "",
            ""
        ]
    },
    {
        "metar": [
            "ENOL 290020Z 25005KT 200V290 CAVOK 10/05 Q0995=",
            "ENOL 290050Z 25028KT 9999 FEW040 BKN060 10/06 Q0996=",
            "ENOL 290120Z 25029KT 9999 FEW040 BKN050 10/05 Q0996=",
            "ENOL 290150Z 26030G41KT 9999 FEW040 BKN050 09/05 Q0997=",
            "ENOL 290220Z 25031G42KT 9999 FEW040 BKN070 08/05 Q0997=",
            "ENOL 290250Z 25030G44KT 9999 FEW040 BKN070 08/05 Q0998=",
            "ENOL 290320Z 25032G46KT 9999 -RA SCT025 BKN070 08/04 Q0999=",
            "ENOL 290350Z 26028G39KT 9999 -SHRA SCT016 BKN065 05/04 Q1001=",
            "ENOL 290420Z 24026KT 9999 FEW020 BKN060 06/02 Q1001=",
            "ENOL 290450Z 25029G40KT 9999 FEW020 BKN065 06/03 Q1001=",
            "ENOL 290520Z 25031G41KT 9999 FEW020 BKN065 06/02 Q1002 TEMPO 24035G52KT=",
            "ENOL 290550Z 25030G40KT 9999 FEW040 06/02 Q1003 TEMPO 24035G52KT=",
            "ENOL 290620Z 25028G39KT 9999 FEW040 06/01 Q1003 TEMPO 24035G52KT=",
            "ENOL 290650Z 25033G44KT 9999 -SHRA BKN030 06/02 Q1004 TEMPO 24035G54KT SHRA SCT020CB=",
            "ENOL 290720Z 25031KT 9999 FEW030 04/M01 Q1005 TEMPO 24035G52KT SHRA SCT020CB BKN030=",
            "ENOL 290750Z 25028G40KT 9999 VCSH FEW030 BKN060 06/02 Q1005 TEMPO 24035G52KT SHRA SCT020CB BKN030=",
            "ENOL 290820Z 24032G48KT 9999 VCSH FEW020TCU 05/02 Q1006 TEMPO 24030KT SHRA SCT020CB BKN030=",
            "ENOL 290850Z 24032G44KT 9999 VCSH FEW030TCU 05/02 Q1007 TEMPO 24040G55KT SHRA SCT020CB BKN030=",
            "ENOL 290920Z 24030G41KT 9999 FEW030TCU 05/01 Q1007 TEMPO 24040G55KT SHRA SCT020CB BKN030=",
            "ENOL 290950Z 24034G48KT 9999 -SHRA SCT030TCU 06/02 Q1008 TEMPO 24030KT SHRA SCT020CB BKN030=",
            "ENOL 291020Z 24034KT 9999 FEW030TCU 06/02 Q1009 TEMPO 24035G52KT SHRA SCT020CB BKN030=",
            "ENOL 291050Z 24033G45KT 9999 -SHRA FEW020TCU BKN030 06/03 Q1009 TEMPO 24030KT SHRA SCT020CB=",
            "ENOL 291120Z 24031KT 9999 FEW020TCU SCT030 06/02 Q1010 TEMPO 24035G50KT SHRA SCT020CB BKN030=",
            "ENOL 291150Z 24034G45KT 9999 FEW030TCU 07/02 Q1011 TEMPO 24034KT SHRA SCT020CB BKN030=",
            "ENOL 291220Z 24027G37KT 9999 SCT030TCU 06/03 Q1012 TEMPO 24035G50KT SHRA SCT020CB BKN030=",
            "ENOL 291250Z 25029KT 9999 FEW025TCU 06/01 Q1012 TEMPO 24035G45KT=",
            "ENOL 291320Z 25027KT 9999 FEW025TCU 06/01 Q1013 TEMPO 24035G45KT=",
            "ENOL 291350Z 25026KT 9999 FEW040 06/01 Q1013 TEMPO 24030G40KT=",
            "ENOL 291420Z 25024KT 9999 FEW040 SCT200 06/01 Q1013 TEMPO 24030G40KT=",
            "ENOL 291450Z 25025KT 9999 FEW040 SCT200 06/02 Q1014 TEMPO 24030G40KT=",
            "ENOL 291520Z 25027KT 9999 FEW035 06/02 Q1014 TEMPO 24030G40KT=",
            "ENOL 291550Z 25027G37KT 9999 FEW030 06/02 Q1014 TEMPO 24025KT=",
            "ENOL 291620Z 25026KT 9999 FEW030 06/02 Q1014 TEMPO 25030G40KT=",
            "ENOL 291650Z 24029G41KT 9999 FEW030 06/02 Q1015 TEMPO 25025KT=",
            "ENOL 291650Z 24029G41KT 9999 FEW030 06/02 Q1015 TEMPO 25025KT=",
            "ENOL 291720Z 24029KT 9999 FEW030 06/01 Q1015 TEMPO 24030G42KT=",
            "ENOL 291750Z 24029KT 9999 FEW030 06/01 Q1016 TEMPO 24030G42KT=",
            "ENOL 291820Z 25028G38KT 9999 FEW030 06/01 Q1017 TEMPO 24025KT=",
            "ENOL 291850Z 25028G39KT 9999 FEW030 06/01 Q1017 TEMPO 24025KT=",
            "ENOL 291920Z 25025KT 9999 SCT045 06/02 Q1018 TEMPO 24030G42KT=",
            "ENOL 291950Z 25025KT 9999 SCT045 07/00 Q1018 TEMPO 24030G40KT=",
            "ENOL 292020Z 25023KT 9999 SCT045 06/00 Q1018 TEMPO 24030G40KT=",
            "ENOL 292050Z 25023KT 9999 FEW045 06/M00 Q1018 TEMPO 24025G35KT=",
            "ENOL 292120Z 24023KT 9999 FEW045 07/M00 Q1019 TEMPO 24025G35KT=",
            "ENOL 292150Z 24024KT 9999 SCT045 06/00 Q1019 NOSIG=",
            "ENOL 292220Z 24024KT 9999 FEW049 06/00 Q1019=",
            "ENOL 292250Z 23024KT CAVOK 07/00 Q1019=",
            "ENOL 292320Z 24021KT 9999 SCT050 07/00 Q1020=",
            "ENOL 292350Z 24020KT 9999 FEW037 SCT047 07/00 Q1020=",
            "",
            ""
        ]
    }
]