{"metar": ["ENBO 010020Z 15014KT CAVOK 07/M00 Q0994=", "ENBO 010050Z 14013KT CAVOK 08/M01 Q0994=", "ENBO 010120Z 14014KT CAVOK 08/M01 Q0995=", "ENBO 010220Z 15012KT CAVOK 07/M01 Q0995=", "ENBO 010250Z 17014KT CAVOK 08/M01 Q0995=", "ENBO 010320Z 18018KT CAVOK 07/M01 Q0995=", "ENBO 010350Z 19019KT CAVOK 07/M00 Q0995=", "ENBO 010420Z 19020KT CAVOK 07/M01 Q0996=", "ENBO 010450Z 19018KT CAVOK 07/M01 Q0996=", "ENBO 010520Z 19018KT CAVOK 07/M01 Q0997=", "ENBO 010550Z 19017KT CAVOK 08/M01 Q0997=", "ENBO 010620Z 19016KT CAVOK 07/M01 Q0998 NOSIG=", "ENBO 010650Z 19014KT CAVOK 07/M01 Q0998 NOSIG=", "ENBO 010720Z 19013KT CAVOK 07/M01 Q0999 NOSIG=", "ENBO 010750Z 18010KT CAVOK 07/M01 Q0999 NOSIG=", "ENBO 010820Z 18010KT CAVOK 08/M03 Q0999 NOSIG=", "ENBO 010850Z 17010KT CAVOK 08/M03 Q1000 NOSIG=", "ENBO 010920Z 16010KT CAVOK 08/M02 Q1000 NOSIG=", "ENBO 010950Z 14007KT CAVOK 08/M03 Q1001 NOSIG=", "ENBO 011020Z 15007KT CAVOK 08/M01 Q1001 NOSIG=", "ENBO 011050Z 15004KT 110V180 CAVOK 09/M01 Q1001 NOSIG=", "ENBO 011120Z 11008KT CAVOK 08/M02 Q1002 NOSIG=", "ENBO 011150Z 11008KT CAVOK 08/M01 Q1002 NOSIG=", "ENBO 011220Z 13006KT CAVOK 09/M01 Q1002 NOSIG=", "ENBO 011250Z 15007KT CAVOK 08/M01 Q1003 NOSIG=", "ENBO 011320Z 11005KT CAVOK 08/M02 Q1003 NOSIG=", "ENBO 011350Z 11007KT CAVOK 07/M02 Q1003 NOSIG=", "ENBO 011420Z 12006KT CAVOK 08/M02 Q1003 NOSIG=", "ENBO 011450Z 11007KT CAVOK 07/M01 Q1004 NOSIG=", "ENBO 011520Z 11010KT CAVOK 07/M01 Q1004 NOSIG=", "ENBO 011550Z 10008KT CAVOK 06/M01 Q1004 NOSIG=", "ENBO 011620Z 10010KT CAVOK 06/M01 Q1004 NOSIG=", "ENBO 011650Z 11010KT CAVOK 06/M01 Q1004 NOSIG=", "ENBO 011720Z 10010KT CAVOK 05/M01 Q1004 NOSIG=", "ENBO 011750Z 09011KT CAVOK 05/M01 Q1004 NOSIG=", "ENBO 011820Z 10013KT CAVOK 05/M00 Q1004 NOSIG=", "ENBO 011850Z 10012KT CAVOK 06/M00 Q1004 NOSIG=", "ENBO 011920Z 09011KT CAVOK 06/00 Q1004 NOSIG=", "ENBO 011950Z 10011KT CAVOK 06/00 Q1005 NOSIG=", "ENBO 012020Z 10012KT CAVOK 06/01 Q1005 NOSIG=", "ENBO 012050Z 09013KT CAVOK 06/01 Q1005 NOSIG=", "ENBO 012120Z 10012KT CAVOK 06/00 Q1005 NOSIG=", "ENBO 012150Z 09013KT CAVOK 06/01 Q1005 NOSIG=", "ENBO 012220Z 09012KT 9999 FEW050 BKN073 06/01 Q1005=", "ENBO 012250Z 09012KT 9999 SCT051 BKN071 06/01 Q1006=", "ENBO 012320Z 09013KT 9999 BKN050 OVC069 06/01 Q1006=", "ENBO 012350Z 09011KT 9999 BKN051 OVC073 06/01 Q1006=", "", ""]}