{"taf": "ENOL 010500Z 0106/0206 14015KT CAVOK TEMPO 0116/0124 14018G28KT=\nENOL 011100Z 0112/0212 13012KT CAVOK TEMPO 0116/0124 14018G28KT=\nENOL 011700Z 0118/0218 13014KT CAVOK TEMPO 0118/0124 14018G28KT=\nENOL 012300Z 0200/0224 13018KT CAVOK=\nENVA 010500Z 0106/0206 12008KT CAVOK TEMPO 0106/0123 16015G25KT=\nENVA 011100Z 0112/0212 12008KT CAVOK TEMPO 0112/0123 16015G25KT=\nENVA 011700Z 0118/0218 12008KT CAVOK TEMPO 0118/0123 16015G25KT=\nENVA 012300Z 0200/0224 12008KT CAVOK PROB40 TEMPO 0200/0203 16015G25KT=\n\n"}