{"taf": ["ENBO 010500Z 0106/0206 19020KT 9999 FEW035 TEMPO 0106/0109 18015G28KT BECMG 0115/0117 09008KT=", "ENBO 010738Z 0107/0206 19010KT 9999 FEW035 TEMPO 0107/0109 18015G28KT BECMG 0115/0117 09008KT=", "ENBO 011100Z 0112/0212 10008KT 9999 FEW035=", "ENBO 011700Z 0118/0218 10010KT CAVOK=", "ENBO 012300Z 0200/0224 10010KT 9999 FEW040=", "ENOL 010500Z 0106/0206 14015KT CAVOK TEMPO 0116/0124 14018G28KT=", "ENOL 011100Z 0112/0212 13012KT CAVOK TEMPO 0116/0124 14018G28KT=", "ENOL 011700Z 0118/0218 13014KT CAVOK TEMPO 0118/0124 14018G28KT=", "ENOL 012300Z 0200/0224 13018KT CAVOK=", "", ""]}