{
 "cells": [
  {
   "cell_type": "code",
   "execution_count": null,
   "metadata": {},
   "outputs": [],
   "source": [
    "# Import libraries\n",
    "import numpy as np # linear algebra\n",
    "import sys  # system-specific parameters and functions\n",
    "\n",
    "sys.path.insert(0, '../data/') # add library code to path\n",
    "file_path = '..//data/metar_ENVA,ENOL_2024-03-01.json'\n",
    "def funksjon():\n",
    "    print(file_path)"
   ]
  },
  {
   "cell_type": "code",
   "execution_count": 14,
   "metadata": {},
   "outputs": [
    {
     "name": "stdout",
     "output_type": "stream",
     "text": [
      "<class 'dict'>\n",
      "{'metar': 'ENOL 010020Z 15018KT CAVOK 07/M02 Q0995=\\nENOL 010050Z 14018KT CAVOK 07/M02 Q0996=\\nENOL 010120Z 14017KT CAVOK 07/M01 Q0996=\\nENOL 010150Z 14018KT CAVOK 08/M01 Q0996=\\nENOL 010220Z 14018KT CAVOK 08/M01 Q0996=\\nENOL 010250Z 15019KT CAVOK 08/M01 Q0996=\\nENOL 010320Z 15018KT CAVOK 08/M01 Q0997=\\nENOL 010350Z 15015KT CAVOK 08/M01 Q0997=\\nENOL 010420Z 15018KT CAVOK 08/M01 Q0997=\\nENOL 010450Z 14015KT CAVOK 08/M01 Q0997=\\nENOL 010520Z 15014KT CAVOK 08/M00 Q0998=\\nENOL 010550Z 14012KT CAVOK 08/01 Q0998=\\nENOL 010620Z 14017KT CAVOK 08/01 Q0998 NOSIG=\\nENOL 010650Z 12017KT CAVOK 08/01 Q0998 NOSIG=\\nENOL 010720Z 12010KT CAVOK 08/01 Q0999 NOSIG=\\nENOL 010750Z 12009KT CAVOK 08/02 Q0999 NOSIG=\\nENOL 010820Z 12009KT CAVOK 07/02 Q0999 NOSIG=\\nENOL 010850Z 12008KT CAVOK 08/02 Q0999 NOSIG=\\nENOL 010920Z 12008KT CAVOK 08/02 Q0999 NOSIG=\\nENOL 010950Z 14013KT CAVOK 08/02 Q1000 NOSIG=\\nENOL 011020Z 14010KT CAVOK 08/02 Q1000 NOSIG=\\nENOL 011050Z 13009KT CAVOK 08/02 Q1000 NOSIG=\\nENOL 011120Z 12009KT CAVOK 08/02 Q1000 NOSIG=\\nENOL 011150Z 13010KT CAVOK 09/02 Q1000 NOSIG=\\nENOL 011220Z 14013KT CAVOK 09/02 Q1000 NOSIG=\\nENOL 011250Z 14014KT CAVOK 09/02 Q1000 NOSIG=\\nENOL 011320Z 13014KT CAVOK 09/02 Q1000 NOSIG=\\nENOL 011350Z 13015KT CAVOK 09/01 Q1000 NOSIG=\\nENOL 011420Z 11010KT CAVOK 08/02 Q1000 NOSIG=\\nENOL 011450Z 13015KT CAVOK 09/01 Q1000 NOSIG=\\nENOL 011520Z 13015KT CAVOK 08/01 Q0999 TEMPO 14018G28KT=\\nENOL 011550Z 13014KT CAVOK 08/01 Q1000 TEMPO 14018G28KT=\\nENOL 011620Z 14013KT CAVOK 08/01 Q1000 TEMPO 14018G28KT=\\nENOL 011650Z 12012KT CAVOK 07/01 Q1000 TEMPO 14018G28KT=\\nENOL 011720Z 12013KT CAVOK 07/00 Q1000 TEMPO 14018G28KT=\\nENOL 011750Z 12015KT CAVOK 08/00 Q1000 TEMPO 14018G28KT=\\nENOL 011820Z 13019G29KT CAVOK 07/00 Q0999 TEMPO 13014KT=\\nENOL 011850Z 13020KT CAVOK 07/01 Q1000 TEMPO 14020G30KT=\\nENOL 011920Z 13021G31KT CAVOK 07/00 Q1000 TEMPO 13014KT=\\nENOL 011950Z 14021KT CAVOK 07/00 Q1000 TEMPO 14022G32KT=\\nENOL 012020Z 14024KT CAVOK 07/00 Q1001 NOSIG=\\nENOL 012050Z 14024KT CAVOK 07/00 Q1001 NOSIG=\\nENOL 012120Z 15025KT CAVOK 07/00 Q1002 NOSIG=\\nENOL 012150Z 14020KT CAVOK 07/00 Q1002 TEMPO 14021G31KT=\\nENOL 012220Z 14019KT CAVOK 07/M01 Q1003=\\nENOL 012250Z 14017KT CAVOK 07/M01 Q1003=\\nENOL 012320Z 13017KT CAVOK 07/M01 Q1004=\\nENOL 012350Z 13017KT CAVOK 07/M01 Q1004=\\nENVA 010020Z VRB06KT 9999 OVC110/// 08/M01 Q0998 RMK WIND 670FT 18022G39KT=\\nENVA 010050Z 13004KT 9999 OVC100/// 08/M01 Q0998 RMK WIND 670FT 17022KT=\\nENVA 010120Z VRB08G21KT 9999 OVC100/// 08/M01 Q0998 RMK WIND 670FT 18026G41KT=\\nENVA 010150Z 16012G23KT 120V190 9999 OVC092/// 08/M00 Q0998 RMK WIND 670FT 18026G40KT=\\nENVA 010220Z 14011G23KT 100V210 9999 OVC088/// 08/M00 Q0999 RMK WIND 670FT 18024G35KT=\\nENVA 010250Z 11008KT 060V150 9999 OVC083/// 08/M00 Q0999 RMK WIND 670FT 17024G34KT=\\nENVA 010320Z 15018KT 9999 OVC076/// 08/M00 Q0999 RMK WIND 670FT 17026KT=\\nENVA 010350Z 15019KT 9999 OVC071/// 08/01 Q0999 RMK WIND 670FT 16025KT=\\nENVA 010420Z 15018KT CAVOK 08/01 Q1000 RMK WIND 670FT 16021KT=\\nENVA 010450Z 15016KT CAVOK 08/01 Q1000 RMK WIND 670FT 15026KT=\\nENVA 010520Z 13014KT 100V160 CAVOK 08/01 Q1000 RMK WIND 670FT 15024KT=\\nENVA 010550Z 14015KT CAVOK 08/01 Q1000 NOSIG RMK WIND 670FT 14017KT=\\nENVA 010620Z 12012KT CAVOK 08/01 Q1000 NOSIG RMK WIND 670FT 14016KT=\\nENVA 010650Z 10012KT CAVOK 08/01 Q1000 NOSIG RMK WIND 670FT 13012G23KT=\\nENVA 010720Z 11009KT 080V140 CAVOK 08/02 Q1000 NOSIG RMK WIND 670FT 16015G26KT=\\nENVA 010750Z 12012KT CAVOK 09/02 Q1000 NOSIG RMK WIND 670FT 15014KT=\\nENVA 010820Z 13013KT CAVOK 09/02 Q1000 NOSIG RMK WIND 670FT 16019KT=\\nENVA 010850Z 14015KT CAVOK 09/02 Q1000 NOSIG RMK WIND 670FT 16021G33KT=\\nENVA 010920Z 14016KT CAVOK 09/02 Q1001 NOSIG RMK WIND 670FT 16023KT=\\nENVA 010950Z 14011KT CAVOK 09/01 Q1001 NOSIG RMK WIND 670FT 16021KT=\\nENVA 011020Z 13006KT 090V170 CAVOK 10/01 Q1001 NOSIG RMK WIND 670FT 16017KT=\\nENVA 011050Z 10010KT CAVOK 10/01 Q1001 NOSIG RMK WIND 670FT 16018G28KT=\\nENVA 011120Z VRB09G20KT 9999 -RA FEW036 BKN053 09/01 Q1002 TEMPO 16015G30KT RMK WIND 670FT 17025G38KT=\\nENVA 011150Z 15015KT 9999 -RA FEW040 BKN055 08/02 Q1002 TEMPO 16015G25KT RMK WIND 670FT 16022KT=\\nENVA 011220Z 14010KT 9999 -RA SCT048 BKN064 08/02 Q1002 TEMPO 16015G25KT RMK WIND 670FT 16021G31KT=\\nENVA 011250Z 14010KT 9999 -RA SCT050 BKN073 08/01 Q1002 TEMPO 16015G25KT RMK WIND 670FT 16021KT=\\nENVA 011320Z 13008KT 090V180 9999 FEW050 BKN075 09/01 Q1002 TEMPO 16015G25KT RMK WIND 670FT 16018G30KT=\\nENVA 011350Z 14013KT 120V180 9999 FEW050 BKN070 09/01 Q1002 TEMPO 16015G25KT RMK WIND 670FT 17028G44KT=\\nENVA 011420Z 11010KT 060V160 9999 FEW050 BKN070 09/01 Q1002 TEMPO 16015G25KT RMK WIND 670FT 16025G38KT=\\nENVA 011450Z 14017KT CAVOK 09/01 Q1002 TEMPO 16015G25KT RMK WIND 670FT 15025KT=\\nENVA 011520Z 14010KT 110V180 CAVOK 08/01 Q1002 TEMPO 16015G25KT RMK WIND 670FT 16015G25KT=\\nENVA 011550Z 16011KT CAVOK 08/00 Q1002 TEMPO 16015G25KT RMK WIND 670FT 14013G23KT=\\nENVA 011620Z 12013KT CAVOK 08/00 Q1002 NOSIG RMK WIND 670FT 13012G23KT=\\nENVA 011650Z 12010KT CAVOK 08/00 Q1002 NOSIG RMK WIND 670FT 12010G20KT=\\nENVA 011720Z 13008KT 090V160 CAVOK 08/00 Q1002 NOSIG RMK WIND 670FT 15017G27KT=\\nENVA 011750Z VRB05KT CAVOK 08/00 Q1002 NOSIG RMK WIND 670FT 15017G33KT=\\nENVA 011820Z 12006KT 020V180 CAVOK 08/00 Q1003 NOSIG RMK WIND 670FT 16014KT=\\nENVA 011850Z 14009KT 100V230 CAVOK 08/00 Q1003 NOSIG RMK WIND 670FT 14017G30KT=\\nENVA 011920Z 10010KT 060V140 CAVOK 07/00 Q1003 NOSIG RMK WIND 670FT 14014G27KT=\\nENVA 011950Z 14009G21KT 080V200 CAVOK 07/M00 Q1004 NOSIG RMK WIND 670FT 14018G30KT=\\nENVA 012020Z 14017KT 100V160 CAVOK 07/M01 Q1003 NOSIG RMK WIND 670FT 15029KT=\\nENVA 012050Z 15011G24KT 120V200 CAVOK 07/M02 Q1005 RMK WIND 670FT 16017KT=\\nENVA 012120Z 13016G29KT CAVOK 07/M01 Q1005 RMK WIND 670FT 15021G31KT=\\nENVA 012150Z 13015KT 9999 SCT150/// 07/M01 Q1005 RMK WIND 670FT 15019G32KT=\\nENVA 012220Z 09003KT 9999 FEW150/// SCT200/// 07/M01 Q1005 RMK WIND 670FT 16021KT=\\nENVA 012250Z 15011KT 120V190 9999 SCT190/// 07/M01 Q1005 RMK WIND 670FT 17021G32KT=\\nENVA 012320Z 13005G15KT 9999 SCT160/// 07/M01 Q1006 RMK WIND 670FT 17024G36KT=\\nENVA 012350Z VRB05KT 9999 FEW110/// 07/M02 Q1006 RMK WIND 670FT 17022G39KT=\\n\\n'}\n"
     ]
    },
    {
     "ename": "TypeError",
     "evalue": "'dict' object is not callable",
     "output_type": "error",
     "traceback": [
      "\u001b[1;31m---------------------------------------------------------------------------\u001b[0m",
      "\u001b[1;31mTypeError\u001b[0m                                 Traceback (most recent call last)",
      "Cell \u001b[1;32mIn[14], line 12\u001b[0m\n\u001b[0;32m      9\u001b[0m \u001b[38;5;28mprint\u001b[39m(\u001b[38;5;28mtype\u001b[39m(data))\n\u001b[0;32m     10\u001b[0m \u001b[38;5;28mprint\u001b[39m(data)\n\u001b[1;32m---> 12\u001b[0m my_string \u001b[38;5;241m=\u001b[39m \u001b[38;5;28mstr\u001b[39m(\u001b[43mdata\u001b[49m\u001b[43m(\u001b[49m\u001b[43m)\u001b[49m)\n\u001b[0;32m     13\u001b[0m lines_from_string \u001b[38;5;241m=\u001b[39m my_string\u001b[38;5;241m.\u001b[39msplitlines()\n\u001b[0;32m     14\u001b[0m \u001b[38;5;28;01mfor\u001b[39;00m line \u001b[38;5;129;01min\u001b[39;00m lines_from_string:\n",
      "\u001b[1;31mTypeError\u001b[0m: 'dict' object is not callable"
     ]
    }
   ],
   "source": [
    "import json\n",
    "import pandas as pd\n",
    "\n",
    "# Åpne filen og last inn JSON-dataene\n",
    "with open('..//data/metar_ENVA,ENOL_2024-03-01.json', 'r') as file:\n",
    "    data = json.load(file)\n",
    "\n",
    "# Skriv ut dataene\n",
    "print(type(data))\n",
    "print(data)\n",
    "\n",
    "my_string = str(data())\n",
    "lines_from_string = my_string.splitlines()\n",
    "for line in lines_from_string:\n",
    "    print(line)\n",
    "\n",
    "\n"
   ]
  },
  {
   "cell_type": "code",
   "execution_count": null,
   "metadata": {},
   "outputs": [],
   "source": [
    "\n",
    "#Fra oppgave 2\n",
    "# Lagrer dataene i en CSV-fil\n",
    "#all_data.append(data)\n",
    "#df = pd.DataFrame(all_data)\n",
    "#df.to_csv(f'../data/data{icao_code}.csv')"
   ]
  },
  {
   "cell_type": "code",
   "execution_count": 15,
   "metadata": {},
   "outputs": [
    {
     "ename": "FileNotFoundError",
     "evalue": "[Errno 2] No such file or directory: '../data/ENEV,ENGM_2024-03-10.json'",
     "output_type": "error",
     "traceback": [
      "\u001b[1;31m---------------------------------------------------------------------------\u001b[0m",
      "\u001b[1;31mFileNotFoundError\u001b[0m                         Traceback (most recent call last)",
      "Cell \u001b[1;32mIn[15], line 7\u001b[0m\n\u001b[0;32m      4\u001b[0m \u001b[38;5;28;01mfrom\u001b[39;00m\u001b[38;5;250m \u001b[39m\u001b[38;5;21;01mpandas\u001b[39;00m\u001b[38;5;250m \u001b[39m\u001b[38;5;28;01mimport\u001b[39;00m json_normalize\n\u001b[0;32m      6\u001b[0m \u001b[38;5;66;03m# Åpne filen og last inn JSON-dataene\u001b[39;00m\n\u001b[1;32m----> 7\u001b[0m \u001b[38;5;28;01mwith\u001b[39;00m \u001b[38;5;28;43mopen\u001b[39;49m\u001b[43m(\u001b[49m\u001b[38;5;124;43m'\u001b[39;49m\u001b[38;5;124;43m../data/ENEV,ENGM_2024-03-10.json\u001b[39;49m\u001b[38;5;124;43m'\u001b[39;49m\u001b[43m,\u001b[49m\u001b[43m \u001b[49m\u001b[38;5;124;43m'\u001b[39;49m\u001b[38;5;124;43mr\u001b[39;49m\u001b[38;5;124;43m'\u001b[39;49m\u001b[43m)\u001b[49m \u001b[38;5;28;01mas\u001b[39;00m file:\n\u001b[0;32m      8\u001b[0m     data \u001b[38;5;241m=\u001b[39m json\u001b[38;5;241m.\u001b[39mload(file)\n\u001b[0;32m     10\u001b[0m wind_df_list \u001b[38;5;241m=\u001b[39m []\n",
      "File \u001b[1;32mc:\\Users\\hanna\\OneDrive\\Desktop\\Python\\TDT4114\\Prosjektgruppe55\\venv\\Lib\\site-packages\\IPython\\core\\interactiveshell.py:324\u001b[0m, in \u001b[0;36m_modified_open\u001b[1;34m(file, *args, **kwargs)\u001b[0m\n\u001b[0;32m    317\u001b[0m \u001b[38;5;28;01mif\u001b[39;00m file \u001b[38;5;129;01min\u001b[39;00m {\u001b[38;5;241m0\u001b[39m, \u001b[38;5;241m1\u001b[39m, \u001b[38;5;241m2\u001b[39m}:\n\u001b[0;32m    318\u001b[0m     \u001b[38;5;28;01mraise\u001b[39;00m \u001b[38;5;167;01mValueError\u001b[39;00m(\n\u001b[0;32m    319\u001b[0m         \u001b[38;5;124mf\u001b[39m\u001b[38;5;124m\"\u001b[39m\u001b[38;5;124mIPython won\u001b[39m\u001b[38;5;124m'\u001b[39m\u001b[38;5;124mt let you open fd=\u001b[39m\u001b[38;5;132;01m{\u001b[39;00mfile\u001b[38;5;132;01m}\u001b[39;00m\u001b[38;5;124m by default \u001b[39m\u001b[38;5;124m\"\u001b[39m\n\u001b[0;32m    320\u001b[0m         \u001b[38;5;124m\"\u001b[39m\u001b[38;5;124mas it is likely to crash IPython. If you know what you are doing, \u001b[39m\u001b[38;5;124m\"\u001b[39m\n\u001b[0;32m    321\u001b[0m         \u001b[38;5;124m\"\u001b[39m\u001b[38;5;124myou can use builtins\u001b[39m\u001b[38;5;124m'\u001b[39m\u001b[38;5;124m open.\u001b[39m\u001b[38;5;124m\"\u001b[39m\n\u001b[0;32m    322\u001b[0m     )\n\u001b[1;32m--> 324\u001b[0m \u001b[38;5;28;01mreturn\u001b[39;00m \u001b[43mio_open\u001b[49m\u001b[43m(\u001b[49m\u001b[43mfile\u001b[49m\u001b[43m,\u001b[49m\u001b[43m \u001b[49m\u001b[38;5;241;43m*\u001b[39;49m\u001b[43margs\u001b[49m\u001b[43m,\u001b[49m\u001b[43m \u001b[49m\u001b[38;5;241;43m*\u001b[39;49m\u001b[38;5;241;43m*\u001b[39;49m\u001b[43mkwargs\u001b[49m\u001b[43m)\u001b[49m\n",
      "\u001b[1;31mFileNotFoundError\u001b[0m: [Errno 2] No such file or directory: '../data/ENEV,ENGM_2024-03-10.json'"
     ]
    }
   ],
   "source": [
    "import json\n",
    "import numpy as np\n",
    "import pandas as pd\n",
    "from pandas import json_normalize\n",
    "\n",
    "# Åpne filen og last inn JSON-dataene\n",
    "with open('../data/ENEV,ENGM_2024-03-10.json', 'r') as file:\n",
    "    data = json.load(file)\n",
    "\n",
    "wind_df_list = []\n",
    "\n",
    "for key, value in data.items():\n",
    "    # Bruk pandas.json_normalize for å normalisere JSON-dataene\n",
    "    wind_df = json_normalize(data[key])\n",
    "\n",
    "    # Fjern eventuelle prefikser fra kolonnenavnene\n",
    "    wind_df.columns = wind_df.columns.str.replace('subjects.', '', regex=False)\n",
    "    \n",
    "    # Legg til en kolonne for grad\n",
    "    wind_df['grade'] = key\n",
    "    \n",
    "    # Legg til DataFrame til listen\n",
    "    wind_df_list.append(wind_df)\n",
    "\n",
    "# Kombiner alle DataFrames i listen til en enkelt DataFrame\n",
    "combined_wind_df = pd.concat(wind_df_list, ignore_index=True)\n",
    "\n",
    "# Skriv ut de første radene i den kombinerte DataFrame\n",
    "print(combined_wind_df.head())\n"
   ]
  },
  {
   "cell_type": "code",
   "execution_count": 109,
   "metadata": {},
   "outputs": [
    {
     "name": "stdout",
     "output_type": "stream",
     "text": [
      "File not found!\n"
     ]
    }
   ],
   "source": [
    "def load_data(file_name):\n",
    "    try:        \n",
    "        # Load the JSON data\n",
    "        with open(file_name) as f:\n",
    "            data = json.load(f)\n",
    "        return data\n",
    "    except FileNotFoundError:\n",
    "        print(\"File not found!\")  \n",
    "        return None \n",
    "    \n",
    "data = load_data(\"../data/ENEV,ENGM_2024-03-10.json\")"
   ]
  },
  {
   "cell_type": "code",
   "execution_count": null,
   "metadata": {},
   "outputs": [
    {
     "name": "stdout",
     "output_type": "stream",
     "text": [
      "Wind Speeds: [15018 14018 14017 14018 14018 15019 15018 15015 15018 14015 15014 14012\n",
      " 14017 12017 12010 12009 12009 12008 12008 14013 14010 13009 12009 13010\n",
      " 14013 14014 13014 13015 11010 13015 13015 13014 14013 12012 12013 12015\n",
      " 13020 14021 14024 14024 15025 14020 14019 14017 13017 13017 13004 11008\n",
      " 15018 15019 15018 15016 13014 14015 12012 10012 11009 12012 13013 14015\n",
      " 14016 14011 13006 10010 15015 14010 14010 13008 14013 11010 14017 14010\n",
      " 16011 12013 12010 13008 12006 14009 10010 14017 13015  9003 15011]\n"
     ]
    }
   ],
   "source": [
    "# henter wind eller andre som har spesifikke variabler \n",
    "# Hent METAR og TAF data\n",
    "metar_data = data.get(\"metar\", \"\")\n",
    "taf_data = data.get(\"taf\", \"\")\n",
    "\n",
    "# Eksempel på hvordan du kan hente spesifikk data fra METAR og TAF\n",
    "# Her antar vi at vi vil hente ut vindhastighet fra METAR-dataene\n",
    "\n",
    "# Funksjon for å hente ut vindhastighet fra METAR-strengen\n",
    "def extract_wind_speed(metar_str):\n",
    "    wind_speeds = []\n",
    "    for line in metar_str.split('\\n'):\n",
    "        if 'KT' in line:\n",
    "            parts = line.split()\n",
    "            for part in parts:\n",
    "                if part.endswith('KT'): # or part.endswith('KT=\\nENSB'):\n",
    "                    try:\n",
    "                        wind_speed = int(part[:-2])\n",
    "                        wind_speeds.append(wind_speed)\n",
    "                    except ValueError:\n",
    "                        continue\n",
    "    return wind_speeds\n",
    "\n",
    "# Hent vindhastigheter fra METAR-dataene\n",
    "wind_speeds = extract_wind_speed(metar_data)\n",
    "\n",
    "# Konverter til NumPy-array\n",
    "wind_speeds_np = np.array(wind_speeds)\n",
    "\n",
    "# Eksempel på rensing av data: fjern NaN-verdier\n",
    "wind_speeds_clean = wind_speeds_np[~np.isnan(wind_speeds_np)]\n",
    "\n",
    "# Skriv ut rensede data\n",
    "print(\"Wind Speeds:\", wind_speeds_clean)\n",
    "\n",
    "# denne koden fungerer med 'FT', 'Z' og 'KT'"
   ]
  },
  {
   "cell_type": "markdown",
   "metadata": {},
   "source": []
  },
  {
   "cell_type": "code",
   "execution_count": null,
   "metadata": {},
   "outputs": [
    {
     "name": "stdout",
     "output_type": "stream",
     "text": [
      "Data for ENGM den 2024-03-01 er lagret under data-mappen i ENGM_2024-03-01.json\n",
      "{'metar': ['<html>\\r', '<head><title>403 Forbidden</title></head>\\r', '<body>\\r', '<center><h1>403 Forbidden</h1></center>\\r', '<hr><center>nginx/1.18.0 (Ubuntu)</center>\\r', '</body>\\r', '</html>\\r', '']}\n"
     ]
    }
   ],
   "source": [
    "#Oppgave 2\n",
    "\n",
    "import json\n",
    "import sys, os\n",
    "\n",
    "sys.path.insert(0, '../src/')\n",
    "\n",
    "import metar_writer as mw\n",
    "import taf_writer as tw\n",
    "\n",
    "# Parametere for metar\n",
    "icao_codes = [\"ENGM\"]\n",
    "dates = [\"2024-03-01\"]\n",
    "all_data = [] # mulighet for å lagre som csv fil\n",
    "for icao_code in icao_codes:\n",
    "    for date in dates:\n",
    "        # Henter informasjon for gitte parametere\n",
    "        metar = mw.get_metar(icao_code, date)\n",
    "        taf = tw.get_taf(icao_code, date)\n",
    "\n",
    "         # Splitt METAR-dataene ved linjeskift\n",
    "        metar_lines = metar.split('\\n')\n",
    "        taf_lines = taf.split('\\n')\n",
    "\n",
    "        # Samler dataene i en JSON-fil\n",
    "        data_metar = {\n",
    "            \"metar\": metar_lines\n",
    "        }\n",
    "        data_taf = {\n",
    "            \"taf\": taf_lines\n",
    "        }\n",
    "all_data.append(data_metar) #lagt ved for å ha mulighet til å samle data som csv fil\n",
    "\n",
    "\n",
    "file_name = f\"{icao_code}_{date}.json\"\n",
    "\n",
    "# Lagrer dataene i en JSON-file\n",
    "with open(f\"../data/metar_{file_name}\", \"w\") as json_file:\n",
    "        json.dump(data_metar, json_file)\n",
    "\n",
    "with open(f\"../data/taf_{file_name}\", \"w\") as json_file:\n",
    "        json.dump(data_taf, json_file)\n",
    "\n",
    "# Skriver ut en bekreftelse    \n",
    "print(f\"Data for {icao_code} den {date} er lagret under data-mappen i {file_name}\")    \n",
    "\n",
    "#df = pd.DataFrame(all_data)\n",
    "#df.to_csv('../data/datahanna.csv')\n",
    "print(data_metar)\n"
   ]
  },
  {
   "cell_type": "code",
   "execution_count": 2,
   "metadata": {},
   "outputs": [
    {
     "name": "stdout",
     "output_type": "stream",
     "text": [
      "<class 'str'>\n",
      "<class 'dict'>\n",
      "<class 'list'>\n"
     ]
    }
   ],
   "source": [
    "print(type(metar))\n",
    "print(type(data_metar))\n",
    "print(type(metar_lines))\n"
   ]
  },
  {
   "cell_type": "markdown",
   "metadata": {},
   "source": [
    "mening: \n",
    "\n",
    "analyserer vindretningen ved en flyplass over tid for å se etter optimal retning av flystripe. Optimalt for et fly er å ta av i motvind for å spare drivstoff. Argumenter for hvordan flystripa er satt opp. miljøhensyn \n",
    " ? varaibel vind\n",
    "\n",
    "Ørland/Oslo - nylig oppdatert flystripe\n",
    "Bodø - skal lage ny flystripe\n",
    "\n",
    "sammenlikne metar og taf "
   ]
  },
  {
   "cell_type": "code",
   "execution_count": null,
   "metadata": {},
   "outputs": [
    {
     "name": "stdout",
     "output_type": "stream",
     "text": [
      "filene ../data/metar_ENBO,ENOL_2024-03-01.json er lest\n",
      "   Airport Date/time Wind/direction Variable wind Cloud 1 Cloud 2 Cloud 3  \\\n",
      "0     ENBO   010020Z        15014KT           NaN   CAVOK     NaN     NaN   \n",
      "1     ENBO   010050Z        14013KT           NaN   CAVOK     NaN     NaN   \n",
      "2     ENBO   010120Z        14014KT           NaN   CAVOK     NaN     NaN   \n",
      "3     ENBO   010220Z        15012KT           NaN   CAVOK     NaN     NaN   \n",
      "4     ENBO   010250Z        17014KT           NaN   CAVOK     NaN     NaN   \n",
      "5     ENBO   010320Z        18018KT           NaN   CAVOK     NaN     NaN   \n",
      "6     ENBO   010350Z        19019KT           NaN   CAVOK     NaN     NaN   \n",
      "7     ENBO   010420Z        19020KT           NaN   CAVOK     NaN     NaN   \n",
      "8     ENBO   010450Z        19018KT           NaN   CAVOK     NaN     NaN   \n",
      "9     ENBO   010520Z        19018KT           NaN   CAVOK     NaN     NaN   \n",
      "10    ENBO   010550Z        19017KT           NaN   CAVOK     NaN     NaN   \n",
      "11    ENBO   010620Z        19016KT           NaN   CAVOK     NaN     NaN   \n",
      "12    ENBO   010650Z        19014KT           NaN   CAVOK     NaN     NaN   \n",
      "13    ENBO   010720Z        19013KT           NaN   CAVOK     NaN     NaN   \n",
      "\n",
      "   Cloud 4 Cloud 5 Temp/dewpoint QNH/pressure  \n",
      "0      NaN     NaN        07/M00       Q0994=  \n",
      "1      NaN     NaN        08/M01       Q0994=  \n",
      "2      NaN     NaN        08/M01       Q0995=  \n",
      "3      NaN     NaN        07/M01       Q0995=  \n",
      "4      NaN     NaN        08/M01       Q0995=  \n",
      "5      NaN     NaN        07/M01       Q0995=  \n",
      "6      NaN     NaN        07/M00       Q0995=  \n",
      "7      NaN     NaN        07/M01       Q0996=  \n",
      "8      NaN     NaN        07/M01       Q0996=  \n",
      "9      NaN     NaN        07/M01       Q0997=  \n",
      "10     NaN     NaN        08/M01       Q0997=  \n",
      "11     NaN     NaN        07/M01        Q0998  \n",
      "12     NaN     NaN        07/M01        Q0998  \n",
      "13     NaN     NaN        07/M01        Q0999  \n"
     ]
    }
   ],
   "source": [
    "#oppgave 3\n",
    "import sys, os\n",
    "\n",
    "\n",
    "sys.path.insert(0, '../src/')\n",
    "#henter dataFrame_metar.py fil fra src mappa.\n",
    "import dataFrame_metar as dataframe\n",
    "\n",
    "#variabler \n",
    "column_names = [\"Airport\", \"Date/time\", \"Wind/direction\", \"Variable wind\", \"Cloud 1\", \"Cloud 2\", \"Cloud 3\", \"Cloud 4\", \"Cloud 5\", \"Temp/dewpoint\", \"QNH/pressure\"]\n",
    "file_path = ('../data/metar_ENBO,ENOL_2024-03-01.json')\n",
    "\n",
    "df_m = pd.read_json(file_path)\n",
    "if not os.path.exists(file_path):\n",
    "    print(f\"Filen {file_path} finnes ikke\")\n",
    "else:\n",
    "    resultat = dataframe.metar_df(column_names, df_m)\n",
    "    \n",
    "    print(f\"filene {file_path} er lest\")\n",
    "print(resultat.head(14))"
   ]
  },
  {
   "cell_type": "code",
   "execution_count": 122,
   "metadata": {},
   "outputs": [
    {
     "name": "stdout",
     "output_type": "stream",
     "text": [
      "   Airport Date/time Wind/direction Variable wind Cloud 1 Cloud 2 Cloud 3  \\\n",
      "0     ENBO   010020Z        15014KT           NaN   CAVOK     NaN     NaN   \n",
      "1     ENBO   010050Z        14013KT           NaN   CAVOK     NaN     NaN   \n",
      "2     ENBO   010120Z        14014KT           NaN   CAVOK     NaN     NaN   \n",
      "3     ENBO   010220Z        15012KT           NaN   CAVOK     NaN     NaN   \n",
      "4     ENBO   010250Z        17014KT           NaN   CAVOK     NaN     NaN   \n",
      "5     ENBO   010320Z        18018KT           NaN   CAVOK     NaN     NaN   \n",
      "6     ENBO   010350Z        19019KT           NaN   CAVOK     NaN     NaN   \n",
      "7     ENBO   010420Z        19020KT           NaN   CAVOK     NaN     NaN   \n",
      "8     ENBO   010450Z        19018KT           NaN   CAVOK     NaN     NaN   \n",
      "9     ENBO   010520Z        19018KT           NaN   CAVOK     NaN     NaN   \n",
      "10    ENBO   010550Z        19017KT           NaN   CAVOK     NaN     NaN   \n",
      "11    ENBO   010620Z        19016KT           NaN   CAVOK     NaN     NaN   \n",
      "12    ENBO   010650Z        19014KT           NaN   CAVOK     NaN     NaN   \n",
      "13    ENBO   010720Z        19013KT           NaN   CAVOK     NaN     NaN   \n",
      "\n",
      "   Cloud 4 Cloud 5 Temp/dewpoint QNH/pressure  \n",
      "0      NaN     NaN        07/M00       Q0994=  \n",
      "1      NaN     NaN        08/M01       Q0994=  \n",
      "2      NaN     NaN        08/M01       Q0995=  \n",
      "3      NaN     NaN        07/M01       Q0995=  \n",
      "4      NaN     NaN        08/M01       Q0995=  \n",
      "5      NaN     NaN        07/M01       Q0995=  \n",
      "6      NaN     NaN        07/M00       Q0995=  \n",
      "7      NaN     NaN        07/M01       Q0996=  \n",
      "8      NaN     NaN        07/M01       Q0996=  \n",
      "9      NaN     NaN        07/M01       Q0997=  \n",
      "10     NaN     NaN        08/M01       Q0997=  \n",
      "11     NaN     NaN        07/M01        Q0998  \n",
      "12     NaN     NaN        07/M01        Q0998  \n",
      "13     NaN     NaN        07/M01        Q0999  \n"
     ]
    }
   ],
   "source": [
    "\n",
    "\n",
    "\n",
    "#df_m = pd.read_json('../data/metar_ENGM,ENOL_2024-03-01.json')\n",
    "#df_t = pd.read_json('../data/taf_ENGM,ENOL_2024-03-01.json')\n",
    "#print(len(df_m))\n",
    "#df = pd.DataFrame((df_m),index=df_m, columns=[\"Sted\",\"Tid\",\"vind\",\"sikt\",\"nedbør\",\"skyer\",\"temp\",\"trykk\"])\n",
    "#print(df)\n",
    "#print(df_m[:5])\n",
    "#print(df_t[5:])\n",
    "#df_m[\"metar\"][1]\n",
    "#df_m[df_m[\"location\"]==\"ENGM\"] \n",
    "\n",
    "\n",
    "import json\n",
    "import numpy as np\n",
    "import pandas as pd\n",
    "import random\n",
    "\n",
    "# Les JSON-dataene\n",
    "df_m = pd.read_json('../data/metar_ENBO,ENOL_2024-03-01.json')\n",
    "df_t = pd.read_json('../data/taf_ENGM,ENOL_2024-03-01.json')\n",
    "\n",
    "# Eksempel på kolonnenavn\n",
    "column_names = [\"Airport\", \"Date/time\", \"Wind/direction\", \"Variable wind\", \"Cloud 1\", \"Cloud 2\", \"Cloud 3\", \"Cloud 4\", \"Cloud 5\", \"Temp/dewpoint\", \"QNH/pressure\"]\n",
    "input = [\"Airport\", \"Date/time\", \"Wind/direction\"]\n",
    "# Opprett en tom DataFrame med 11 kolonner og gi hver av dem et navn\n",
    "\n",
    "\n",
    "def metar_df(interresting_variables,data_m):\n",
    "    df = pd.DataFrame(columns=column_names)\n",
    "    \n",
    "    for datapoint in data_m[\"metar\"]:\n",
    "        \n",
    "        row_data = {}\n",
    "        parts = datapoint.split()\n",
    "        \n",
    "        if len(parts)> 1 and \"Airport\" in interresting_variables:\n",
    "            row_data[\"Airport\"] = parts[0]\n",
    "\n",
    "        if len(parts)> 2 and \"Date/time\" in interresting_variables:\n",
    "            row_data[\"Date/time\"] = parts[1]\n",
    "\n",
    "        if len(parts)> 3 and \"Wind/direction\" in interresting_variables:\n",
    "            row_data[\"Wind/direction\"] = parts[2] \n",
    "\n",
    "        if \"Variable wind\" in interresting_variables:\n",
    "            for part in parts:\n",
    "                if \"V\" in part and len(part)==7:\n",
    "                    row_data[\"Variable wind\"] = part\n",
    "                    break\n",
    "            else: row_data[\"Variable wind\"] = np.nan\n",
    "\n",
    "        if \"Cloud 1\" in interresting_variables:\n",
    "            for part in parts:\n",
    "                if part == \"CAVOK\":\n",
    "                    row_data[\"Cloud 1\"] = part\n",
    "                    break\n",
    "            else: row_data[\"Cloud 1\"] =np.nan\n",
    "\n",
    "        if \"Cloud 2\" in interresting_variables:\n",
    "            for part in parts:\n",
    "                if \"FEW\" in part and len(part) > 4:\n",
    "                    row_data[\"Cloud 2\"] = part\n",
    "                    break\n",
    "            else: row_data[\"Cloud 2\"] = np.nan\n",
    "\n",
    "        if \"Cloud 3\" in interresting_variables:\n",
    "            for part in parts:\n",
    "                if \"SCT\" in part and len(part)> 4:\n",
    "                    row_data[\"Cloud 3\"] = part\n",
    "                    break\n",
    "            else: row_data[\"Cloud 3\"] =np.nan\n",
    "\n",
    "        if \"Cloud 4\" in interresting_variables:\n",
    "            for part in parts:\n",
    "                if \"BKN\" in part and len(part)> 4:\n",
    "                    row_data[\"Cloud 4\"] = part\n",
    "                    break\n",
    "            else: row_data[\"Cloud 4\"] =np.nan\n",
    "\n",
    "        if \"Cloud 5\" in interresting_variables:\n",
    "            for part in parts:\n",
    "                if \"OVC\" in part:\n",
    "                    row_data[\"Cloud 5\"] = part\n",
    "                    break\n",
    "            else: row_data[\"Cloud 5\"] =np.nan\n",
    "\n",
    "        if \"Temp/dewpoint\" in interresting_variables:\n",
    "            for part in parts:\n",
    "                if \"/\" in part and len(part)> 3:\n",
    "                    row_data[\"Temp/dewpoint\"] = part\n",
    "                    break\n",
    "            else: row_data[\"Temp/dewpoint\"] = np.nan\n",
    "\n",
    "        if \"QNH/pressure\" in interresting_variables:\n",
    "            for part in parts:\n",
    "                if \"Q\" in part and len(part)> 3:\n",
    "                    row_data[\"QNH/pressure\"] = part\n",
    "                    break\n",
    "                else: row_data[\"QNH/pressure\"] = np.nan\n",
    "\n",
    "        # Konverter row_data til en DataFrame og legg den til df ved hjelp av pd.concat\n",
    "        row_df = pd.DataFrame([row_data])\n",
    "        df = pd.concat([df, row_df], ignore_index=True)\n",
    "        \n",
    "    return df\n",
    "result_df = metar_df(column_names, df_m)\n",
    "print(result_df.head(14))\n",
    "    "
   ]
  },
  {
   "cell_type": "code",
   "execution_count": 69,
   "metadata": {},
   "outputs": [],
   "source": [
    "# csv -fil\n",
    "import requests\n",
    "import pandas as pd\n",
    "import json\n",
    "\n",
    "# Funksjoner\n",
    "def get_metar(icao_code, date):\n",
    "    base_url = \"https://api.met.no/weatherapi/tafmetar/1.0/\"\n",
    "    \n",
    "    metar_url = f\"{base_url}?icao={icao_code}&content_type=text/plain&content=metar&date={date}\"\n",
    "    \n",
    "    metar_response = requests.get(metar_url)\n",
    "    \n",
    "    metar_data = metar_response.text\n",
    "    \n",
    "    return metar_data\n",
    "\n",
    "def get_taf(icao_code, date):\n",
    "    base_url = \"https://api.met.no/weatherapi/tafmetar/1.0/\"\n",
    "    \n",
    "    taf_url = f\"{base_url}?icao={icao_code}&content_type=text/plain&content=taf&date={date}\"\n",
    "    \n",
    "    taf_response = requests.get(taf_url)\n",
    "    \n",
    "    taf_data = taf_response.text\n",
    "    \n",
    "    return taf_data\n",
    "\n",
    "# Parametere\n",
    "icao_codes = [\"ENOL\", \"ENGM\"]\n",
    "dates = [\"2024-03-01\"]\n",
    "all_data = []\n",
    "\n",
    "for icao_code in icao_codes:\n",
    "    for date in dates:\n",
    "        # Henter informasjon for gitte parametere\n",
    "        metar = get_metar(icao_code, date)\n",
    "        taf = get_taf(icao_code, date)\n",
    "\n",
    "        # Samler dataene i en JSON-fil\n",
    "        data = {\n",
    "            \"icao_code\": icao_code,\n",
    "            \"date\": date,\n",
    "            \"metar\": metar,\n",
    "            \"taf\": taf\n",
    "        }\n",
    "        all_data.append(data)\n",
    "\n",
    "        file_name = f\"{icao_code}_{date}.json\"\n",
    "        # Lagrer dataene i en JSON-file\n",
    "        with open(f\"../data/{file_name}\", \"w\") as json_file:\n",
    "            json.dump(data, json_file, indent=4)\n",
    "\n",
    "# Konverterer all_data til en DataFrame\n",
    "df = pd.DataFrame(all_data)\n",
    "\n",
    "# Lagrer DataFrame som en CSV-fil\n",
    "df.to_csv('../data/datatest_hanna.csv', index=False)\n",
    "\n",
    "# Printer ut resultatet\n",
    "#print(df)\n",
    "\n"
   ]
  }
 ],
 "metadata": {
  "kernelspec": {
   "display_name": "venv",
   "language": "python",
   "name": "python3"
  },
  "language_info": {
   "codemirror_mode": {
    "name": "ipython",
    "version": 3
   },
   "file_extension": ".py",
   "mimetype": "text/x-python",
   "name": "python",
   "nbconvert_exporter": "python",
   "pygments_lexer": "ipython3",
   "version": "3.13.1"
  }
 },
 "nbformat": 4,
 "nbformat_minor": 2
}
