{
 "cells": [
  {
   "cell_type": "code",
   "execution_count": 1,
   "metadata": {},
   "outputs": [
    {
     "name": "stdout",
     "output_type": "stream",
     "text": [
      "ENVA 010020Z VRB06KT 9999 OVC110/// 08/M01 Q0998 RMK WIND 670FT 18022G39KT=\n",
      "ENVA 010050Z 13004KT 9999 OVC100/// 08/M01 Q0998 RMK WIND 670FT 17022KT=\n",
      "ENVA 010120Z VRB08G21KT 9999 OVC100/// 08/M01 Q0998 RMK WIND 670FT 18026G41KT=\n",
      "ENVA 010150Z 16012G23KT 120V190 9999 OVC092/// 08/M00 Q0998 RMK WIND 670FT 18026G40KT=\n",
      "ENVA 010220Z 14011G23KT 100V210 9999 OVC088/// 08/M00 Q0999 RMK WIND 670FT 18024G35KT=\n",
      "ENVA 010250Z 11008KT 060V150 9999 OVC083/// 08/M00 Q0999 RMK WIND 670FT 17024G34KT=\n",
      "ENVA 010320Z 15018KT 9999 OVC076/// 08/M00 Q0999 RMK WIND 670FT 17026KT=\n",
      "ENVA 010350Z 15019KT 9999 OVC071/// 08/01 Q0999 RMK WIND 670FT 16025KT=\n",
      "ENVA 010420Z 15018KT CAVOK 08/01 Q1000 RMK WIND 670FT 16021KT=\n",
      "ENVA 010450Z 15016KT CAVOK 08/01 Q1000 RMK WIND 670FT 15026KT=\n",
      "ENVA 010520Z 13014KT 100V160 CAVOK 08/01 Q1000 RMK WIND 670FT 15024KT=\n",
      "ENVA 010550Z 14015KT CAVOK 08/01 Q1000 NOSIG RMK WIND 670FT 14017KT=\n",
      "ENVA 010620Z 12012KT CAVOK 08/01 Q1000 NOSIG RMK WIND 670FT 14016KT=\n",
      "ENVA 010650Z 10012KT CAVOK 08/01 Q1000 NOSIG RMK WIND 670FT 13012G23KT=\n",
      "ENVA 010720Z 11009KT 080V140 CAVOK 08/02 Q1000 NOSIG RMK WIND 670FT 16015G26KT=\n",
      "ENVA 010750Z 12012KT CAVOK 09/02 Q1000 NOSIG RMK WIND 670FT 15014KT=\n",
      "ENVA 010820Z 13013KT CAVOK 09/02 Q1000 NOSIG RMK WIND 670FT 16019KT=\n",
      "ENVA 010850Z 14015KT CAVOK 09/02 Q1000 NOSIG RMK WIND 670FT 16021G33KT=\n",
      "ENVA 010920Z 14016KT CAVOK 09/02 Q1001 NOSIG RMK WIND 670FT 16023KT=\n",
      "ENVA 010950Z 14011KT CAVOK 09/01 Q1001 NOSIG RMK WIND 670FT 16021KT=\n",
      "ENVA 011020Z 13006KT 090V170 CAVOK 10/01 Q1001 NOSIG RMK WIND 670FT 16017KT=\n",
      "ENVA 011050Z 10010KT CAVOK 10/01 Q1001 NOSIG RMK WIND 670FT 16018G28KT=\n",
      "ENVA 011120Z VRB09G20KT 9999 -RA FEW036 BKN053 09/01 Q1002 TEMPO 16015G30KT RMK WIND 670FT 17025G38KT=\n",
      "ENVA 011150Z 15015KT 9999 -RA FEW040 BKN055 08/02 Q1002 TEMPO 16015G25KT RMK WIND 670FT 16022KT=\n",
      "ENVA 011220Z 14010KT 9999 -RA SCT048 BKN064 08/02 Q1002 TEMPO 16015G25KT RMK WIND 670FT 16021G31KT=\n",
      "ENVA 011250Z 14010KT 9999 -RA SCT050 BKN073 08/01 Q1002 TEMPO 16015G25KT RMK WIND 670FT 16021KT=\n",
      "ENVA 011320Z 13008KT 090V180 9999 FEW050 BKN075 09/01 Q1002 TEMPO 16015G25KT RMK WIND 670FT 16018G30KT=\n",
      "ENVA 011350Z 14013KT 120V180 9999 FEW050 BKN070 09/01 Q1002 TEMPO 16015G25KT RMK WIND 670FT 17028G44KT=\n",
      "ENVA 011420Z 11010KT 060V160 9999 FEW050 BKN070 09/01 Q1002 TEMPO 16015G25KT RMK WIND 670FT 16025G38KT=\n",
      "ENVA 011450Z 14017KT CAVOK 09/01 Q1002 TEMPO 16015G25KT RMK WIND 670FT 15025KT=\n",
      "ENVA 011520Z 14010KT 110V180 CAVOK 08/01 Q1002 TEMPO 16015G25KT RMK WIND 670FT 16015G25KT=\n",
      "ENVA 011550Z 16011KT CAVOK 08/00 Q1002 TEMPO 16015G25KT RMK WIND 670FT 14013G23KT=\n",
      "ENVA 011620Z 12013KT CAVOK 08/00 Q1002 NOSIG RMK WIND 670FT 13012G23KT=\n",
      "ENVA 011650Z 12010KT CAVOK 08/00 Q1002 NOSIG RMK WIND 670FT 12010G20KT=\n",
      "ENVA 011720Z 13008KT 090V160 CAVOK 08/00 Q1002 NOSIG RMK WIND 670FT 15017G27KT=\n",
      "ENVA 011750Z VRB05KT CAVOK 08/00 Q1002 NOSIG RMK WIND 670FT 15017G33KT=\n",
      "ENVA 011820Z 12006KT 020V180 CAVOK 08/00 Q1003 NOSIG RMK WIND 670FT 16014KT=\n",
      "ENVA 011850Z 14009KT 100V230 CAVOK 08/00 Q1003 NOSIG RMK WIND 670FT 14017G30KT=\n",
      "ENVA 011920Z 10010KT 060V140 CAVOK 07/00 Q1003 NOSIG RMK WIND 670FT 14014G27KT=\n",
      "ENVA 011950Z 14009G21KT 080V200 CAVOK 07/M00 Q1004 NOSIG RMK WIND 670FT 14018G30KT=\n",
      "ENVA 012020Z 14017KT 100V160 CAVOK 07/M01 Q1003 NOSIG RMK WIND 670FT 15029KT=\n",
      "ENVA 012050Z 15011G24KT 120V200 CAVOK 07/M02 Q1005 RMK WIND 670FT 16017KT=\n",
      "ENVA 012120Z 13016G29KT CAVOK 07/M01 Q1005 RMK WIND 670FT 15021G31KT=\n",
      "ENVA 012150Z 13015KT 9999 SCT150/// 07/M01 Q1005 RMK WIND 670FT 15019G32KT=\n",
      "ENVA 012220Z 09003KT 9999 FEW150/// SCT200/// 07/M01 Q1005 RMK WIND 670FT 16021KT=\n",
      "ENVA 012250Z 15011KT 120V190 9999 SCT190/// 07/M01 Q1005 RMK WIND 670FT 17021G32KT=\n",
      "ENVA 012320Z 13005G15KT 9999 SCT160/// 07/M01 Q1006 RMK WIND 670FT 17024G36KT=\n",
      "ENVA 012350Z VRB05KT 9999 FEW110/// 07/M02 Q1006 RMK WIND 670FT 17022G39KT=\n",
      "\n",
      "\n",
      "ENVA 010500Z 0106/0206 12008KT CAVOK TEMPO 0106/0123 16015G25KT=\n",
      "ENVA 011100Z 0112/0212 12008KT CAVOK TEMPO 0112/0123 16015G25KT=\n",
      "ENVA 011700Z 0118/0218 12008KT CAVOK TEMPO 0118/0123 16015G25KT=\n",
      "ENVA 012300Z 0200/0224 12008KT CAVOK PROB40 TEMPO 0200/0203 16015G25KT=\n",
      "\n",
      "\n"
     ]
    }
   ],
   "source": [
    "import requests\n",
    "import json\n",
    "\n",
    "# Funksjoner\n",
    "def get_metar(icao_code, date):\n",
    "    base_url = \"https://api.met.no/weatherapi/tafmetar/1.0/\"\n",
    "    \n",
    "    metar_url = f\"{base_url}?icao={icao_code}&content_type=text/plain&content=metar&date={date}\"\n",
    "    \n",
    "    metar_response = requests.get(metar_url)\n",
    "    \n",
    "    metar_data = metar_response.text\n",
    "    \n",
    "    return metar_data\n",
    "\n",
    "def get_taf(icao_code, date):\n",
    "    base_url = \"https://api.met.no/weatherapi/tafmetar/1.0/\"\n",
    "    \n",
    "    taf_url = f\"{base_url}?icao={icao_code}&content_type=text/plain&content=taf&date={date}\"\n",
    "    \n",
    "    taf_response = requests.get(taf_url)\n",
    "    \n",
    "    taf_data = taf_response.text\n",
    "    \n",
    "    return taf_data\n",
    "\n",
    "# Parametere\n",
    "icao_codes = [\"ENVA\"]\n",
    "dates = [\"2024-03-01\"]\n",
    "for icao_code in icao_codes:\n",
    "    for date in dates:\n",
    "        # Henter informasjon for gitte parametere\n",
    "        metar = get_metar(icao_code, date)\n",
    "        taf = get_taf(icao_code, date)\n",
    "\n",
    "        # Samler dataene i en JSON-fil\n",
    "        data = {\n",
    "            \"metar\": metar,\n",
    "            \"taf\": taf\n",
    "            } # finne en måte å dele den opp mellom hver = -tegn\n",
    "        file_name = f\"{icao_code}_{date}.json\"\n",
    "        # Lagrer dataene i en JSON-file\n",
    "        with open(f\"../data/{file_name}\", \"w\") as json_file:\n",
    "            json.dump(data, json_file, indent=3)\n",
    "\n",
    "# Printer ut resultatet\n",
    "print(metar)\n",
    "print(taf)\n"
   ]
  },
  {
   "cell_type": "code",
   "execution_count": null,
   "metadata": {},
   "outputs": [],
   "source": []
  }
 ],
 "metadata": {
  "kernelspec": {
   "display_name": "venv",
   "language": "python",
   "name": "python3"
  },
  "language_info": {
   "codemirror_mode": {
    "name": "ipython",
    "version": 3
   },
   "file_extension": ".py",
   "mimetype": "text/x-python",
   "name": "python",
   "nbconvert_exporter": "python",
   "pygments_lexer": "ipython3",
   "version": "3.13.1"
  }
 },
 "nbformat": 4,
 "nbformat_minor": 2
}
