{
 "cells": [
  {
   "cell_type": "code",
   "execution_count": null,
   "metadata": {},
   "outputs": [
    {
     "name": "stdout",
     "output_type": "stream",
     "text": [
      "ENSB 100020Z 24020KT 9999 FEW012 M04/M08 Q1011 RMK WIND 1400FT 23015KT=\n",
      "ENSB 100050Z 25017KT 9999 FEW012 M03/M08 Q1011 RMK WIND 1400FT 24013KT=\n",
      "ENSB 100120Z 24015KT 9999 FEW012 M04/M08 Q1011 RMK WIND 1400FT 23011KT=\n",
      "ENSB 100150Z 25019KT 9999 FEW012 M05/M08 Q1012 RMK WIND 1400FT 23014KT=\n",
      "ENSB 100220Z 24019KT 9999 FEW008 M05/M08 Q1012 RMK WIND 1400FT 23016KT=\n",
      "ENSB 100250Z 23015KT 8000 FEW008 M05/M09 Q1013 RMK WIND 1400FT 23013KT=\n",
      "ENSB 100320Z 23012KT 9999 FEW010 M06/M09 Q1013 RMK WIND 1400FT 20009KT=\n",
      "ENSB 100350Z 25010KT 9999 FEW016 M06/M09 Q1013 RMK WIND 1400FT 21003KT=\n",
      "ENSB 100420Z 23012KT 9999 FEW014 M06/M09 Q1013 RMK WIND 1400FT 25007KT=\n",
      "ENSB 100450Z 19012KT 9999 FEW012 M07/M10 Q1013 RMK WIND 1400FT 20007KT=\n",
      "ENSB 100520Z 23008KT 9999 SCT012 M06/M09 Q1014 RMK WIND 1400FT 23007KT=\n",
      "ENSB 100550Z 23005KT 9999 SCT013 M06/M09 Q1014 RMK WIND 1400FT 20006KT=\n",
      "ENSB 100620Z 25010KT 9999 FEW011 SCT013 M07/M09 Q1014 RMK WIND 1400FT 21005KT=\n",
      "ENSB 100650Z 24009KT 9999 FEW011 SCT013 M06/M10 Q1014 RMK WIND 1400FT VRB02KT=\n",
      "ENSB 100720Z 25006KT 9999 FEW010 SCT013 M07/M10 Q1015 RMK WIND 1400FT 20005KT=\n",
      "ENSB 100750Z 23006KT 200V260 9999 FEW010 BKN013 M07/M09 Q1015 RMK WIND 1400FT 18003KT=\n",
      "ENSB 100820Z 35005KT 9999 BKN012 M07/M09 Q1015 RMK WIND 1400FT 28004KT=\n",
      "ENSB 100850Z VRB03KT 9999 BKN012 M07/M09 Q1015 RMK WIND 1400FT VRB02KT=\n",
      "ENSB 100920Z VRB03KT 9999 BKN012 M07/M10 Q1015 RMK WIND 1400FT 29003KT=\n",
      "ENSB 100950Z 02007KT 9999 FEW010 SCT013 M07/M09 Q1016 RMK WIND 1400FT 30004KT=\n",
      "ENSB 101020Z 02005KT 9999 FEW010 SCT012 M07/M09 Q1016 RMK WIND 1400FT 23003KT=\n",
      "ENSB 101050Z 01005KT 330V030 9999 FEW008 SCT010 M07/M10 Q1016 RMK WIND 1400FT VRB03KT=\n",
      "ENSB 101120Z 35007KT 9999 BKN011 M08/M11 Q1016 RMK WIND 1400FT 22003KT=\n",
      "ENSB 101150Z 34003KT 280V080 9999 FEW009 BKN012 M08/M10 Q1016 RMK WIND 1400FT 22005KT=\n",
      "ENSB 101220Z 30003KT 230V010 9999 FEW009 BKN012 M08/M10 Q1016 RMK WIND 1400FT 22004KT=\n",
      "ENSB 101250Z 33005KT 300V360 9999 BKN011 M08/M11 Q1016 RMK WIND 1400FT 24004KT=\n",
      "ENSB 101320Z 34007KT 300V020 9999 FEW009 SCT011 M08/M11 Q1016 RMK WIND 1400FT 25003KT=\n",
      "ENSB 101350Z 01008KT 9999 FEW010 SCT014 M09/M12 Q1016 RMK WIND 1400FT 01004KT=\n",
      "ENSB 101420Z 01007KT 9999 FEW011 SCT020 M08/M11 Q1017 RMK WIND 1400FT 02005KT=\n",
      "ENSB 101450Z 02005KT 9999 FEW011 SCT021 M09/M12 Q1017 RMK WIND 1400FT 03003KT=\n",
      "ENSB 101520Z 34004KT 310V020 9999 FEW011 M10/M13 Q1016 RMK WIND 1400FT 04003KT=\n",
      "ENSB 101550Z VRB02KT 9999 FEW011 M10/M14 Q1017 RMK WIND 1400FT 00000KT=\n",
      "ENSB 101620Z VRB03KT 9999 FEW011 M10/M14 Q1016 RMK WIND 1400FT VRB02KT=\n",
      "ENSB 101650Z 23004KT 190V290 9999 FEW011 M10/M14 Q1016 RMK WIND 1400FT VRB01KT=\n",
      "ENSB 101720Z VRB02KT 9999 FEW013 M10/M14 Q1016 RMK WIND 1400FT 00000KT=\n",
      "ENSB 101750Z 23004KT 200V280 9999 FEW015 M10/M14 Q1016 RMK WIND 1400FT 00000KT=\n",
      "ENSB 101820Z VRB01KT 9999 FEW015 M10/M14 Q1017 RMK WIND 1400FT 03003KT=\n",
      "ENSB 101850Z 00000KT 9999 FEW015 M10/M14 Q1017 RMK WIND 1400FT VRB02KT=\n",
      "ENSB 101920Z VRB02KT 9999 FEW015 M11/M14 Q1017 RMK WIND 1400FT VRB02KT=\n",
      "ENSB 101950Z VRB03KT 9999 FEW015 M11/M14 Q1017 RMK WIND 1400FT VRB02KT=\n",
      "ENSB 102020Z 00000KT 9999 FEW015 M11/M14 Q1017 RMK WIND 1400FT 00000KT=\n",
      "ENSB 102050Z 11005KT 9999 FEW015 M11/M14 Q1017 RMK WIND 1400FT VRB01KT=\n",
      "ENSB 102120Z 12005KT 9999 FEW015 M11/M14 Q1016 RMK WIND 1400FT VRB01KT=\n",
      "ENSB 102150Z 11007KT 9999 FEW015 M11/M14 Q1016 RMK WIND 1400FT 06003KT=\n",
      "ENSB 102220Z 10005KT 9999 FEW015 M11/M14 Q1016 RMK WIND 1400FT 26002KT=\n",
      "ENSB 102250Z 11006KT 9999 FEW015 M12/M15 Q1016 RMK WIND 1400FT 00000KT=\n",
      "ENSB 102320Z 10003KT 9999 FEW015 M12/M15 Q1016 RMK WIND 1400FT 26004KT=\n",
      "ENSB 102350Z 09004KT CAVOK M12/M14 Q1016 RMK WIND 1400FT VRB03KT=\n",
      "\n",
      "\n",
      "ENSB 100442Z 1004/1024 24012KT 9999 FEW012=\n",
      "ENSB 100500Z 1006/1106 24009KT 9999 FEW012=\n",
      "ENSB 100744Z 1007/1106 24009KT 9999 FEW012 TEMPO 1007/1009 BKN012=\n",
      "ENSB 100924Z 1009/1106 24008KT 9999 FEW012 PROB40 TEMPO 1009/1011 BKN012=\n",
      "ENSB 101100Z 1012/1112 VRB05KT 9999 FEW012=\n",
      "ENSB 101223Z 1012/1112 VRB05KT 9999 FEW010 BKN012=\n",
      "ENSB 101314Z 1013/1112 VRB05KT 9999 FEW010 SCT012 TEMPO 1013/1024 BKN012=\n",
      "ENSB 101700Z 1018/1118 VRB05KT 9999 FEW012 PROB40 TEMPO 1018/1024 BKN012=\n",
      "ENSB 102300Z 1100/1124 10005KT 9999 FEW012=\n",
      "\n",
      "\n"
     ]
    }
   ],
   "source": [
    "import requests\n",
    "import json\n",
    "\n",
    "# Funksjoner\n",
    "def get_metar(icao_code, date):\n",
    "    base_url = \"https://api.met.no/weatherapi/tafmetar/1.0/\"\n",
    "    \n",
    "    metar_url = f\"{base_url}?icao={icao_code}&content_type=text/plain&content=metar&date={date}\"\n",
    "    \n",
    "    metar_response = requests.get(metar_url)\n",
    "    \n",
    "    metar_data = metar_response.text\n",
    "    \n",
    "    return metar_data\n",
    "\n",
    "def get_taf(icao_code, date):\n",
    "    base_url = \"https://api.met.no/weatherapi/tafmetar/1.0/\"\n",
    "    \n",
    "    taf_url = f\"{base_url}?icao={icao_code}&content_type=text/plain&content=taf&date={date}\"\n",
    "    \n",
    "    taf_response = requests.get(taf_url)\n",
    "    \n",
    "    taf_data = taf_response.text\n",
    "    \n",
    "    return taf_data\n",
    "\n",
    "# Parametere\n",
    "icao_codes = [\"ENSB\"]\n",
    "dates = [\"2024-03-10\"]\n",
    "for icao_code in icao_codes:\n",
    "    for date in dates:\n",
    "        # Henter informasjon for gitte parametere\n",
    "        metar = get_metar(icao_code, date)\n",
    "        taf = get_taf(icao_code, date)\n",
    "\n",
    "        # Samler dataene i en JSON-fil\n",
    "        data = {\n",
    "            \"metar\": metar,\n",
    "            \"taf\": taf\n",
    "            } # finne en m책te 책 dele den opp mellom hver = -tegn\n",
    "        file_name = f\"{icao_code}_{date}.json\"\n",
    "        # Lagrer dataene i en JSON-file\n",
    "        with open(f\"../data/{file_name}\", \"w\") as json_file:\n",
    "            json.dump(data, json_file, indent=4)\n",
    "\n",
    "# Printer ut resultatet\n",
    "print(metar)\n",
    "print(taf)\n"
   ]
  },
  {
   "cell_type": "code",
   "execution_count": 26,
   "metadata": {},
   "outputs": [
    {
     "name": "stdout",
     "output_type": "stream",
     "text": [
      "ENGM 100020Z 09006KT 060V130 9999 OVC020 M02/M06 Q1022=\n",
      "ENGM 100050Z 09005KT 050V130 9999 OVC019 M02/M06 Q1022=\n",
      "ENGM 100120Z 07008KT 9999 OVC019 M02/M06 Q1022=\n",
      "ENGM 100150Z 08007KT 9999 OVC019 M02/M06 Q1022=\n",
      "ENGM 100220Z 09005KT 050V120 9999 OVC018 M02/M06 Q1022=\n",
      "ENGM 100250Z 07007KT 9999 OVC018 M03/M06 Q1022=\n",
      "ENGM 100320Z 08008KT 9999 OVC018 M03/M06 Q1022=\n",
      "ENGM 100350Z 07006KT 9999 OVC017 M03/M06 Q1022=\n",
      "ENGM 100420Z 07006KT 9999 OVC017 M03/M06 Q1022=\n",
      "ENGM 100450Z 07007KT 9999 OVC016 M03/M06 Q1022 NOSIG=\n",
      "ENGM 100520Z 06007KT 9999 OVC015 M03/M06 Q1022 TEMPO BKN012=\n",
      "ENGM 100550Z 06006KT 9999 VCSH BKN015 M03/M06 Q1022 TEMPO BKN012=\n",
      "ENGM 100620Z 05007KT 9999 -SN OVC012 M03/M05 Q1022 TEMPO BKN015=\n",
      "ENGM 100650Z 06006KT 020V100 9999 -SN BKN011 M04/M05 Q1023 TEMPO BKN015=\n",
      "ENGM 100720Z 05007KT 9999 -FZDZ BKN011 M04/M05 Q1023 TEMPO BKN015=\n",
      "ENGM 100750Z 06006KT 9999 -SN FEW018 BKN021 M04/M06 Q1023 NOSIG=\n",
      "ENGM 100820Z 04007KT 9999 -SN FEW015 BKN018 M04/M06 Q1023 NOSIG=\n",
      "ENGM 100850Z 04007KT 9999 -FZDZ FEW012 BKN018 M04/M06 Q1023 NOSIG=\n",
      "ENGM 100920Z 03007KT 9000 -FZDZ FEW011 BKN013 M03/M05 Q1023 TEMPO NSW BKN015=\n",
      "ENGM 100950Z 03007KT 9999 -FZDZ SCT010 BKN015 M03/M05 Q1023 TEMPO NSW BKN012=\n",
      "ENGM 101020Z 03008KT 9999 -FZDZ FEW008 BKN010 M03/M05 Q1022 TEMPO NSW BKN015=\n",
      "ENGM 101050Z 04007KT 9999 -FZDZ FEW009 BKN011 M03/M05 Q1022 TEMPO BKN015=\n",
      "ENGM 101120Z 04007KT 9999 -FZDZ FEW010 BKN014 M03/M05 Q1022 TEMPO BKN015=\n",
      "ENGM 101150Z 06007KT 030V100 9999 VCSH OVC012 M03/M05 Q1022 TEMPO BKN015=\n",
      "ENGM 101220Z 08007KT 040V100 9999 VCSH OVC014 M03/M05 Q1022 TEMPO BKN015=\n",
      "ENGM 101250Z 05007KT 9999 VCSH BKN016 M02/M06 Q1022 NOSIG=\n",
      "ENGM 101320Z 05009KT 9999 BKN016 M02/M05 Q1022 NOSIG=\n",
      "ENGM 101350Z 06007KT 9999 BKN017 M02/M06 Q1022 NOSIG=\n",
      "ENGM 101420Z 06006KT 9999 BKN018 M02/M06 Q1022 NOSIG=\n",
      "ENGM 101450Z 05006KT 020V100 9999 BKN018 M02/M06 Q1022 NOSIG=\n",
      "ENGM 101520Z 04006KT 9999 BKN019 M02/M06 Q1022=\n",
      "ENGM 101550Z 04006KT 9999 BKN019 M02/M06 Q1022 NOSIG=\n",
      "ENGM 101620Z 05006KT 9999 BKN019 M02/M06 Q1022 NOSIG=\n",
      "ENGM 101650Z 04006KT 9999 BKN020 M02/M05 Q1022 NOSIG=\n",
      "ENGM 101720Z 04006KT 010V070 9999 BKN021 M02/M06 Q1022 NOSIG=\n",
      "ENGM 101750Z 03006KT 9999 BKN023 M02/M06 Q1022 NOSIG=\n",
      "ENGM 101820Z 03006KT 9999 BKN023 M02/M06 Q1022 NOSIG=\n",
      "ENGM 101850Z 03006KT 9999 BKN023 M02/M06 Q1022 NOSIG=\n",
      "ENGM 101920Z 03007KT 9999 BKN023 M02/M06 Q1022 NOSIG=\n",
      "ENGM 101950Z 03007KT 9999 BKN023 M02/M06 Q1022 NOSIG=\n",
      "ENGM 102020Z 03006KT 9999 BKN023 M02/M06 Q1022 NOSIG=\n",
      "ENGM 102050Z 03006KT 9999 BKN023 M03/M06 Q1022 NOSIG=\n",
      "ENGM 102120Z 03006KT 9999 BKN022 M03/M06 Q1022 NOSIG=\n",
      "ENGM 102150Z 02006KT 9999 BKN023 M03/M06 Q1022 NOSIG=\n",
      "ENGM 102220Z 02006KT 9999 BKN022 M03/M06 Q1022=\n",
      "ENGM 102250Z 02006KT 9999 BKN022 M03/M06 Q1022=\n",
      "ENGM 102320Z 02006KT 9999 BKN024 M03/M06 Q1022=\n",
      "ENGM 102350Z 02006KT 9999 BKN025 M03/M06 Q1022=\n",
      "ENNA 100020Z 29019KT 9999 BKN025/// OVC046/// 05/00 Q1019 RMK WIND 1800FT 29040KT=\n",
      "ENNA 100050Z 29021KT 9999 BKN027/// OVC049/// 05/00 Q1018 RMK WIND 1800FT 28041KT=\n",
      "ENNA 100120Z 29022KT 9999 SCT026/// OVC051/// 05/00 Q1018 RMK WIND 1800FT 29040KT=\n",
      "ENNA 100150Z 27018G31KT 240V300 9999 FEW022/// OVC047/// 05/00 Q1018 RMK WIND 1800FT 29039KT=\n",
      "ENNA 100220Z 28018KT 250V310 9999 SCT025/// OVC048/// 05/00 Q1018 RMK WIND 1800FT 29040KT=\n",
      "ENNA 100250Z 28019KT 9999 BKN024/// OVC045/// 05/00 Q1018 RMK WIND 1800FT 29039KT=\n",
      "ENNA 100320Z VRB06G26KT 9999 BKN024/// OVC030/// 05/00 Q1018 RMK WIND 1800FT 29038KT=\n",
      "ENNA 100350Z 29023G35KT 9999 BKN023/// OVC045/// 04/00 Q1017 RMK WIND 1800FT 29039KT=\n",
      "ENNA 100420Z 29017G31KT 250V320 9999 BKN023/// OVC032/// 05/00 Q1017 RMK WIND 1800FT 29033G49KT=\n",
      "ENNA 100450Z 29021G35KT 9999 BKN023/// BKN029/// OVC040/// 05/00 Q1017 RMK WIND 1800FT 29029G45KT=\n",
      "ENNA 100520Z VRB08G20KT 9999 OVC022/// 05/00 Q1017 RMK WIND 1800FT 29031G44KT=\n",
      "ENNA 100550Z 32010KT 280V040 9999 OVC021/// 05/00 Q1017 RMK WIND 1800FT 30034KT=\n",
      "ENNA 100620Z 33016KT 9999 OVC024/// 05/M00 Q1017 RMK WIND 1800FT 30035KT=\n",
      "ENNA 100650Z 35017G28KT 9999 OVC026/// 04/M00 Q1017 RMK WIND 1800FT 30035KT=\n",
      "ENNA 100720Z 35015KT 320V020 9999 FEW026/// SCT160/// 04/M01 Q1017 RMK WIND 1800FT 29039KT=\n",
      "ENNA 100750Z 28023G33KT 9999 FEW029/// SCT100/// 05/M01 Q1016 RMK WIND 1800FT 28037KT=\n",
      "ENNA 100820Z 28028KT 9999 SCT098/// 05/00 Q1016 RMK WIND 1800FT 27041KT=\n",
      "ENNA 100850Z 28026G37KT 9999 FEW120/// 05/00 Q1015 RMK WIND 1800FT 28035KT=\n",
      "ENNA 100920Z 28027KT 9999 NCD 05/01 Q1015 RERASN RMK WIND 1800FT 29034KT=\n",
      "ENNA 100950Z 27023KT 9999 // SCT057/// 06/01 Q1016 RESHRA RERA RMK WIND 1800FT 29034KT=\n",
      "ENNA 101020Z 31013KT 9999 SCT022 BKN031 OVC055 05/01 Q1016 RMK WIND 1800FT 30037KT=\n",
      "ENNA 101050Z 32015KT 9999 SCT022 BKN035 05/01 Q1016 RMK WIND 1800FT 30042KT=\n",
      "ENNA 101120Z 31017G30KT 9999 SCT022 BKN066 05/01 Q1016 RMK WIND 1800FT 30046KT=\n",
      "ENNA 101150Z 31021G33KT 290V350 9999 SCT023 BKN064 06/01 Q1016 RMK WIND 1800FT 30044KT=\n",
      "ENNA 101220Z 30023KT 9999 SCT020 BKN062 05/01 Q1015 RMK WIND 1800FT 30045KT=\n",
      "ENNA 101250Z 32019KT 9999 SCT023 BKN039 BKN055 06/01 Q1016 RMK WIND 1800FT 30036KT=\n",
      "ENNA 101320Z 31019KT 9999 VCSH SCT020 BKN040 BKN055 06/01 Q1016 RMK WIND 1800FT 30036KT=\n",
      "ENNA 101350Z 32015KT 9999 VCSH SCT020 BKN030 BKN050 05/01 Q1016 RMK WIND 1800FT 30034KT=\n",
      "ENNA 101420Z 32013KT 9999 VCSH SCT020 BKN030 BKN050 05/01 Q1016 RMK WIND 1800FT 31031KT=\n",
      "ENNA 101450Z 31018KT 9999 FEW021 BKN047 05/01 Q1016 RMK WIND 1800FT 30031KT=\n",
      "ENNA 101520Z 32015KT 9999 BKN023 OVC046 05/01 Q1016 RMK WIND 1800FT 31029KT=\n",
      "ENNA 101550Z 34012KT 9999 BKN019 03/01 Q1016 RMK WIND 1800FT 32027KT=\n",
      "ENNA 101620Z 35010KT 9999 OVC016 02/01 Q1016 RMK WIND 1800FT 33028KT=\n",
      "ENNA 101650Z 36010KT 9999 VCSH OVC016 03/01 Q1016 RMK WIND 1800FT 33028KT=\n",
      "ENNA 101720Z 01008KT 9999 BKN015 03/01 Q1016 RMK WIND 1800FT 33030KT=\n",
      "ENNA 101750Z 35012KT 9999 BKN017 OVC021 02/00 Q1017 RMK WIND 1800FT 33031KT=\n",
      "ENNA 101820Z 03009KT 9999 SCT014 OVC020 02/00 Q1017 RMK WIND 1800FT 33026KT=\n",
      "ENNA 101850Z 01007KT 9999 OVC015 02/00 Q1017 RMK WIND 1800FT 33025KT=\n",
      "ENNA 101920Z 04006KT 010V090 9999 OVC019 02/00 Q1017 RMK WIND 1800FT 33028KT=\n",
      "ENNA 101950Z 03009KT 350V060 9999 BKN018/// OVC024/// 02/M00 Q1017 RMK WIND 1800FT 33025KT=\n",
      "ENNA 102020Z 36010KT 9999 SCT019/// BKN023/// OVC039/// 02/M00 Q1017 RMK WIND 1800FT 33025KT=\n",
      "ENNA 102050Z 36009KT 9999 -RA BKN021/// OVC028/// 02/M00 Q1018 RMK WIND 1800FT 33020KT=\n",
      "ENNA 102120Z 01005KT 9999 SCT019/// OVC039/// 02/M00 Q1018 RMK WIND 1800FT 33019KT=\n",
      "ENNA 102150Z 36008KT 9999 OVC038/// 02/M00 Q1018 RMK WIND 1800FT 31017KT=\n",
      "ENNA 102220Z 36009KT 9999 FEW028/// OVC038/// 02/M00 Q1018 RMK WIND 1800FT 32017KT=\n",
      "ENNA 102250Z 08005KT 9999 BKN024/// OVC039/// 02/M01 Q1018 RMK WIND 1800FT 31014KT=\n",
      "ENNA 102320Z 03004KT 360V060 9999 OVC037/// 01/M01 Q1018 RMK WIND 1800FT 30020KT=\n",
      "ENNA 102350Z 01006KT 9999 OVC038/// 01/M01 Q1018 RMK WIND 1800FT 31021KT=\n",
      "ENOL 100020Z 12016KT CAVOK 01/M05 Q1018=\n",
      "ENOL 100050Z 13017KT CAVOK 01/M05 Q1018=\n",
      "ENOL 100120Z 12017KT CAVOK 01/M05 Q1018=\n",
      "ENOL 100150Z 12019KT CAVOK 01/M06 Q1018=\n",
      "ENOL 100220Z 13020KT CAVOK 01/M06 Q1018=\n",
      "ENOL 100250Z 12018KT CAVOK 01/M06 Q1018=\n",
      "ENOL 100320Z 13017KT CAVOK 01/M06 Q1018=\n",
      "ENOL 100350Z 13019KT CAVOK 01/M07 Q1018=\n",
      "ENOL 100420Z 13019KT CAVOK 01/M07 Q1018=\n",
      "ENOL 100450Z 13019KT CAVOK 01/M07 Q1018=\n",
      "ENOL 100520Z 13019KT CAVOK 00/M07 Q1018 TEMPO 13020G30KT=\n",
      "ENOL 100550Z 13021KT CAVOK 00/M07 Q1018 NOSIG=\n",
      "ENOL 100620Z 13019KT CAVOK 00/M07 Q1019 NOSIG=\n",
      "ENOL 100650Z 13021KT CAVOK 00/M07 Q1019 NOSIG=\n",
      "ENOL 100720Z 13020KT CAVOK 00/M07 Q1019 NOSIG=\n",
      "ENOL 100750Z 13020KT CAVOK 01/M08 Q1019 NOSIG=\n",
      "ENOL 100820Z 13021KT CAVOK 01/M08 Q1019 NOSIG=\n",
      "ENOL 100850Z 13020KT CAVOK 01/M08 Q1019 NOSIG=\n",
      "ENOL 100920Z 13021KT CAVOK 01/M08 Q1019 NOSIG=\n",
      "ENOL 100950Z 13020KT CAVOK 02/M08 Q1019 NOSIG=\n",
      "ENOL 101020Z 13020KT CAVOK 02/M07 Q1019 NOSIG=\n",
      "ENOL 101050Z 13019KT CAVOK 02/M08 Q1019 NOSIG=\n",
      "ENOL 101120Z 13019KT CAVOK 03/M08 Q1019 NOSIG=\n",
      "ENOL 101150Z 13018KT CAVOK 03/M08 Q1019 NOSIG=\n",
      "ENOL 101220Z 13018KT CAVOK 03/M08 Q1019 NOSIG=\n",
      "ENOL 101250Z 13014KT CAVOK 04/M07 Q1019 NOSIG=\n",
      "ENOL 101320Z 14016KT CAVOK 04/M07 Q1019 NOSIG=\n",
      "ENOL 101350Z 12015KT CAVOK 04/M07 Q1019 NOSIG=\n",
      "ENOL 101420Z 12014KT CAVOK 04/M07 Q1018 NOSIG=\n",
      "ENOL 101450Z 12016KT CAVOK 04/M07 Q1018 NOSIG=\n",
      "ENOL 101520Z 12015KT CAVOK 03/M07 Q1018 NOSIG=\n",
      "ENOL 101550Z 12015KT CAVOK 03/M07 Q1018 NOSIG=\n",
      "ENOL 101620Z 12013KT CAVOK 03/M08 Q1018 NOSIG=\n",
      "ENOL 101650Z 12013KT CAVOK 02/M07 Q1018 NOSIG=\n",
      "ENOL 101720Z 11012KT CAVOK 02/M07 Q1018 NOSIG=\n",
      "ENOL 101750Z 11012KT CAVOK 01/M07 Q1018 NOSIG=\n",
      "ENOL 101820Z 11012KT CAVOK 01/M07 Q1018 NOSIG=\n",
      "ENOL 101850Z 11012KT CAVOK 01/M07 Q1018 NOSIG=\n",
      "ENOL 101920Z 11012KT CAVOK 01/M07 Q1018 NOSIG=\n",
      "ENOL 101950Z 12013KT CAVOK 01/M07 Q1018 NOSIG=\n",
      "ENOL 102020Z 11012KT CAVOK 00/M07 Q1018 NOSIG=\n",
      "ENOL 102050Z 12013KT CAVOK 00/M07 Q1019 NOSIG=\n",
      "ENOL 102120Z 12011KT CAVOK 00/M07 Q1019 NOSIG=\n",
      "ENOL 102150Z 12010KT CAVOK 00/M07 Q1019 NOSIG=\n",
      "ENOL 102220Z 13015KT CAVOK 00/M08 Q1019=\n",
      "ENOL 102250Z 11011KT CAVOK M00/M07 Q1019=\n",
      "ENOL 102320Z 11012KT CAVOK M00/M07 Q1019=\n",
      "ENOL 102350Z 12013KT CAVOK M00/M07 Q1019=\n",
      "\n",
      "\n",
      "ENGM 100500Z 1006/1106 07007KT 9999 BKN018 PROB30 1006/1010 BKN012=\n",
      "ENGM 100714Z 1007/1106 07007KT 9999 BKN018 PROB30 1007/1010 -FZDZ BKN012=\n",
      "ENGM 100953Z 1009/1106 05007KT 9999 BKN015 TEMPO 1009/1012 -FZDZ BKN012=\n",
      "ENGM 101100Z 1012/1112 05007KT 9999 BKN015 PROB40 TEMPO 1012/1014 -FZDZ BKN012=\n",
      "ENGM 101700Z 1018/1118 04008KT 9999 BKN018 PROB40 1103/1111 BKN012=\n",
      "ENGM 102300Z 1100/1124 04008KT 9999 BKN020 PROB30 TEMPO 1103/1109 BKN012=\n",
      "ENNA 100150Z 1001/1024 32015KT 9999 FEW020 BKN040 TEMPO 1001/1006 29020G30KT TEMPO 1006/1018 30015G25KT=\n",
      "ENNA 100500Z 1006/1106 29015KT 9999 SCT015 BKN020 TEMPO 1006/1012 29020G30KT TEMPO 1012/1018 30015G25KT BECMG 1016/1019 35005KT=\n",
      "ENNA 100651Z 1006/1106 32015KT 9999 SCT015 BKN020 TEMPO 1006/1012 34020G30KT TEMPO 1012/1018 30015G25KT BECMG 1016/1019 35005KT=\n",
      "ENNA 100821Z 1008/1106 30015KT 9999 SCT015 BKN020 TEMPO 1008/1012 30020G30KT TEMPO 1012/1018 30015G25KT BECMG 1016/1019 35005KT=\n",
      "ENNA 101100Z 1012/1112 30018KT 9999 SCT040 TEMPO 1012/1014 28022G32KT TEMPO 1014/1018 30015G25KT TEMPO 1017/1020 BKN014 BECMG 1017/1020 35008KT=\n",
      "ENNA 101700Z 1018/1118 35008KT 9999 FEW012 SCT040 TEMPO 1018/1024 BKN014=\n",
      "ENNA 102300Z 1100/1124 35008KT 9999 FEW012 SCT040=\n",
      "ENOL 100500Z 1006/1106 13015KT CAVOK TEMPO 1006/1010 13018G28KT=\n",
      "ENOL 101100Z 1012/1112 13015KT CAVOK=\n",
      "ENOL 101700Z 1018/1118 11012KT CAVOK TEMPO 1116/1118 04008KT=\n",
      "ENOL 102300Z 1100/1124 11012KT CAVOK TEMPO 1116/1124 04008KT=\n",
      "\n",
      "\n"
     ]
    }
   ],
   "source": [
    "import requests\n",
    "import pandas as pd\n",
    "import json\n",
    "\n",
    "# Funksjoner\n",
    "def get_metar(icao_code, date):\n",
    "    base_url = \"https://api.met.no/weatherapi/tafmetar/1.0/\"\n",
    "    \n",
    "    metar_url = f\"{base_url}?icao={icao_code}&content_type=text/plain&content=metar&date={date}\"\n",
    "    \n",
    "    metar_response = requests.get(metar_url)\n",
    "    \n",
    "    metar_data = metar_response.text\n",
    "    \n",
    "    return metar_data\n",
    "\n",
    "def get_taf(icao_code, date):\n",
    "    base_url = \"https://api.met.no/weatherapi/tafmetar/1.0/\"\n",
    "    \n",
    "    taf_url = f\"{base_url}?icao={icao_code}&content_type=text/plain&content=taf&date={date}\"\n",
    "    \n",
    "    taf_response = requests.get(taf_url)\n",
    "    \n",
    "    taf_data = taf_response.text\n",
    "    \n",
    "    return taf_data\n",
    "\n",
    "# Parametere\n",
    "icao_codes = [\"ENOL,ENNA,ENGM\"]\n",
    "dates = [\"2024-03-10\"]\n",
    "all_data =[]\n",
    "for icao_code in icao_codes:\n",
    "    for date in dates:\n",
    "        # Henter informasjon for gitte parametere\n",
    "        metar = get_metar(icao_code, date)\n",
    "        taf = get_taf(icao_code, date)\n",
    "\n",
    "        # Samler dataene i en JSON-fil\n",
    "data = {\n",
    "    \"metar\": metar,\n",
    "    \"taf\": taf\n",
    "    } # finne en m책te 책 dele den opp mellom hver = -tegn\n",
    "\n",
    "file_name = f\"{icao_code}_{date}.json\"\n",
    "# Lagrer dataene i en JSON-file\n",
    "with open(f\"../data/{file_name}\", \"w\") as json_file:\n",
    "        json.dump(data, json_file, indent=4)\n",
    "\n",
    "# Lagrer dataene i en CSV-fil\n",
    "all_data.append(data)\n",
    "df = pd.DataFrame(all_data)\n",
    "df.to_csv(f'../data/data{icao_code}.csv')\n",
    "\n",
    "#Printer ut resultatet\n",
    "print(metar)\n",
    "print(taf)\n"
   ]
  }
 ],
 "metadata": {
  "kernelspec": {
   "display_name": "venv",
   "language": "python",
   "name": "python3"
  },
  "language_info": {
   "codemirror_mode": {
    "name": "ipython",
    "version": 3
   },
   "file_extension": ".py",
   "mimetype": "text/x-python",
   "name": "python",
   "nbconvert_exporter": "python",
   "pygments_lexer": "ipython3",
   "version": "3.13.1"
  }
 },
 "nbformat": 4,
 "nbformat_minor": 2
}
